{"type":"FeatureCollection","features":[{"type":"Feature","properties":{"GEOID":"06001","NAME":"Alameda County","source":"U.S. Census Bureau TIGER/Line county shapefiles via TIGERweb State_County MapServer layer 1 (Counties), outSR EPSG:4326","fetched":"2026-09-06","simplify_tolerance_deg":0.001},"geometry":{"type":"Polygon","coordinates":[[[-122.373121,37.883884],[-122.346681,37.811027],[-122.28178,37.70823],[-122.109574,37.497637],[-122.051931,37.459251],[-122.047825,37.459007],[-122.036182,37.464966],[-121.996671,37.467239],[-121.992669,37.464639],[-121.980014,37.460892],[-121.959313,37.463515],[-121.949602,37.461408],[-121.946409,37.463362],[-121.947087,37.467424],[-121.944914,37.469163],[-121.944226,37.465822],[-121.941085,37.464948],[-121.939241,37.462487],[-121.936025,37.462929],[-121.934732,37.460524],[-121.931199,37.460644],[-121.932626,37.455147],[-121.928444,37.457394],[-121.92785,37.455262],[-121.925041,37.454186],[-121.911332,37.462236],[-121.890856,37.467982],[-121.887738,37.470936],[-121.881155,37.471076],[-121.865267,37.484637],[-121.471925,37.481783],[-121.471198,37.482829],[-121.469275,37.489688],[-121.479362,37.496484],[-121.482065,37.501439],[-121.493183,37.502421],[-121.496017,37.504938],[-121.495382,37.508133],[-121.497232,37.512463],[-121.502371,37.51847],[-121.498268,37.522427],[-121.501475,37.525003],[-121.522328,37.524705],[-121.528817,37.52806],[-121.530386,37.527061],[-121.540611,37.529822],[-121.545754,37.532532],[-121.550454,37.539332],[-121.556655,37.542732],[-121.556997,37.816488],[-121.96004,37.718531],[-121.971938,37.730324],[-121.988097,37.733149],[-121.995426,37.738351],[-122.001071,37.739028],[-122.011771,37.747428],[-122.010771,37.755127],[-121.997411,37.76336],[-122.0138,37.780128],[-122.030472,37.787727],[-122.045473,37.798126],[-122.140698,37.804717],[-122.148808,37.81376],[-122.157392,37.817952],[-122.166873,37.813424],[-122.177873,37.816323],[-122.185577,37.820726],[-122.187024,37.827537],[-122.183818,37.834353],[-122.185116,37.837353],[-122.188765,37.837737],[-122.195268,37.84163],[-122.195106,37.843605],[-122.200761,37.847445],[-122.2031,37.851192],[-122.208898,37.851941],[-122.211933,37.856946],[-122.221418,37.865468],[-122.216372,37.869075],[-122.21764,37.87225],[-122.22362,37.878566],[-122.22884,37.881023],[-122.244079,37.883224],[-122.249262,37.886972],[-122.250162,37.893356],[-122.25294,37.893764],[-122.253702,37.896193],[-122.255936,37.896031],[-122.256929,37.899841],[-122.260837,37.899685],[-122.264027,37.903775],[-122.270349,37.904391],[-122.27108,37.905824],[-122.27787,37.90315],[-122.277282,37.901721],[-122.278779,37.900739],[-122.288437,37.897597],[-122.296541,37.898925],[-122.312842,37.897348],[-122.373121,37.883884]]]}},{"type":"Feature","properties":{"GEOID":"06013","NAME":"Contra Costa County","source":"U.S. Census Bureau TIGER/Line county shapefiles via TIGERweb State_County MapServer layer 1 (Counties), outSR EPSG:4326","fetched":"2026-09-06","simplify_tolerance_deg":0.001},"geometry":{"type":"Polygon","coordinates":[[[-121.96004,37.718531],[-121.556997,37.816488],[-121.553311,37.818825],[-121.551154,37.825101],[-121.552095,37.829703],[-121.549459,37.833569],[-121.544187,37.832545],[-121.538051,37.83776],[-121.538158,37.842636],[-121.534102,37.849457],[-121.537209,37.850838],[-121.539038,37.848884],[-121.54072,37.849413],[-121.542033,37.851803],[-121.540643,37.857597],[-121.547496,37.855226],[-121.552836,37.861182],[-121.555255,37.858007],[-121.560326,37.858596],[-121.562267,37.85643],[-121.561977,37.853138],[-121.565903,37.857863],[-121.570454,37.857585],[-121.568978,37.860573],[-121.578021,37.857821],[-121.579429,37.86016],[-121.573389,37.865751],[-121.579334,37.870637],[-121.57387,37.883395],[-121.575851,37.888293],[-121.568375,37.89168],[-121.565904,37.897672],[-121.572824,37.904301],[-121.563289,37.910601],[-121.565981,37.916259],[-121.565114,37.919173],[-121.558262,37.921381],[-121.556408,37.923639],[-121.558899,37.927926],[-121.557274,37.932247],[-121.561455,37.935885],[-121.56088,37.93988],[-121.563618,37.94344],[-121.558175,37.945379],[-121.557846,37.947007],[-121.560683,37.947579],[-121.567409,37.943982],[-121.568846,37.948452],[-121.563514,37.954745],[-121.573589,37.953756],[-121.575188,37.955045],[-121.574501,37.956939],[-121.565586,37.957785],[-121.56497,37.95896],[-121.573713,37.966434],[-121.574823,37.973025],[-121.58021,37.97637],[-121.573288,37.977654],[-121.572393,37.979045],[-121.58236,37.983461],[-121.581025,37.989525],[-121.576084,37.994855],[-121.579236,37.998115],[-121.57056,37.999025],[-121.568845,38.002234],[-121.578245,38.003898],[-121.57991,38.007783],[-121.577015,38.01111],[-121.567149,38.011983],[-121.566965,38.013528],[-121.572605,38.016395],[-121.572052,38.01841],[-121.567998,38.018521],[-121.561069,38.015441],[-121.557528,38.016615],[-121.563754,38.024757],[-121.564226,38.029699],[-121.571388,38.030423],[-121.570819,38.038003],[-121.573009,38.04215],[-121.577634,38.04296],[-121.580185,38.041268],[-121.580786,38.038789],[-121.577948,38.033817],[-121.578834,38.03264],[-121.581686,38.032355],[-121.584388,38.036025],[-121.584719,38.043545],[-121.582305,38.051436],[-121.583879,38.059897],[-121.582203,38.068423],[-121.572893,38.073742],[-121.576749,38.078193],[-121.579252,38.09342],[-121.585283,38.096366],[-121.604923,38.099878],[-121.627376,38.09836],[-121.632595,38.088611],[-121.638088,38.086131],[-121.645183,38.087413],[-121.661865,38.095618],[-121.673065,38.093518],[-121.679265,38.089319],[-121.681865,38.082019],[-121.679623,38.069469],[-121.680859,38.062129],[-121.699765,38.04522],[-121.725565,38.03382],[-121.737824,38.02663],[-121.763474,38.023518],[-121.777485,38.018917],[-121.783144,38.018536],[-121.790769,38.01862],[-121.80127,38.021622],[-121.814513,38.020756],[-121.828067,38.02802],[-121.837936,38.038944],[-121.841659,38.051974],[-121.846802,38.059955],[-121.853639,38.064776],[-121.862138,38.066066],[-121.867402,38.056895],[-121.874743,38.050676],[-121.889573,38.046657],[-121.906801,38.045002],[-121.922121,38.045901],[-121.935428,38.048793],[-121.950911,38.053918],[-121.962208,38.061365],[-121.97744,38.06684],[-122.015175,38.063481],[-122.028411,38.05919],[-122.050874,38.060201],[-122.061103,38.062137],[-122.07743,38.054005],[-122.098726,38.04746],[-122.123973,38.035717],[-122.139366,38.032177],[-122.148577,38.031721],[-122.164577,38.034721],[-122.176096,38.047772],[-122.183863,38.053997],[-122.200846,38.057934],[-122.245251,38.063969],[-122.265347,38.059918],[-122.347454,38.07326],[-122.37598,38.048466],[-122.392783,38.027021],[-122.441584,37.973923],[-122.440984,37.957423],[-122.432283,37.929824],[-122.373782,37.883725],[-122.312842,37.897348],[-122.296541,37.898925],[-122.288437,37.897597],[-122.278779,37.900739],[-122.277282,37.901721],[-122.27787,37.90315],[-122.27108,37.905824],[-122.270349,37.904391],[-122.264027,37.903775],[-122.260837,37.899685],[-122.256929,37.899841],[-122.255936,37.896031],[-122.253702,37.896193],[-122.25294,37.893764],[-122.250162,37.893356],[-122.249262,37.886972],[-122.244079,37.883224],[-122.22884,37.881023],[-122.22362,37.878566],[-122.21764,37.87225],[-122.216372,37.869075],[-122.221418,37.865468],[-122.211933,37.856946],[-122.208898,37.851941],[-122.2031,37.851192],[-122.200761,37.847445],[-122.195106,37.843605],[-122.195268,37.84163],[-122.188765,37.837737],[-122.185116,37.837353],[-122.183818,37.834353],[-122.187024,37.827537],[-122.185577,37.820726],[-122.177873,37.816323],[-122.166873,37.813424],[-122.157392,37.817952],[-122.148808,37.81376],[-122.140698,37.804717],[-122.045473,37.798126],[-122.030472,37.787727],[-122.0138,37.780128],[-121.997411,37.76336],[-122.010771,37.755127],[-122.011771,37.747428],[-122.001071,37.739028],[-121.995426,37.738351],[-121.988097,37.733149],[-121.971938,37.730324],[-121.96004,37.718531]]]}},{"type":"Feature","properties":{"GEOID":"06041","NAME":"Marin County","source":"U.S. Census Bureau TIGER/Line county shapefiles via TIGERweb State_County MapServer layer 1 (Counties), outSR EPSG:4326","fetched":"2026-09-06","simplify_tolerance_deg":0.001},"geometry":{"type":"Polygon","coordinates":[[[-122.47283,37.831892],[-122.418673,37.852505],[-122.432283,37.929824],[-122.440984,37.957423],[-122.441584,37.973923],[-122.392783,38.027021],[-122.37598,38.048466],[-122.347454,38.07326],[-122.451987,38.098519],[-122.501903,38.112424],[-122.507926,38.118098],[-122.513144,38.132235],[-122.520102,38.140696],[-122.534828,38.149202],[-122.544473,38.158716],[-122.549615,38.15729],[-122.557916,38.160158],[-122.557992,38.16353],[-122.55198,38.169001],[-122.554321,38.170112],[-122.559243,38.168619],[-122.563193,38.169318],[-122.564463,38.175081],[-122.568493,38.177018],[-122.565282,38.182714],[-122.570591,38.187117],[-122.573191,38.186318],[-122.570693,38.183518],[-122.578201,38.183583],[-122.581957,38.186172],[-122.582118,38.18802],[-122.590894,38.185943],[-122.592815,38.188783],[-122.600902,38.185282],[-122.60411,38.180632],[-122.622647,38.182624],[-122.625695,38.182337],[-122.628183,38.178887],[-122.635784,38.178649],[-122.637948,38.180249],[-122.649237,38.181127],[-122.65861,38.186778],[-122.663901,38.1864],[-122.667158,38.189697],[-122.680565,38.189627],[-122.687916,38.194743],[-122.701393,38.196099],[-122.704443,38.198455],[-122.714338,38.201222],[-122.715035,38.203398],[-122.722995,38.207132],[-122.7399,38.207018],[-122.898444,38.314516],[-122.899933,38.316793],[-122.909495,38.314394],[-122.910875,38.317086],[-122.907227,38.318732],[-122.908105,38.320752],[-122.915964,38.320316],[-122.920952,38.316836],[-122.916483,38.312809],[-122.921588,38.308554],[-122.925636,38.312736],[-122.93244,38.311741],[-122.935381,38.309605],[-122.936816,38.311179],[-122.934262,38.314012],[-122.939709,38.310848],[-122.944034,38.312674],[-122.946754,38.311209],[-122.966124,38.31697],[-122.970042,38.310128],[-122.974325,38.311512],[-122.981607,38.311135],[-122.984738,38.307948],[-122.987708,38.308115],[-122.991116,38.30558],[-122.994753,38.30619],[-122.993579,38.300079],[-123.002728,38.29571],[-123.134523,38.296263],[-123.123774,38.285787],[-123.119591,38.277103],[-123.110969,38.267263],[-123.100963,38.261358],[-123.049617,38.214286],[-123.045825,38.204926],[-123.038943,38.197528],[-123.037897,38.192491],[-123.031336,38.181462],[-123.030483,38.172458],[-123.027211,38.16417],[-123.014817,38.149132],[-123.023699,38.124923],[-123.063797,38.036487],[-123.074701,38.027199],[-123.0812,38.018971],[-123.08513,38.008433],[-123.08388,37.983366],[-123.07939,37.971937],[-123.067965,37.958669],[-123.050084,37.948016],[-123.022507,37.942065],[-122.976428,37.940149],[-122.953224,37.941093],[-122.931927,37.946672],[-122.91917,37.954835],[-122.909236,37.964644],[-122.902284,37.977386],[-122.889291,37.974109],[-122.879057,37.966578],[-122.876104,37.966342],[-122.85046,37.945585],[-122.842134,37.923317],[-122.825371,37.907093],[-122.814134,37.901084],[-122.789027,37.893763],[-122.785472,37.885277],[-122.779141,37.876132],[-122.766771,37.865804],[-122.752466,37.857699],[-122.740258,37.855174],[-122.724311,37.84768],[-122.704679,37.844296],[-122.691987,37.845006],[-122.675654,37.848517],[-122.667425,37.841726],[-122.643163,37.830451],[-122.632472,37.827807],[-122.626105,37.821597],[-122.612285,37.815224],[-122.528025,37.815102],[-122.528852,37.820108],[-122.525531,37.821119],[-122.52286,37.824929],[-122.511288,37.824703],[-122.499096,37.819883],[-122.49962,37.821884],[-122.49584,37.822137],[-122.491225,37.826603],[-122.478092,37.825349],[-122.478442,37.830912],[-122.47703,37.831149],[-122.47801,37.833041],[-122.474489,37.833637],[-122.47283,37.831892]]]}},{"type":"Feature","properties":{"GEOID":"06055","NAME":"Napa County","source":"U.S. Census Bureau TIGER/Line county shapefiles via TIGERweb State_County MapServer layer 1 (Counties), outSR EPSG:4326","fetched":"2026-09-06","simplify_tolerance_deg":0.001},"geometry":{"type":"Polygon","coordinates":[[[-122.103632,38.512161],[-122.104614,38.516921],[-122.109595,38.521411],[-122.109981,38.524121],[-122.111563,38.524051],[-122.113015,38.527177],[-122.111603,38.530877],[-122.115007,38.53394],[-122.114219,38.539433],[-122.123305,38.565014],[-122.121326,38.566869],[-122.121554,38.568896],[-122.126783,38.581417],[-122.126978,38.587442],[-122.131578,38.594653],[-122.134387,38.604634],[-122.149422,38.622273],[-122.148367,38.624578],[-122.149351,38.625462],[-122.155831,38.6227],[-122.159488,38.619279],[-122.16404,38.617893],[-122.16646,38.619662],[-122.166206,38.624968],[-122.168703,38.629866],[-122.160763,38.632807],[-122.159174,38.635113],[-122.164156,38.64059],[-122.163382,38.64265],[-122.160343,38.643953],[-122.166096,38.655178],[-122.174286,38.658911],[-122.180927,38.65717],[-122.190072,38.663482],[-122.202112,38.677744],[-122.198042,38.683617],[-122.201351,38.690659],[-122.206458,38.695775],[-122.21106,38.696011],[-122.210491,38.694716],[-122.212699,38.693339],[-122.218386,38.695212],[-122.222169,38.69856],[-122.221511,38.704695],[-122.226785,38.719581],[-122.223746,38.722272],[-122.22514,38.727409],[-122.228463,38.729593],[-122.233961,38.740405],[-122.240282,38.74326],[-122.242651,38.749693],[-122.245928,38.751066],[-122.24866,38.755065],[-122.254469,38.781595],[-122.258749,38.786445],[-122.258458,38.789451],[-122.260568,38.790941],[-122.261291,38.794024],[-122.264447,38.796325],[-122.265799,38.800685],[-122.269669,38.803307],[-122.273407,38.809729],[-122.27597,38.819425],[-122.281699,38.825932],[-122.287597,38.839968],[-122.301717,38.839505],[-122.302939,38.842575],[-122.315351,38.839583],[-122.324047,38.846252],[-122.330285,38.84231],[-122.334593,38.84377],[-122.342232,38.842184],[-122.347685,38.836388],[-122.35072,38.835867],[-122.372734,38.845235],[-122.376171,38.849028],[-122.38158,38.850162],[-122.391738,38.858195],[-122.395598,38.8643],[-122.403797,38.855842],[-122.40165,38.856163],[-122.396779,38.850879],[-122.390895,38.842667],[-122.389591,38.838355],[-122.3851,38.834719],[-122.381726,38.834067],[-122.375369,38.826453],[-122.376794,38.82215],[-122.373623,38.816733],[-122.375516,38.808312],[-122.378711,38.805817],[-122.379739,38.802154],[-122.389807,38.802528],[-122.397492,38.804948],[-122.404409,38.79863],[-122.40743,38.793874],[-122.408614,38.788232],[-122.412708,38.786034],[-122.407946,38.784515],[-122.407302,38.78021],[-122.409253,38.776264],[-122.403052,38.772982],[-122.416259,38.767998],[-122.464115,38.706134],[-122.633484,38.6693],[-122.628476,38.669031],[-122.623266,38.664353],[-122.623884,38.650572],[-122.626946,38.647561],[-122.627285,38.644608],[-122.632871,38.64045],[-122.634095,38.63755],[-122.631901,38.631998],[-122.632509,38.627964],[-122.62935,38.627152],[-122.628293,38.623038],[-122.633758,38.619917],[-122.633451,38.616187],[-122.639747,38.611734],[-122.639058,38.609204],[-122.644597,38.602938],[-122.646616,38.598095],[-122.634992,38.586387],[-122.634576,38.581421],[-122.630191,38.578496],[-122.631923,38.576471],[-122.631832,38.569367],[-122.626655,38.570199],[-122.622681,38.567692],[-122.620423,38.565669],[-122.620846,38.560317],[-122.614317,38.558679],[-122.608083,38.5599],[-122.603161,38.558806],[-122.601024,38.555933],[-122.587314,38.552647],[-122.585854,38.549391],[-122.582148,38.549399],[-122.577194,38.542308],[-122.574034,38.540429],[-122.572475,38.535955],[-122.569551,38.533109],[-122.570291,38.530002],[-122.566222,38.528149],[-122.566602,38.525553],[-122.563817,38.525368],[-122.562445,38.527094],[-122.554161,38.526174],[-122.55053,38.521989],[-122.547135,38.522601],[-122.543893,38.519966],[-122.543229,38.518028],[-122.545289,38.516712],[-122.541724,38.51328],[-122.550022,38.511177],[-122.54722,38.510338],[-122.545527,38.506798],[-122.542657,38.507157],[-122.540749,38.50308],[-122.535309,38.50169],[-122.537818,38.498165],[-122.542623,38.499094],[-122.544901,38.496285],[-122.541042,38.492095],[-122.536392,38.482706],[-122.531284,38.478535],[-122.529605,38.46957],[-122.515906,38.470876],[-122.505818,38.464695],[-122.509732,38.462162],[-122.508546,38.460316],[-122.509567,38.45742],[-122.497938,38.455419],[-122.493623,38.456849],[-122.492232,38.454589],[-122.479835,38.451272],[-122.485806,38.441442],[-122.485913,38.438203],[-122.491658,38.434598],[-122.493363,38.42934],[-122.497911,38.424575],[-122.47555,38.409276],[-122.474667,38.40588],[-122.470554,38.404948],[-122.47096,38.402497],[-122.467996,38.40013],[-122.470281,38.396716],[-122.465841,38.390218],[-122.456988,38.386749],[-122.454443,38.385002],[-122.454116,38.382151],[-122.448117,38.379505],[-122.449176,38.374938],[-122.451957,38.375211],[-122.456906,38.370689],[-122.457319,38.367744],[-122.453054,38.362811],[-122.446975,38.35908],[-122.437518,38.356991],[-122.436683,38.355137],[-122.429328,38.351001],[-122.429275,38.349476],[-122.426824,38.349026],[-122.4276,38.345716],[-122.425208,38.345591],[-122.420975,38.339114],[-122.419899,38.338255],[-122.417481,38.339794],[-122.41757,38.337558],[-122.412039,38.334294],[-122.413929,38.330772],[-122.409582,38.325734],[-122.409451,38.321114],[-122.408373,38.319909],[-122.405369,38.322038],[-122.401587,38.313801],[-122.396295,38.309092],[-122.394612,38.304724],[-122.400335,38.303243],[-122.403769,38.299846],[-122.401692,38.295347],[-122.401687,38.290655],[-122.400156,38.289675],[-122.404737,38.2817],[-122.400365,38.27455],[-122.396406,38.271221],[-122.39345,38.273657],[-122.387602,38.273764],[-122.389824,38.260796],[-122.384343,38.254457],[-122.37301,38.247213],[-122.37386,38.243861],[-122.3707,38.244272],[-122.369194,38.247361],[-122.365306,38.245986],[-122.363421,38.239034],[-122.365625,38.235681],[-122.363671,38.231239],[-122.363602,38.227608],[-122.365373,38.226186],[-122.364155,38.215281],[-122.361001,38.211394],[-122.36152,38.210048],[-122.357534,38.208866],[-122.350681,38.201831],[-122.349564,38.193972],[-122.350559,38.192704],[-122.355128,38.196862],[-122.360257,38.197115],[-122.360544,38.19506],[-122.357051,38.190634],[-122.357887,38.182607],[-122.359576,38.181793],[-122.36605,38.183846],[-122.36865,38.182666],[-122.369544,38.17452],[-122.365582,38.166029],[-122.367561,38.158792],[-122.37258,38.157715],[-122.384774,38.160964],[-122.396822,38.161451],[-122.406109,38.159379],[-122.407512,38.157813],[-122.406786,38.155632],[-122.19538,38.155017],[-122.19883,38.159325],[-122.193973,38.165068],[-122.195335,38.167254],[-122.203436,38.16878],[-122.203322,38.172558],[-122.208984,38.172889],[-122.21508,38.179717],[-122.212998,38.184308],[-122.215202,38.188813],[-122.209323,38.19005],[-122.211552,38.191983],[-122.205688,38.196334],[-122.204499,38.205447],[-122.199481,38.210677],[-122.193919,38.213711],[-122.196323,38.218071],[-122.193009,38.223117],[-122.201497,38.240147],[-122.204069,38.241053],[-122.205092,38.244111],[-122.209045,38.244552],[-122.212225,38.248785],[-122.211932,38.2508],[-122.211271,38.252805],[-122.201451,38.248916],[-122.199579,38.251237],[-122.19461,38.251843],[-122.194756,38.255193],[-122.193281,38.256415],[-122.197284,38.258866],[-122.203251,38.259791],[-122.213087,38.25925],[-122.216612,38.262522],[-122.216595,38.26466],[-122.212064,38.273108],[-122.209753,38.27175],[-122.197415,38.272968],[-122.194313,38.270933],[-122.188199,38.27173],[-122.191086,38.275902],[-122.190117,38.277534],[-122.198093,38.284895],[-122.201315,38.289878],[-122.201253,38.292804],[-122.203377,38.293352],[-122.198838,38.301236],[-122.202579,38.304172],[-122.200833,38.309556],[-122.204487,38.311643],[-122.206068,38.315775],[-122.064842,38.315912],[-122.068016,38.318635],[-122.065249,38.323493],[-122.061732,38.325666],[-122.06238,38.331973],[-122.065701,38.334334],[-122.069779,38.342811],[-122.070927,38.348443],[-122.069621,38.350941],[-122.073289,38.356885],[-122.073599,38.361545],[-122.077735,38.363816],[-122.089133,38.384635],[-122.109467,38.404497],[-122.109709,38.407442],[-122.115072,38.412258],[-122.11465,38.414018],[-122.117717,38.413996],[-122.126136,38.427461],[-122.126628,38.435451],[-122.123218,38.449568],[-122.10827,38.486258],[-122.104663,38.490861],[-122.107183,38.494507],[-122.105628,38.5012],[-122.106282,38.508306],[-122.103632,38.512161]]]}},{"type":"Feature","properties":{"GEOID":"06075","NAME":"San Francisco County","source":"U.S. Census Bureau TIGER/Line county shapefiles via TIGERweb State_County MapServer layer 1 (Counties), outSR EPSG:4326","fetched":"2026-09-06","simplify_tolerance_deg":0.001},"geometry":{"type":"MultiPolygon","coordinates":[[[[-122.423345,37.70928],[-122.28178,37.70823],[-122.346681,37.811027],[-122.373782,37.883725],[-122.432283,37.929824],[-122.418673,37.852505],[-122.47283,37.831892],[-122.474489,37.833637],[-122.477808,37.833224],[-122.478092,37.825349],[-122.491225,37.826603],[-122.49584,37.822137],[-122.49962,37.821884],[-122.499096,37.819883],[-122.511288,37.824703],[-122.520697,37.825279],[-122.523827,37.824553],[-122.525531,37.821119],[-122.528852,37.820108],[-122.528025,37.815102],[-122.612285,37.815224],[-122.588174,37.789362],[-122.584728,37.779156],[-122.581281,37.760203],[-122.575189,37.706721],[-122.436781,37.707919],[-122.423861,37.708195],[-122.423345,37.70928]]],[[[-123.173825,37.775727],[-123.172926,37.7636],[-123.169985,37.75593],[-123.162751,37.743533],[-123.156757,37.73784],[-123.132597,37.719393],[-123.126114,37.71673],[-123.104921,37.712648],[-123.09285,37.713688],[-123.086057,37.70075],[-123.074921,37.690066],[-123.068589,37.673041],[-123.05358,37.658648],[-123.040696,37.650328],[-123.011605,37.641506],[-123.00111,37.641775],[-123.00111,37.63983],[-122.986747,37.641783],[-122.973012,37.646581],[-122.963006,37.651984],[-122.949068,37.663377],[-122.941364,37.67658],[-122.93571,37.697618],[-122.935865,37.702459],[-122.942294,37.721057],[-122.949985,37.732187],[-122.964099,37.744281],[-122.973256,37.748652],[-122.981429,37.758916],[-122.997538,37.770784],[-123.010588,37.774926],[-123.033841,37.778375],[-123.038726,37.788881],[-123.048817,37.799816],[-123.070494,37.81383],[-123.095261,37.821877],[-123.118289,37.823058],[-123.132272,37.819676],[-123.147209,37.811951],[-123.166012,37.796885],[-123.169107,37.792365],[-123.173825,37.775727]]]]}},{"type":"Feature","properties":{"GEOID":"06081","NAME":"San Mateo County","source":"U.S. Census Bureau TIGER/Line county shapefiles via TIGERweb State_County MapServer layer 1 (Counties), outSR EPSG:4326","fetched":"2026-09-06","simplify_tolerance_deg":0.001},"geometry":{"type":"Polygon","coordinates":[[[-122.586788,37.589981],[-122.588177,37.579408],[-122.586454,37.561913],[-122.579563,37.545875],[-122.574963,37.499943],[-122.570958,37.484472],[-122.559524,37.469866],[-122.537338,37.450738],[-122.527596,37.446096],[-122.509889,37.441554],[-122.507734,37.422706],[-122.503543,37.411902],[-122.487454,37.388328],[-122.467005,37.349889],[-122.465869,37.34124],[-122.481774,37.271088],[-122.484046,37.249944],[-122.481703,37.229147],[-122.479071,37.221682],[-122.472235,37.212214],[-122.468053,37.187964],[-122.464117,37.177848],[-122.455426,37.166602],[-122.445632,37.150037],[-122.428467,37.137755],[-122.421347,37.135077],[-122.413362,37.121791],[-122.404395,37.113933],[-122.396916,37.109888],[-122.396875,37.102764],[-122.393127,37.087164],[-122.385739,37.075893],[-122.376086,37.065648],[-122.360003,37.058393],[-122.348208,37.055672],[-122.336414,37.053858],[-122.313899,37.054764],[-122.29941,37.096356],[-122.289382,37.113472],[-122.311782,37.147545],[-122.317682,37.186945],[-122.288581,37.186745],[-122.268881,37.189843],[-122.24266,37.190035],[-122.242573,37.215134],[-122.152774,37.215444],[-122.15145,37.229952],[-122.1527,37.28864],[-122.156234,37.291812],[-122.166838,37.295237],[-122.162727,37.300731],[-122.163627,37.301479],[-122.16207,37.304233],[-122.166584,37.305617],[-122.170812,37.311982],[-122.17762,37.312381],[-122.18232,37.309528],[-122.18557,37.31167],[-122.186597,37.315548],[-122.193062,37.318277],[-122.186516,37.322031],[-122.183038,37.327314],[-122.178546,37.325158],[-122.175075,37.325741],[-122.182844,37.33297],[-122.185954,37.338701],[-122.194164,37.345668],[-122.196064,37.35131],[-122.202467,37.360272],[-122.200706,37.371964],[-122.190505,37.385253],[-122.190016,37.394857],[-122.19454,37.407934],[-122.192338,37.413912],[-122.187647,37.414747],[-122.187159,37.416335],[-122.190267,37.418477],[-122.187915,37.420187],[-122.191305,37.425187],[-122.189445,37.427461],[-122.190526,37.431286],[-122.184422,37.434225],[-122.182175,37.439478],[-122.175704,37.441884],[-122.171816,37.446702],[-122.168747,37.447435],[-122.165164,37.452981],[-122.160436,37.454677],[-122.155791,37.454127],[-122.155914,37.455533],[-122.152543,37.457681],[-122.147477,37.456498],[-122.144407,37.45827],[-122.140703,37.457268],[-122.138774,37.454802],[-122.132103,37.45398],[-122.128638,37.451885],[-122.126906,37.453617],[-122.124125,37.4528],[-122.121772,37.454241],[-122.123919,37.461145],[-122.117693,37.465238],[-122.113265,37.46753],[-122.111548,37.466292],[-122.096574,37.466138],[-122.096762,37.461905],[-122.081473,37.477838],[-122.109574,37.497637],[-122.28178,37.70823],[-122.419222,37.708118],[-122.423345,37.70928],[-122.423861,37.708195],[-122.436781,37.707919],[-122.575189,37.706721],[-122.567497,37.639185],[-122.57956,37.611484],[-122.586788,37.589981]]]}},{"type":"Feature","properties":{"GEOID":"06085","NAME":"Santa Clara County","source":"U.S. Census Bureau TIGER/Line county shapefiles via TIGERweb State_County MapServer layer 1 (Counties), outSR EPSG:4326","fetched":"2026-09-06","simplify_tolerance_deg":0.001},"geometry":{"type":"Polygon","coordinates":[[[-122.200706,37.371964],[-122.202377,37.359969],[-122.196064,37.35131],[-122.19521,37.347025],[-122.185954,37.338701],[-122.182844,37.33297],[-122.175075,37.325741],[-122.178546,37.325158],[-122.183038,37.327314],[-122.186516,37.322031],[-122.193062,37.318277],[-122.186597,37.315548],[-122.183846,37.310039],[-122.181755,37.309566],[-122.175817,37.312749],[-122.171178,37.312118],[-122.166584,37.305617],[-122.16207,37.304233],[-122.163627,37.301479],[-122.162727,37.300731],[-122.166838,37.295237],[-122.15339,37.28971],[-122.14869,37.281],[-122.150539,37.275883],[-122.148362,37.275451],[-122.14415,37.27021],[-122.13585,37.26574],[-122.13166,37.26093],[-122.121638,37.25856],[-122.10557,37.24074],[-122.10423,37.23427],[-122.09951,37.2332],[-122.093369,37.22924],[-122.092667,37.22544],[-122.08981,37.22327],[-122.078774,37.222974],[-122.07001,37.216672],[-122.065933,37.210413],[-122.062775,37.210365],[-122.05939,37.212985],[-122.055087,37.212497],[-122.054608,37.210009],[-122.04397,37.20105],[-122.040782,37.195171],[-122.03075,37.18999],[-122.03263,37.18614],[-122.031935,37.182297],[-122.028933,37.176936],[-122.02653,37.17611],[-122.027637,37.174083],[-122.025607,37.173797],[-122.027675,37.170846],[-122.025585,37.169071],[-122.026174,37.166854],[-122.015946,37.165658],[-122.009041,37.159792],[-122.002472,37.158291],[-121.99416,37.14985],[-121.99109,37.14427],[-121.987152,37.144819],[-121.980836,37.142282],[-121.97274,37.14173],[-121.96365,37.1335],[-121.957443,37.130571],[-121.932026,37.122001],[-121.92903,37.12342],[-121.910685,37.113295],[-121.89485,37.10981],[-121.89483,37.10858],[-121.89012,37.10663],[-121.890867,37.105256],[-121.8873,37.10491],[-121.884808,37.107825],[-121.870066,37.102247],[-121.860009,37.104171],[-121.861884,37.099346],[-121.849086,37.098997],[-121.8446,37.09665],[-121.84414,37.09473],[-121.83865,37.09322],[-121.83825,37.09169],[-121.83417,37.09122],[-121.83039,37.0881],[-121.82422,37.08778],[-121.82359,37.08597],[-121.81824,37.08374],[-121.81649,37.08037],[-121.81719,37.07788],[-121.812651,37.075382],[-121.809122,37.069319],[-121.80213,37.06793],[-121.79676,37.0638],[-121.79355,37.06431],[-121.78604,37.06199],[-121.77526,37.05298],[-121.76723,37.05332],[-121.76339,37.05196],[-121.76488,37.04947],[-121.76199,37.04782],[-121.75548,37.04903],[-121.746361,37.034749],[-121.739765,37.027684],[-121.72606,37.02126],[-121.730814,37.020324],[-121.731313,37.022417],[-121.736186,37.015342],[-121.727815,37.009862],[-121.726566,37.012054],[-121.718762,37.007557],[-121.729624,36.997872],[-121.728346,36.99682],[-121.729807,36.993555],[-121.738697,36.989991],[-121.732312,36.989664],[-121.717878,36.995561],[-121.71466,36.99313],[-121.710918,36.993066],[-121.7107,36.98972],[-121.705509,36.98936],[-121.705244,36.986245],[-121.695358,36.98515],[-121.698428,36.974984],[-121.697829,36.972098],[-121.690158,36.967351],[-121.678258,36.96785],[-121.677235,36.965547],[-121.664787,36.963714],[-121.662857,36.959151],[-121.66433,36.95514],[-121.663257,36.951851],[-121.654038,36.950584],[-121.653675,36.947717],[-121.652271,36.947628],[-121.654056,36.944751],[-121.653056,36.941751],[-121.645791,36.93233],[-121.641025,36.932224],[-121.642256,36.936351],[-121.637055,36.939053],[-121.63046,36.940544],[-121.624048,36.938494],[-121.624755,36.940451],[-121.607155,36.926051],[-121.590354,36.926151],[-121.590154,36.919252],[-121.581154,36.919252],[-121.581354,36.899152],[-121.575725,36.893],[-121.571394,36.897075],[-121.560259,36.897121],[-121.558452,36.910468],[-121.553493,36.915199],[-121.540283,36.92053],[-121.53912,36.922926],[-121.540874,36.925152],[-121.539234,36.927302],[-121.513813,36.945155],[-121.511692,36.949266],[-121.512115,36.952584],[-121.510231,36.954053],[-121.51243,36.958835],[-121.509401,36.960039],[-121.508145,36.963649],[-121.505377,36.964113],[-121.50175,36.97165],[-121.488949,36.983148],[-121.467939,36.976772],[-121.463561,36.978294],[-121.465948,36.982148],[-121.463656,36.984877],[-121.450607,36.988944],[-121.447346,36.982955],[-121.437697,36.97851],[-121.434563,36.973983],[-121.418246,36.960549],[-121.215406,36.961248],[-121.224833,36.967433],[-121.232128,36.968892],[-121.243877,36.980091],[-121.246568,36.985228],[-121.245137,36.992922],[-121.241517,36.997381],[-121.233137,36.999346],[-121.236976,37.006584],[-121.236337,37.008346],[-121.238186,37.009254],[-121.233337,37.011746],[-121.245989,37.025575],[-121.248647,37.03368],[-121.240634,37.031777],[-121.236138,37.036945],[-121.224507,37.039743],[-121.225808,37.052071],[-121.223156,37.05523],[-121.224518,37.056237],[-121.223387,37.057507],[-121.218735,37.057139],[-121.212591,37.055068],[-121.208198,37.061289],[-121.210337,37.066044],[-121.209637,37.068243],[-121.215799,37.069223],[-121.222404,37.073432],[-121.224638,37.078943],[-121.235493,37.086234],[-121.241977,37.085128],[-121.245484,37.089148],[-121.242618,37.093063],[-121.230439,37.096942],[-121.230526,37.10477],[-121.225538,37.106842],[-121.226304,37.109708],[-121.223788,37.115081],[-121.221339,37.116442],[-121.217339,37.123042],[-121.220707,37.124689],[-121.223141,37.128568],[-121.222863,37.131337],[-121.232297,37.139893],[-121.235985,37.149087],[-121.236629,37.156675],[-121.243842,37.15857],[-121.248763,37.157661],[-121.262093,37.159323],[-121.269507,37.171171],[-121.273101,37.173325],[-121.275378,37.178739],[-121.281107,37.183603],[-121.283404,37.183169],[-121.284297,37.180895],[-121.286063,37.181139],[-121.287728,37.177367],[-121.290959,37.175427],[-121.29152,37.170337],[-121.298552,37.165963],[-121.302619,37.16816],[-121.306044,37.166641],[-121.312882,37.170147],[-121.314034,37.16791],[-121.328409,37.16595],[-121.332548,37.171277],[-121.334349,37.170803],[-121.34306,37.174669],[-121.347499,37.180417],[-121.354561,37.183893],[-121.359558,37.184453],[-121.36317,37.183509],[-121.365035,37.179998],[-121.372209,37.176962],[-121.373429,37.173705],[-121.376313,37.172478],[-121.379654,37.168006],[-121.382914,37.167881],[-121.384266,37.166201],[-121.383957,37.160161],[-121.38163,37.157138],[-121.383551,37.151487],[-121.391131,37.150747],[-121.392989,37.148153],[-121.399019,37.150135],[-121.401141,37.15492],[-121.404636,37.155989],[-121.40653,37.158835],[-121.407727,37.169006],[-121.413401,37.172328],[-121.410431,37.174467],[-121.41114,37.177852],[-121.408794,37.182505],[-121.411525,37.185407],[-121.410463,37.192008],[-121.415657,37.199649],[-121.416869,37.211262],[-121.421075,37.214826],[-121.421822,37.22131],[-121.430756,37.227463],[-121.43388,37.226329],[-121.436104,37.229365],[-121.441746,37.231127],[-121.448744,37.237277],[-121.448145,37.239494],[-121.45575,37.24944],[-121.45502,37.25555],[-121.457255,37.260943],[-121.454849,37.263141],[-121.453966,37.277184],[-121.459068,37.282319],[-121.458051,37.284139],[-121.454009,37.28405],[-121.448658,37.2903],[-121.44965,37.293939],[-121.443551,37.296638],[-121.436816,37.291971],[-121.431391,37.294994],[-121.425767,37.296336],[-121.423452,37.295287],[-121.42275,37.299138],[-121.418366,37.303275],[-121.405753,37.31099],[-121.409398,37.321464],[-121.411939,37.324445],[-121.410218,37.325061],[-121.41115,37.327537],[-121.40915,37.330637],[-121.42075,37.344737],[-121.419409,37.351989],[-121.42365,37.358837],[-121.4225,37.363091],[-121.41929,37.364445],[-121.415849,37.375916],[-121.409075,37.380672],[-121.412549,37.389435],[-121.41945,37.390735],[-121.42405,37.393635],[-121.436085,37.39613],[-121.448163,37.391677],[-121.45155,37.394635],[-121.456651,37.395535],[-121.458251,37.398135],[-121.455651,37.401035],[-121.456351,37.406735],[-121.463551,37.415934],[-121.466251,37.415034],[-121.472606,37.423345],[-121.468858,37.424994],[-121.470328,37.43012],[-121.46186,37.438799],[-121.463476,37.445692],[-121.462917,37.451489],[-121.464687,37.454483],[-121.467179,37.453341],[-121.472676,37.456381],[-121.475033,37.462054],[-121.484252,37.466032],[-121.486775,37.475652],[-121.48341,37.475423],[-121.4777,37.480279],[-121.474527,37.479344],[-121.472952,37.482333],[-121.865267,37.484637],[-121.881155,37.471076],[-121.887738,37.470936],[-121.890856,37.467982],[-121.911332,37.462236],[-121.925041,37.454186],[-121.92785,37.455262],[-121.928444,37.457394],[-121.932626,37.455147],[-121.931199,37.460644],[-121.934732,37.460524],[-121.936025,37.462929],[-121.939241,37.462487],[-121.941085,37.464948],[-121.944226,37.465822],[-121.944914,37.469163],[-121.947087,37.467424],[-121.946409,37.463362],[-121.949602,37.461408],[-121.959313,37.463515],[-121.980014,37.460892],[-121.992669,37.464639],[-121.996671,37.467239],[-122.036182,37.464966],[-122.047825,37.459007],[-122.051244,37.459007],[-122.081473,37.477838],[-122.096762,37.461905],[-122.096426,37.466102],[-122.111548,37.466292],[-122.113282,37.467529],[-122.123919,37.461145],[-122.122103,37.45359],[-122.126906,37.453617],[-122.128397,37.451852],[-122.132103,37.45398],[-122.138774,37.454802],[-122.142793,37.458094],[-122.147477,37.456498],[-122.152543,37.457681],[-122.155914,37.455533],[-122.155791,37.454127],[-122.160436,37.454677],[-122.165164,37.452981],[-122.168747,37.447435],[-122.171816,37.446702],[-122.175704,37.441884],[-122.182299,37.439362],[-122.184422,37.434225],[-122.190526,37.431286],[-122.189445,37.427461],[-122.191305,37.425187],[-122.187915,37.420187],[-122.190267,37.418477],[-122.187159,37.416335],[-122.187647,37.414747],[-122.192338,37.413912],[-122.194539,37.407943],[-122.190016,37.394857],[-122.190505,37.385253],[-122.200706,37.371964]]]}},{"type":"Feature","properties":{"GEOID":"06095","NAME":"Solano County","source":"U.S. Census Bureau TIGER/Line county shapefiles via TIGERweb State_County MapServer layer 1 (Counties), outSR EPSG:4326","fetched":"2026-09-06","simplify_tolerance_deg":0.001},"geometry":{"type":"Polygon","coordinates":[[[-121.861597,38.069887],[-121.842444,38.076735],[-121.827916,38.066223],[-121.810811,38.060767],[-121.800123,38.059647],[-121.743164,38.087229],[-121.729348,38.082348],[-121.71213,38.08552],[-121.708436,38.091482],[-121.707215,38.109846],[-121.698384,38.121294],[-121.692095,38.133126],[-121.687705,38.146829],[-121.685645,38.159644],[-121.677994,38.164908],[-121.662907,38.181869],[-121.646568,38.186044],[-121.64213,38.190024],[-121.632297,38.194251],[-121.622809,38.193275],[-121.615413,38.195696],[-121.611717,38.200962],[-121.610411,38.208374],[-121.602443,38.22041],[-121.603208,38.237283],[-121.600249,38.257817],[-121.603994,38.270695],[-121.60073,38.278375],[-121.605418,38.285705],[-121.603946,38.289513],[-121.605258,38.295352],[-121.599908,38.301515],[-121.597579,38.307175],[-121.598654,38.309892],[-121.593273,38.313089],[-121.693892,38.314175],[-121.693639,38.487604],[-121.695797,38.487615],[-121.694677,38.527054],[-121.700735,38.527427],[-121.712034,38.537962],[-121.722202,38.53487],[-121.738675,38.537635],[-121.746647,38.531828],[-121.757197,38.529514],[-121.7651,38.525856],[-121.767744,38.526642],[-121.768504,38.530819],[-121.771677,38.532301],[-121.779698,38.529912],[-121.783034,38.52701],[-121.783559,38.523287],[-121.785811,38.523074],[-121.794762,38.526937],[-121.81333,38.526023],[-121.832557,38.529757],[-121.84406,38.535238],[-121.86012,38.538512],[-121.86668,38.537357],[-121.884441,38.539028],[-121.888421,38.537819],[-121.893784,38.533429],[-121.908969,38.529576],[-121.925323,38.529705],[-121.941072,38.533257],[-121.947456,38.527096],[-121.963606,38.522802],[-121.974699,38.513653],[-121.978068,38.508277],[-121.985426,38.505657],[-121.98657,38.502987],[-121.995927,38.500421],[-122.003077,38.493902],[-122.013542,38.48871],[-122.018942,38.489285],[-122.035566,38.496122],[-122.041568,38.505713],[-122.057415,38.517441],[-122.071384,38.513849],[-122.086855,38.514477],[-122.090775,38.515996],[-122.095016,38.513058],[-122.104128,38.513362],[-122.103839,38.510177],[-122.106282,38.508306],[-122.105628,38.5012],[-122.107183,38.494507],[-122.104663,38.490861],[-122.10827,38.486258],[-122.123218,38.449568],[-122.126628,38.435451],[-122.126136,38.427461],[-122.117717,38.413996],[-122.11465,38.414018],[-122.115072,38.412258],[-122.109709,38.407442],[-122.109467,38.404497],[-122.089133,38.384635],[-122.077735,38.363816],[-122.073599,38.361545],[-122.073289,38.356885],[-122.069621,38.350941],[-122.070927,38.348443],[-122.069779,38.342811],[-122.065701,38.334334],[-122.06238,38.331973],[-122.061613,38.32613],[-122.065249,38.323493],[-122.068016,38.318635],[-122.064842,38.315912],[-122.206068,38.315775],[-122.204487,38.311643],[-122.200833,38.309556],[-122.202579,38.304172],[-122.198838,38.301236],[-122.203377,38.293352],[-122.201253,38.292804],[-122.201315,38.289878],[-122.198093,38.284895],[-122.190117,38.277534],[-122.191086,38.275902],[-122.188199,38.27173],[-122.194313,38.270933],[-122.197415,38.272968],[-122.209753,38.27175],[-122.212064,38.273108],[-122.216595,38.26466],[-122.216612,38.262522],[-122.213087,38.25925],[-122.203251,38.259791],[-122.197284,38.258866],[-122.193281,38.256415],[-122.194756,38.255193],[-122.19461,38.251843],[-122.199579,38.251237],[-122.201451,38.248916],[-122.211271,38.252805],[-122.211932,38.2508],[-122.212225,38.248785],[-122.209045,38.244552],[-122.205092,38.244111],[-122.204069,38.241053],[-122.201497,38.240147],[-122.193009,38.223117],[-122.196323,38.218071],[-122.193919,38.213711],[-122.199481,38.210677],[-122.204499,38.205447],[-122.205688,38.196334],[-122.211552,38.191983],[-122.209323,38.19005],[-122.215202,38.188813],[-122.212998,38.184308],[-122.21508,38.179717],[-122.208984,38.172889],[-122.203322,38.172558],[-122.203436,38.16878],[-122.195335,38.167254],[-122.193973,38.165068],[-122.19883,38.159325],[-122.19538,38.155017],[-122.40697,38.155649],[-122.391142,38.132646],[-122.387796,38.124919],[-122.347454,38.07326],[-122.265347,38.059918],[-122.245251,38.063969],[-122.200846,38.057934],[-122.183863,38.053997],[-122.176096,38.047772],[-122.167577,38.036721],[-122.158929,38.033246],[-122.141533,38.031862],[-122.123973,38.035717],[-122.098726,38.04746],[-122.07743,38.054005],[-122.061103,38.062137],[-122.050874,38.060201],[-122.028411,38.05919],[-122.015175,38.063481],[-121.983158,38.067297],[-121.972281,38.065538],[-121.955679,38.057816],[-121.950911,38.053918],[-121.931003,38.04761],[-121.910143,38.044956],[-121.893327,38.046185],[-121.880184,38.048709],[-121.871101,38.053027],[-121.863648,38.062381],[-121.861597,38.069887]]]}},{"type":"Feature","properties":{"GEOID":"06097","NAME":"Sonoma County","source":"U.S. Census Bureau TIGER/Line county shapefiles via TIGERweb State_County MapServer layer 1 (Counties), outSR EPSG:4326","fetched":"2026-09-06","simplify_tolerance_deg":0.001},"geometry":{"type":"Polygon","coordinates":[[[-122.633422,38.580093],[-122.634992,38.586387],[-122.639864,38.590011],[-122.64661,38.599113],[-122.639058,38.609204],[-122.639747,38.611734],[-122.633451,38.616187],[-122.633758,38.619917],[-122.628368,38.622678],[-122.62935,38.627152],[-122.632509,38.627964],[-122.631901,38.631998],[-122.634095,38.63755],[-122.624196,38.649806],[-122.623195,38.662546],[-122.623361,38.664614],[-122.627642,38.668621],[-122.633464,38.669246],[-122.626772,38.67078],[-122.625464,38.674402],[-122.631592,38.680226],[-122.633896,38.685282],[-122.639497,38.689058],[-122.637049,38.69373],[-122.644313,38.69957],[-122.643864,38.702577],[-122.647497,38.70693],[-122.66219,38.70594],[-122.669402,38.70837],[-122.674234,38.706354],[-122.695451,38.71309],[-122.697387,38.718946],[-122.696251,38.720098],[-122.700716,38.726306],[-122.700668,38.728562],[-122.71038,38.732082],[-122.712332,38.742226],[-122.708774,38.746401],[-122.709321,38.74902],[-122.720085,38.753545],[-122.721509,38.756585],[-122.724158,38.756561],[-122.722693,38.763013],[-122.728337,38.766221],[-122.729543,38.770704],[-122.734551,38.772606],[-122.736417,38.776831],[-122.735338,38.777888],[-122.738017,38.781042],[-122.742359,38.782412],[-122.74822,38.787795],[-122.746198,38.799248],[-122.748177,38.803828],[-122.758839,38.807842],[-122.76135,38.811179],[-122.767613,38.813871],[-122.766612,38.815777],[-122.780193,38.826843],[-122.786138,38.827339],[-122.791393,38.830429],[-122.795989,38.838952],[-122.806227,38.836225],[-122.812089,38.838412],[-122.811058,38.841316],[-122.812142,38.842909],[-122.818314,38.844585],[-122.816673,38.847618],[-122.817651,38.849839],[-123.006918,38.851247],[-123.027674,38.852916],[-123.080997,38.852438],[-123.08123,38.838406],[-123.136636,38.839448],[-123.136253,38.809136],[-123.368394,38.80664],[-123.368236,38.777066],[-123.431075,38.776619],[-123.497042,38.778604],[-123.499155,38.778327],[-123.499933,38.773841],[-123.507041,38.773532],[-123.509881,38.767388],[-123.516343,38.767784],[-123.520197,38.758589],[-123.533223,38.76844],[-123.632497,38.758119],[-123.615205,38.749912],[-123.607061,38.748565],[-123.591962,38.740227],[-123.586915,38.728075],[-123.578005,38.717583],[-123.566089,38.709021],[-123.549463,38.700135],[-123.531889,38.693421],[-123.51058,38.68089],[-123.498669,38.668943],[-123.495084,38.660662],[-123.488543,38.651466],[-123.477373,38.642226],[-123.470521,38.638578],[-123.456159,38.614788],[-123.448391,38.606292],[-123.43049,38.591672],[-123.425389,38.582844],[-123.394157,38.553942],[-123.384567,38.537022],[-123.360929,38.510202],[-123.348529,38.504241],[-123.330921,38.502421],[-123.330725,38.499913],[-123.32381,38.498614],[-123.317345,38.488638],[-123.306742,38.478681],[-123.289685,38.46758],[-123.269188,38.457569],[-123.251116,38.452078],[-123.236391,38.450428],[-123.228013,38.444228],[-123.22022,38.441954],[-123.204071,38.423903],[-123.196159,38.410108],[-123.188465,38.40286],[-123.171711,38.394079],[-123.164757,38.388337],[-123.159847,38.374917],[-123.155743,38.368396],[-123.134312,38.345786],[-123.141001,38.327454],[-123.141329,38.311338],[-123.134523,38.296263],[-123.002728,38.29571],[-122.993579,38.300079],[-122.994753,38.30619],[-122.991116,38.30558],[-122.987708,38.308115],[-122.984738,38.307948],[-122.981607,38.311135],[-122.974325,38.311512],[-122.970042,38.310128],[-122.966124,38.31697],[-122.946754,38.311209],[-122.944034,38.312674],[-122.939709,38.310848],[-122.934262,38.314012],[-122.936816,38.311179],[-122.935381,38.309605],[-122.93244,38.311741],[-122.925636,38.312736],[-122.921588,38.308554],[-122.916483,38.312809],[-122.920952,38.316836],[-122.915964,38.320316],[-122.908105,38.320752],[-122.907227,38.318732],[-122.910875,38.317086],[-122.909495,38.314394],[-122.899933,38.316793],[-122.898444,38.314516],[-122.7399,38.207018],[-122.722995,38.207132],[-122.715035,38.203398],[-122.714338,38.201222],[-122.704443,38.198455],[-122.701393,38.196099],[-122.687916,38.194743],[-122.680565,38.189627],[-122.667158,38.189697],[-122.663901,38.1864],[-122.65861,38.186778],[-122.649237,38.181127],[-122.637948,38.180249],[-122.635784,38.178649],[-122.628183,38.178887],[-122.625695,38.182337],[-122.622647,38.182624],[-122.60411,38.180632],[-122.600902,38.185282],[-122.592815,38.188783],[-122.590894,38.185943],[-122.582118,38.18802],[-122.581957,38.186172],[-122.578201,38.183583],[-122.570693,38.183518],[-122.573191,38.186318],[-122.570591,38.187117],[-122.565282,38.182714],[-122.568493,38.177018],[-122.564463,38.175081],[-122.563193,38.169318],[-122.559243,38.168619],[-122.554321,38.170112],[-122.55198,38.169001],[-122.557992,38.16353],[-122.557916,38.160158],[-122.549615,38.15729],[-122.544473,38.158716],[-122.534828,38.149202],[-122.520102,38.140696],[-122.513144,38.132235],[-122.507926,38.118098],[-122.501903,38.112424],[-122.451987,38.098519],[-122.347454,38.07326],[-122.387796,38.124919],[-122.391142,38.132646],[-122.407512,38.157813],[-122.404003,38.160409],[-122.396822,38.161451],[-122.384774,38.160964],[-122.37258,38.157715],[-122.367561,38.158792],[-122.365582,38.166029],[-122.369544,38.17452],[-122.36865,38.182666],[-122.36605,38.183846],[-122.359576,38.181793],[-122.357887,38.182607],[-122.357051,38.190634],[-122.360544,38.19506],[-122.360257,38.197115],[-122.355128,38.196862],[-122.350559,38.192704],[-122.349564,38.193972],[-122.350681,38.201831],[-122.357534,38.208866],[-122.36152,38.210048],[-122.361001,38.211394],[-122.364155,38.215281],[-122.365373,38.226186],[-122.363602,38.227608],[-122.363671,38.231239],[-122.365625,38.235681],[-122.363421,38.239034],[-122.365306,38.245986],[-122.369194,38.247361],[-122.3707,38.244272],[-122.37386,38.243861],[-122.37301,38.247213],[-122.384343,38.254457],[-122.389824,38.260796],[-122.387602,38.273764],[-122.39345,38.273657],[-122.396406,38.271221],[-122.400365,38.27455],[-122.404737,38.2817],[-122.400156,38.289675],[-122.401687,38.290655],[-122.401692,38.295347],[-122.403769,38.299846],[-122.400335,38.303243],[-122.394688,38.304614],[-122.396295,38.309092],[-122.401587,38.313801],[-122.405369,38.322038],[-122.408712,38.320008],[-122.409582,38.325734],[-122.413929,38.330772],[-122.412039,38.334294],[-122.41757,38.337558],[-122.417481,38.339794],[-122.419947,38.338264],[-122.425208,38.345591],[-122.427563,38.345678],[-122.426824,38.349026],[-122.429275,38.349476],[-122.430853,38.352355],[-122.43949,38.358099],[-122.446975,38.35908],[-122.452482,38.362359],[-122.457319,38.367744],[-122.456906,38.370689],[-122.453644,38.374114],[-122.448984,38.375158],[-122.448117,38.379505],[-122.454116,38.382151],[-122.454443,38.385002],[-122.456988,38.386749],[-122.465841,38.390218],[-122.470281,38.396716],[-122.467996,38.40013],[-122.47096,38.402497],[-122.470554,38.404948],[-122.474667,38.40588],[-122.47555,38.409276],[-122.497911,38.424575],[-122.493363,38.42934],[-122.491658,38.434598],[-122.485913,38.438203],[-122.485806,38.441442],[-122.479835,38.451272],[-122.492232,38.454589],[-122.493623,38.456849],[-122.497938,38.455419],[-122.509567,38.45742],[-122.508546,38.460316],[-122.509732,38.462162],[-122.505818,38.464695],[-122.515906,38.470876],[-122.529605,38.46957],[-122.531284,38.478535],[-122.536392,38.482706],[-122.541042,38.492095],[-122.544901,38.496285],[-122.542623,38.499094],[-122.537818,38.498165],[-122.535309,38.50169],[-122.540749,38.50308],[-122.542657,38.507157],[-122.545527,38.506798],[-122.54722,38.510338],[-122.550022,38.511177],[-122.541724,38.51328],[-122.545289,38.516712],[-122.543229,38.518028],[-122.543893,38.519966],[-122.547135,38.522601],[-122.55053,38.521989],[-122.554161,38.526174],[-122.562445,38.527094],[-122.563817,38.525368],[-122.566602,38.525553],[-122.566222,38.528149],[-122.570291,38.530002],[-122.569551,38.533109],[-122.572475,38.535955],[-122.574034,38.540429],[-122.577194,38.542308],[-122.582148,38.549399],[-122.585854,38.549391],[-122.587314,38.552647],[-122.601024,38.555933],[-122.603161,38.558806],[-122.608083,38.5599],[-122.614317,38.558679],[-122.620846,38.560317],[-122.620423,38.565669],[-122.622681,38.567692],[-122.626655,38.570199],[-122.631832,38.569367],[-122.631923,38.576471],[-122.630191,38.578496],[-122.633422,38.580093]]]}}]}