{"type":"FeatureCollection","features":[{"type":"Feature","properties":{"NAME":null,"MTFCC":"H2051","source":"U.S. Census Bureau TIGER/Line areal hydrography via TIGERweb Hydro MapServer layer 1","fetched":"2026-09-06","simplify_tolerance_deg":0.001},"geometry":{"type":"Polygon","coordinates":[[[-123.600221,38.814115],[-123.598259,38.810133],[-123.600803,38.808919],[-123.602442,38.80949],[-123.600221,38.814115]]]}},{"type":"Feature","properties":{"NAME":null,"MTFCC":"H2051","source":"U.S. Census Bureau TIGER/Line areal hydrography via TIGERweb Hydro MapServer layer 1","fetched":"2026-09-06","simplify_tolerance_deg":0.001},"geometry":{"type":"Polygon","coordinates":[[[-123.601446,38.807362],[-123.596708,38.808691],[-123.592495,38.807181],[-123.589919,38.802307],[-123.591849,38.800612],[-123.591088,38.799377],[-123.592901,38.799033],[-123.593136,38.800772],[-123.601446,38.807362]]]}},{"type":"Feature","properties":{"NAME":null,"MTFCC":"H2051","source":"U.S. Census Bureau TIGER/Line areal hydrography via TIGERweb Hydro MapServer layer 1","fetched":"2026-09-06","simplify_tolerance_deg":0.001},"geometry":{"type":"Polygon","coordinates":[[[-122.4804,37.944544],[-122.473579,37.946655],[-122.473018,37.945748],[-122.4804,37.944544]]]}},{"type":"Feature","properties":{"NAME":null,"MTFCC":"H2051","source":"U.S. Census Bureau TIGER/Line areal hydrography via TIGERweb Hydro MapServer layer 1","fetched":"2026-09-06","simplify_tolerance_deg":0.001},"geometry":{"type":"Polygon","coordinates":[[[-121.934839,38.080999],[-121.931128,38.081861],[-121.930266,38.081938],[-121.933901,38.080642],[-121.934839,38.080999]]]}},{"type":"Feature","properties":{"NAME":null,"MTFCC":"H2051","source":"U.S. Census Bureau TIGER/Line areal hydrography via TIGERweb Hydro MapServer layer 1","fetched":"2026-09-06","simplify_tolerance_deg":0.001},"geometry":{"type":"Polygon","coordinates":[[[-122.956273,38.034718],[-122.951875,38.032587],[-122.952925,38.038383],[-122.949652,38.03218],[-122.952799,38.031076],[-122.956273,38.034718]]]}},{"type":"Feature","properties":{"NAME":null,"MTFCC":"H2051","source":"U.S. Census Bureau TIGER/Line areal hydrography via TIGERweb Hydro MapServer layer 1","fetched":"2026-09-06","simplify_tolerance_deg":0.001},"geometry":{"type":"Polygon","coordinates":[[[-122.522012,37.88466],[-122.520545,37.884206],[-122.519561,37.882693],[-122.520931,37.881879],[-122.522012,37.88466]]]}},{"type":"Feature","properties":{"NAME":null,"MTFCC":"H2051","source":"U.S. Census Bureau TIGER/Line areal hydrography via TIGERweb Hydro MapServer layer 1","fetched":"2026-09-06","simplify_tolerance_deg":0.001},"geometry":{"type":"Polygon","coordinates":[[[-122.496227,37.498189],[-122.494692,37.500905],[-122.486968,37.503612],[-122.4789,37.503251],[-122.474324,37.499939],[-122.486433,37.494934],[-122.484819,37.494015],[-122.488216,37.494609],[-122.493313,37.49296],[-122.496227,37.498189]]]}},{"type":"Feature","properties":{"NAME":null,"MTFCC":"H2051","source":"U.S. Census Bureau TIGER/Line areal hydrography via TIGERweb Hydro MapServer layer 1","fetched":"2026-09-06","simplify_tolerance_deg":0.001},"geometry":{"type":"Polygon","coordinates":[[[-123.402851,38.649397],[-123.399572,38.649753],[-123.400239,38.648556],[-123.397802,38.647127],[-123.401428,38.646815],[-123.402851,38.649397]]]}},{"type":"Feature","properties":{"NAME":null,"MTFCC":"H2051","source":"U.S. Census Bureau TIGER/Line areal hydrography via TIGERweb Hydro MapServer layer 1","fetched":"2026-09-06","simplify_tolerance_deg":0.001},"geometry":{"type":"Polygon","coordinates":[[[-123.310198,38.556057],[-123.304615,38.555969],[-123.303482,38.554898],[-123.306411,38.552253],[-123.310198,38.556057]]]}},{"type":"Feature","properties":{"NAME":null,"MTFCC":"H2051","source":"U.S. Census Bureau TIGER/Line areal hydrography via TIGERweb Hydro MapServer layer 1","fetched":"2026-09-06","simplify_tolerance_deg":0.001},"geometry":{"type":"Polygon","coordinates":[[[-123.249429,38.510261],[-123.247003,38.513256],[-123.242232,38.510891],[-123.249429,38.510261]]]}},{"type":"Feature","properties":{"NAME":null,"MTFCC":"H2051","source":"U.S. Census Bureau TIGER/Line areal hydrography via TIGERweb Hydro MapServer layer 1","fetched":"2026-09-06","simplify_tolerance_deg":0.001},"geometry":{"type":"Polygon","coordinates":[[[-122.247833,37.541943],[-122.245933,37.541755],[-122.244822,37.540194],[-122.244805,37.542403],[-122.243747,37.540479],[-122.242572,37.543426],[-122.240686,37.540777],[-122.23752,37.541122],[-122.239924,37.537054],[-122.238064,37.536817],[-122.237449,37.535598],[-122.241477,37.537453],[-122.239987,37.538766],[-122.241814,37.540105],[-122.243341,37.539195],[-122.241992,37.537526],[-122.243966,37.538665],[-122.246492,37.536883],[-122.245849,37.540595],[-122.247833,37.541943]]]}},{"type":"Feature","properties":{"NAME":null,"MTFCC":"H2051","source":"U.S. Census Bureau TIGER/Line areal hydrography via TIGERweb Hydro MapServer layer 1","fetched":"2026-09-06","simplify_tolerance_deg":0.001},"geometry":{"type":"Polygon","coordinates":[[[-122.185799,37.001308],[-122.182449,37.001192],[-122.181587,36.999393],[-122.183529,36.998435],[-122.185799,37.001308]]]}},{"type":"Feature","properties":{"NAME":null,"MTFCC":"H2051","source":"U.S. Census Bureau TIGER/Line areal hydrography via TIGERweb Hydro MapServer layer 1","fetched":"2026-09-06","simplify_tolerance_deg":0.001},"geometry":{"type":"Polygon","coordinates":[[[-122.258335,37.068634],[-122.258596,37.068777],[-122.258821,37.06953],[-122.258335,37.068634]]]}},{"type":"Feature","properties":{"NAME":null,"MTFCC":"H2051","source":"U.S. Census Bureau TIGER/Line areal hydrography via TIGERweb Hydro MapServer layer 1","fetched":"2026-09-06","simplify_tolerance_deg":0.001},"geometry":{"type":"Polygon","coordinates":[[[-122.514676,37.598692],[-122.501816,37.607395],[-122.499821,37.603582],[-122.502895,37.598329],[-122.50715,37.596084],[-122.514676,37.598692]]]}},{"type":"Feature","properties":{"NAME":null,"MTFCC":"H2051","source":"U.S. Census Bureau TIGER/Line areal hydrography via TIGERweb Hydro MapServer layer 1","fetched":"2026-09-06","simplify_tolerance_deg":0.001},"geometry":{"type":"Polygon","coordinates":[[[-123.375295,38.617373],[-123.3671,38.613466],[-123.366886,38.608373],[-123.372035,38.60728],[-123.375295,38.617373]]]}},{"type":"Feature","properties":{"NAME":null,"MTFCC":"H2051","source":"U.S. Census Bureau TIGER/Line areal hydrography via TIGERweb Hydro MapServer layer 1","fetched":"2026-09-06","simplify_tolerance_deg":0.001},"geometry":{"type":"Polygon","coordinates":[[[-122.398421,37.770034],[-122.390411,37.777142],[-122.387696,37.778182],[-122.387678,37.776716],[-122.390012,37.776495],[-122.398421,37.770034]]]}},{"type":"Feature","properties":{"NAME":null,"MTFCC":"H2051","source":"U.S. Census Bureau TIGER/Line areal hydrography via TIGERweb Hydro MapServer layer 1","fetched":"2026-09-06","simplify_tolerance_deg":0.001},"geometry":{"type":"Polygon","coordinates":[[[-123.071772,38.316104],[-123.070329,38.317033],[-123.069108,38.316236],[-123.070928,38.31432],[-123.071772,38.316104]]]}},{"type":"Feature","properties":{"NAME":null,"MTFCC":"H2051","source":"U.S. Census Bureau TIGER/Line areal hydrography via TIGERweb Hydro MapServer layer 1","fetched":"2026-09-06","simplify_tolerance_deg":0.001},"geometry":{"type":"Polygon","coordinates":[[[-123.338984,38.583221],[-123.335533,38.582574],[-123.335449,38.581975],[-123.339291,38.580897],[-123.338984,38.583221]]]}},{"type":"Feature","properties":{"NAME":"Abbotts Lagoon","MTFCC":"H2051","source":"U.S. Census Bureau TIGER/Line areal hydrography via TIGERweb Hydro MapServer layer 1","fetched":"2026-09-06","simplify_tolerance_deg":0.001},"geometry":{"type":"Polygon","coordinates":[[[-122.958255,38.119376],[-122.953247,38.117987],[-122.942357,38.12658],[-122.938768,38.126382],[-122.942705,38.1258],[-122.942336,38.12419],[-122.945799,38.119965],[-122.951731,38.118861],[-122.951383,38.115894],[-122.945722,38.111488],[-122.946424,38.109367],[-122.951646,38.109081],[-122.955555,38.113284],[-122.958255,38.119376]]]}},{"type":"Feature","properties":{"NAME":"Alviso Slough","MTFCC":"H2051","source":"U.S. Census Bureau TIGER/Line areal hydrography via TIGERweb Hydro MapServer layer 1","fetched":"2026-09-06","simplify_tolerance_deg":0.001},"geometry":{"type":"Polygon","coordinates":[[[-122.023268,37.460916],[-122.020872,37.461325],[-122.017438,37.455628],[-122.019392,37.449766],[-122.018587,37.447969],[-122.009876,37.447911],[-122.006225,37.446085],[-122.002343,37.441176],[-121.993487,37.438939],[-121.991958,37.440198],[-121.99096,37.4338],[-121.992583,37.437868],[-122.004369,37.441002],[-122.009409,37.446718],[-122.016452,37.445897],[-122.019524,37.447156],[-122.020805,37.44953],[-122.02005,37.455156],[-122.023268,37.460916]]]}},{"type":"Feature","properties":{"NAME":"Barries Bay","MTFCC":"H2051","source":"U.S. Census Bureau TIGER/Line areal hydrography via TIGERweb Hydro MapServer layer 1","fetched":"2026-09-06","simplify_tolerance_deg":0.001},"geometry":{"type":"Polygon","coordinates":[[[-122.964074,38.056094],[-122.949391,38.048773],[-122.94627,38.060757],[-122.941596,38.063662],[-122.942131,38.06642],[-122.939435,38.074084],[-122.940276,38.07726],[-122.936731,38.080847],[-122.937537,38.082935],[-122.934569,38.086352],[-122.935159,38.089034],[-122.930321,38.091544],[-122.928089,38.091082],[-122.931274,38.086253],[-122.935424,38.084419],[-122.931691,38.080963],[-122.935042,38.075101],[-122.933395,38.072238],[-122.933222,38.064282],[-122.92908,38.062491],[-122.926919,38.063919],[-122.923213,38.07032],[-122.923094,38.074781],[-122.922344,38.071358],[-122.91625,38.068384],[-122.921574,38.066232],[-122.919587,38.063583],[-122.922409,38.061803],[-122.922333,38.059611],[-122.924709,38.059705],[-122.933243,38.054904],[-122.937517,38.046355],[-122.93191,38.042037],[-122.932466,38.03674],[-122.930183,38.031293],[-122.939441,38.031885],[-122.935988,38.034026],[-122.936204,38.03546],[-122.94026,38.034895],[-122.941775,38.038565],[-122.949119,38.046058],[-122.956783,38.048689],[-122.961224,38.052771],[-122.959647,38.053425],[-122.964074,38.056094]]]}},{"type":"Feature","properties":{"NAME":"Belvedere Cv","MTFCC":"H2051","source":"U.S. Census Bureau TIGER/Line areal hydrography via TIGERweb Hydro MapServer layer 1","fetched":"2026-09-06","simplify_tolerance_deg":0.001},"geometry":{"type":"Polygon","coordinates":[[[-122.47259,37.832333],[-122.458938,37.86229],[-122.457841,37.862167],[-122.458313,37.865265],[-122.462362,37.868644],[-122.4621,37.873391],[-122.460145,37.874177],[-122.451613,37.868091],[-122.422162,37.874436],[-122.420342,37.863203],[-122.421728,37.863672],[-122.423342,37.869523],[-122.430771,37.872183],[-122.434653,37.869618],[-122.434778,37.866986],[-122.437162,37.866541],[-122.438881,37.868321],[-122.441382,37.862586],[-122.446414,37.860976],[-122.442449,37.858443],[-122.442643,37.856086],[-122.440966,37.855091],[-122.434342,37.853487],[-122.428923,37.855498],[-122.41871,37.852491],[-122.47259,37.832333]]]}},{"type":"Feature","properties":{"NAME":"Belvedere Lagoon","MTFCC":"H2051","source":"U.S. Census Bureau TIGER/Line areal hydrography via TIGERweb Hydro MapServer layer 1","fetched":"2026-09-06","simplify_tolerance_deg":0.001},"geometry":{"type":"Polygon","coordinates":[[[-122.472014,37.879385],[-122.470165,37.879139],[-122.471073,37.880485],[-122.467773,37.879354],[-122.471012,37.882611],[-122.466401,37.880744],[-122.466907,37.879728],[-122.462691,37.876674],[-122.461712,37.874561],[-122.467787,37.878195],[-122.464015,37.875718],[-122.462807,37.873792],[-122.464003,37.873671],[-122.464805,37.875739],[-122.467605,37.875992],[-122.472014,37.879385]]]}},{"type":"Feature","properties":{"NAME":"Big Break","MTFCC":"H2051","source":"U.S. Census Bureau TIGER/Line areal hydrography via TIGERweb Hydro MapServer layer 1","fetched":"2026-09-06","simplify_tolerance_deg":0.001},"geometry":{"type":"Polygon","coordinates":[[[-121.733247,38.020346],[-121.725455,38.025149],[-121.708118,38.020161],[-121.703405,38.024399],[-121.69488,38.025836],[-121.684367,38.017111],[-121.684933,38.01586],[-121.689822,38.01529],[-121.691231,38.011109],[-121.695322,38.008053],[-121.706343,38.01117],[-121.708935,38.014415],[-121.71096,38.009278],[-121.708873,38.008065],[-121.709485,38.006728],[-121.713785,38.007246],[-121.713626,38.006081],[-121.716363,38.008796],[-121.721048,38.008324],[-121.722806,38.011135],[-121.725095,38.011747],[-121.723072,38.012183],[-121.72361,38.013596],[-121.728804,38.012046],[-121.729874,38.014344],[-121.731003,38.012403],[-121.731345,38.014781],[-121.732071,38.013207],[-121.733247,38.020346]],[[-121.73178,38.016219],[-121.731288,38.015353],[-121.730914,38.015485],[-121.73178,38.016219]],[[-121.730435,38.020865],[-121.729097,38.017177],[-121.727135,38.016852],[-121.72876,38.021652],[-121.730435,38.020865]],[[-121.726831,38.015792],[-121.726685,38.013836],[-121.725368,38.014484],[-121.726831,38.015792]],[[-121.721622,38.013283],[-121.719452,38.011237],[-121.717998,38.012092],[-121.719416,38.013889],[-121.721622,38.013283]],[[-121.718101,38.011332],[-121.718466,38.010631],[-121.717969,38.010668],[-121.718101,38.011332]],[[-121.713085,38.00776],[-121.71288,38.00726],[-121.712595,38.00745],[-121.713085,38.00776]]]}},{"type":"Feature","properties":{"NAME":"Bodega Bay","MTFCC":"H2051","source":"U.S. Census Bureau TIGER/Line areal hydrography via TIGERweb Hydro MapServer layer 1","fetched":"2026-09-06","simplify_tolerance_deg":0.001},"geometry":{"type":"Polygon","coordinates":[[[-123.053879,38.295585],[-123.002787,38.29571],[-123.000079,38.290926],[-122.997164,38.28934],[-122.994762,38.283076],[-122.988723,38.280241],[-122.98646,38.273135],[-122.983854,38.273053],[-122.981092,38.270349],[-122.978068,38.270619],[-122.97766,38.266411],[-122.97108,38.258919],[-122.967377,38.250584],[-122.96864,38.242866],[-122.987151,38.237538],[-122.993258,38.239508],[-123.053879,38.295585]]]}},{"type":"Feature","properties":{"NAME":"Bodega Bay","MTFCC":"H2051","source":"U.S. Census Bureau TIGER/Line areal hydrography via TIGERweb Hydro MapServer layer 1","fetched":"2026-09-06","simplify_tolerance_deg":0.001},"geometry":{"type":"Polygon","coordinates":[[[-123.057025,38.2987],[-123.052856,38.299824],[-123.052019,38.3026],[-123.053493,38.305898],[-123.050903,38.31021],[-123.041932,38.313237],[-123.036656,38.313272],[-123.024412,38.310477],[-123.002787,38.29571],[-123.053879,38.295585],[-123.057025,38.2987]]]}},{"type":"Feature","properties":{"NAME":"Bodega Hbr","MTFCC":"H2051","source":"U.S. Census Bureau TIGER/Line areal hydrography via TIGERweb Hydro MapServer layer 1","fetched":"2026-09-06","simplify_tolerance_deg":0.001},"geometry":{"type":"Polygon","coordinates":[[[-123.061242,38.312649],[-123.056626,38.314427],[-123.057072,38.316581],[-123.054687,38.319394],[-123.055077,38.3259],[-123.057957,38.328053],[-123.059882,38.333734],[-123.058549,38.336173],[-123.052474,38.333521],[-123.050263,38.334329],[-123.051554,38.332977],[-123.049761,38.334325],[-123.046316,38.329311],[-123.040605,38.326163],[-123.037586,38.322446],[-123.04,38.320197],[-123.038962,38.317399],[-123.03678,38.316728],[-123.038468,38.314988],[-123.048391,38.315372],[-123.05141,38.31406],[-123.050532,38.312564],[-123.054981,38.308277],[-123.053383,38.303845],[-123.057087,38.304427],[-123.061242,38.312649]]]}},{"type":"Feature","properties":{"NAME":"Bolinas Bay","MTFCC":"H2053","source":"U.S. Census Bureau TIGER/Line areal hydrography via TIGERweb Hydro MapServer layer 1","fetched":"2026-09-06","simplify_tolerance_deg":0.001},"geometry":{"type":"Polygon","coordinates":[[[-122.700542,37.894724],[-122.697388,37.898938],[-122.682222,37.906456],[-122.664824,37.905436],[-122.652905,37.902174],[-122.642798,37.897347],[-122.628711,37.885352],[-122.634053,37.883072],[-122.638237,37.883525],[-122.679038,37.891875],[-122.700542,37.894724]]]}},{"type":"Feature","properties":{"NAME":"Bolinas Lagoon","MTFCC":"H2051","source":"U.S. Census Bureau TIGER/Line areal hydrography via TIGERweb Hydro MapServer layer 1","fetched":"2026-09-06","simplify_tolerance_deg":0.001},"geometry":{"type":"Polygon","coordinates":[[[-122.698391,37.933568],[-122.692273,37.933261],[-122.688929,37.93208],[-122.688991,37.930459],[-122.682762,37.929777],[-122.680397,37.925404],[-122.675466,37.924162],[-122.664898,37.913078],[-122.651787,37.906828],[-122.646422,37.902062],[-122.651454,37.904114],[-122.651045,37.90547],[-122.652737,37.906432],[-122.661432,37.909237],[-122.676106,37.907827],[-122.680704,37.909135],[-122.678595,37.9066],[-122.682222,37.906456],[-122.682015,37.909679],[-122.684393,37.91052],[-122.688256,37.91563],[-122.687807,37.921833],[-122.693484,37.923739],[-122.698391,37.933568]],[[-122.684601,37.912476],[-122.683519,37.910976],[-122.674337,37.911937],[-122.681695,37.914234],[-122.682264,37.911959],[-122.684601,37.912476]]]}},{"type":"Feature","properties":{"NAME":"Carquinez Strait","MTFCC":"H2051","source":"U.S. Census Bureau TIGER/Line areal hydrography via TIGERweb Hydro MapServer layer 1","fetched":"2026-09-06","simplify_tolerance_deg":0.001},"geometry":{"type":"Polygon","coordinates":[[[-122.270979,38.067529],[-122.258348,38.068715],[-122.255794,38.072735],[-122.253015,38.072415],[-122.251675,38.070113],[-122.253293,38.069206],[-122.251332,38.068574],[-122.239332,38.073089],[-122.226632,38.064998],[-122.213964,38.066006],[-122.213013,38.06827],[-122.211831,38.066221],[-122.213623,38.065946],[-122.20978,38.065672],[-122.206466,38.067947],[-122.203331,38.064057],[-122.201177,38.064486],[-122.200489,38.061454],[-122.194193,38.059817],[-122.191477,38.068739],[-122.188065,38.070706],[-122.183492,38.068096],[-122.183068,38.065239],[-122.179295,38.061992],[-122.175342,38.061124],[-122.174668,38.057739],[-122.168929,38.056184],[-122.169993,38.054728],[-122.167957,38.053744],[-122.163546,38.053447],[-122.164283,38.051881],[-122.161462,38.050512],[-122.160935,38.048205],[-122.162486,38.044728],[-122.164806,38.044613],[-122.165251,38.044102],[-122.157963,38.04354],[-122.157678,38.046017],[-122.156191,38.046121],[-122.153559,38.04489],[-122.157102,38.043496],[-122.153588,38.042171],[-122.133337,38.042866],[-122.138395,38.039876],[-122.129814,38.044671],[-122.127713,38.047686],[-122.120395,38.03814],[-122.123973,38.035717],[-122.141533,38.031862],[-122.159997,38.033445],[-122.167577,38.036721],[-122.176096,38.047772],[-122.183863,38.053997],[-122.201778,38.05812],[-122.245251,38.063969],[-122.267978,38.060221],[-122.270979,38.067529]]]}},{"type":"Feature","properties":{"NAME":"Carquinez Strait","MTFCC":"H2051","source":"U.S. Census Bureau TIGER/Line areal hydrography via TIGERweb Hydro MapServer layer 1","fetched":"2026-09-06","simplify_tolerance_deg":0.001},"geometry":{"type":"Polygon","coordinates":[[[-122.268367,38.049624],[-122.269578,38.060404],[-122.265347,38.059918],[-122.245251,38.063969],[-122.201778,38.05812],[-122.183863,38.053997],[-122.176096,38.047772],[-122.167577,38.036721],[-122.163202,38.034299],[-122.14312,38.031761],[-122.123973,38.035717],[-122.120395,38.03814],[-122.118272,38.035302],[-122.128797,38.030464],[-122.130834,38.027245],[-122.138392,38.025563],[-122.138578,38.027985],[-122.142527,38.022488],[-122.149076,38.022177],[-122.169249,38.029582],[-122.173624,38.033929],[-122.174762,38.038802],[-122.17886,38.04462],[-122.190698,38.052444],[-122.200363,38.053356],[-122.214677,38.057408],[-122.224224,38.057708],[-122.224383,38.056082],[-122.24409,38.058206],[-122.255506,38.05132],[-122.260519,38.051702],[-122.262371,38.050158],[-122.268367,38.049624]]]}},{"type":"Feature","properties":{"NAME":"Clifton Court Forebay","MTFCC":"H2051","source":"U.S. Census Bureau TIGER/Line areal hydrography via TIGERweb Hydro MapServer layer 1","fetched":"2026-09-06","simplify_tolerance_deg":0.001},"geometry":{"type":"Polygon","coordinates":[[[-121.592685,37.825849],[-121.593006,37.837014],[-121.590666,37.83787],[-121.590095,37.846553],[-121.582368,37.848137],[-121.584502,37.852246],[-121.581305,37.857211],[-121.56741,37.855358],[-121.561744,37.848483],[-121.554837,37.830818],[-121.561544,37.827736],[-121.57562,37.826934],[-121.580935,37.822139],[-121.585059,37.820919],[-121.592685,37.825849]]]}},{"type":"Feature","properties":{"NAME":"Corte Madera","MTFCC":"H2053","source":"U.S. Census Bureau TIGER/Line areal hydrography via TIGERweb Hydro MapServer layer 1","fetched":"2026-09-06","simplify_tolerance_deg":0.001},"geometry":{"type":"Polygon","coordinates":[[[-122.505342,37.9378],[-122.504774,37.940192],[-122.501085,37.942299],[-122.4969,37.939427],[-122.492057,37.93921],[-122.488833,37.937102],[-122.486605,37.920817],[-122.494042,37.921677],[-122.501086,37.92647],[-122.505342,37.9378]]]}},{"type":"Feature","properties":{"NAME":"Cowboy Cv","MTFCC":"H2051","source":"U.S. Census Bureau TIGER/Line areal hydrography via TIGERweb Hydro MapServer layer 1","fetched":"2026-09-06","simplify_tolerance_deg":0.001},"geometry":{"type":"Polygon","coordinates":[[[-121.762397,37.828106],[-121.759685,37.829056],[-121.751772,37.823456],[-121.742835,37.819781],[-121.752097,37.815943],[-121.762397,37.828106]]]}},{"type":"Feature","properties":{"NAME":"Cox Cv","MTFCC":"H2051","source":"U.S. Census Bureau TIGER/Line areal hydrography via TIGERweb Hydro MapServer layer 1","fetched":"2026-09-06","simplify_tolerance_deg":0.001},"geometry":{"type":"Polygon","coordinates":[[[-121.735672,37.808056],[-121.732085,37.804918],[-121.731672,37.801937],[-121.736672,37.802612],[-121.738497,37.805093],[-121.735672,37.808056]]]}},{"type":"Feature","properties":{"NAME":"Creamery Bay","MTFCC":"H2051","source":"U.S. Census Bureau TIGER/Line areal hydrography via TIGERweb Hydro MapServer layer 1","fetched":"2026-09-06","simplify_tolerance_deg":0.001},"geometry":{"type":"Polygon","coordinates":[[[-122.958225,38.061924],[-122.956182,38.063633],[-122.957504,38.068298],[-122.955447,38.06988],[-122.957284,38.07644],[-122.95645,38.077687],[-122.953154,38.071326],[-122.95432,38.065963],[-122.953104,38.063744],[-122.954368,38.06198],[-122.952992,38.060458],[-122.94627,38.060757],[-122.948553,38.054776],[-122.950664,38.058162],[-122.958225,38.061924]]]}},{"type":"Feature","properties":{"NAME":"Delta Coves","MTFCC":"H2051","source":"U.S. Census Bureau TIGER/Line areal hydrography via TIGERweb Hydro MapServer layer 1","fetched":"2026-09-06","simplify_tolerance_deg":0.001},"geometry":{"type":"Polygon","coordinates":[[[-121.63845,38.017088],[-121.635561,38.017653],[-121.63827,38.018773],[-121.635149,38.018893],[-121.633223,38.016477],[-121.633973,38.01888],[-121.631418,38.01638],[-121.631533,38.018273],[-121.630016,38.01883],[-121.630575,38.016704],[-121.628473,38.016393],[-121.629094,38.018773],[-121.627316,38.018769],[-121.627061,38.017361],[-121.624992,38.01881],[-121.623853,38.016944],[-121.627316,38.016033],[-121.626214,38.015018],[-121.624626,38.01662],[-121.620682,38.013246],[-121.626353,38.014023],[-121.624408,38.012523],[-121.626358,38.011245],[-121.627084,38.012759],[-121.627395,38.010741],[-121.629608,38.011893],[-121.627209,38.014157],[-121.629229,38.012758],[-121.630084,38.014792],[-121.630533,38.012093],[-121.631302,38.015199],[-121.632473,38.012759],[-121.634066,38.013398],[-121.632932,38.015606],[-121.634978,38.01368],[-121.636117,38.014282],[-121.635103,38.015463],[-121.6372,38.015704],[-121.634598,38.016625],[-121.63845,38.017088]]]}},{"type":"Feature","properties":{"NAME":"Drakes Bay","MTFCC":"H2053","source":"U.S. Census Bureau TIGER/Line areal hydrography via TIGERweb Hydro MapServer layer 1","fetched":"2026-09-06","simplify_tolerance_deg":0.001},"geometry":{"type":"Polygon","coordinates":[[[-122.983976,38.002499],[-122.981766,38.009191],[-122.971889,38.020556],[-122.960765,38.027481],[-122.948659,38.030818],[-122.939441,38.031885],[-122.930183,38.031293],[-122.925986,38.028839],[-122.896237,38.027777],[-122.869509,38.021434],[-122.938827,37.996256],[-122.964232,37.990207],[-122.967322,37.99376],[-122.973085,37.993896],[-122.983008,37.997859],[-122.983976,38.002499]]]}},{"type":"Feature","properties":{"NAME":"East Cv","MTFCC":"H2051","source":"U.S. Census Bureau TIGER/Line areal hydrography via TIGERweb Hydro MapServer layer 1","fetched":"2026-09-06","simplify_tolerance_deg":0.001},"geometry":{"type":"Polygon","coordinates":[[[-121.725234,37.826806],[-121.722347,37.826018],[-121.72141,37.822231],[-121.725535,37.823331],[-121.725234,37.826806]]]}},{"type":"Feature","properties":{"NAME":"Estero Delimantour","MTFCC":"H2051","source":"U.S. Census Bureau TIGER/Line areal hydrography via TIGERweb Hydro MapServer layer 1","fetched":"2026-09-06","simplify_tolerance_deg":0.001},"geometry":{"type":"Polygon","coordinates":[[[-122.931055,38.035155],[-122.926944,38.035993],[-122.924429,38.033273],[-122.92015,38.033047],[-122.918107,38.037161],[-122.917101,38.033793],[-122.913996,38.033524],[-122.913598,38.039562],[-122.91049,38.044912],[-122.909307,38.051648],[-122.905306,38.047389],[-122.907163,38.044521],[-122.904204,38.041965],[-122.908529,38.034225],[-122.899215,38.031596],[-122.891593,38.034027],[-122.887951,38.028391],[-122.895608,38.030137],[-122.924747,38.029871],[-122.931055,38.035155]]]}},{"type":"Feature","properties":{"NAME":"Grizzly Bay","MTFCC":"H2051","source":"U.S. Census Bureau TIGER/Line areal hydrography via TIGERweb Hydro MapServer layer 1","fetched":"2026-09-06","simplify_tolerance_deg":0.001},"geometry":{"type":"Polygon","coordinates":[[[-122.065744,38.123175],[-122.061463,38.126053],[-122.062701,38.135331],[-122.058367,38.136128],[-122.053763,38.133007],[-122.044198,38.137088],[-122.020199,38.137367],[-122.00715,38.140795],[-122.000555,38.137722],[-121.992815,38.130161],[-121.983851,38.113722],[-121.993166,38.109439],[-121.990967,38.10701],[-121.992802,38.105593],[-121.999795,38.104184],[-122.003556,38.101343],[-122.006935,38.101993],[-122.005426,38.101393],[-122.009975,38.098369],[-122.010545,38.099385],[-122.013549,38.098008],[-122.011979,38.09621],[-122.013081,38.094087],[-122.012938,38.096749],[-122.016733,38.098454],[-122.03096,38.091345],[-122.034886,38.09395],[-122.04075,38.093571],[-122.053843,38.102286],[-122.065903,38.120785],[-122.065744,38.123175]]]}},{"type":"Feature","properties":{"NAME":"Guadalupe Slough","MTFCC":"H2051","source":"U.S. Census Bureau TIGER/Line areal hydrography via TIGERweb Hydro MapServer layer 1","fetched":"2026-09-06","simplify_tolerance_deg":0.001},"geometry":{"type":"Polygon","coordinates":[[[-122.038204,37.453546],[-122.029754,37.451194],[-122.028479,37.448766],[-122.029494,37.446069],[-122.03171,37.445868],[-122.030423,37.448743],[-122.032,37.451123],[-122.038212,37.451442],[-122.038204,37.453546]]]}},{"type":"Feature","properties":{"NAME":"Honker Bay","MTFCC":"H2051","source":"U.S. Census Bureau TIGER/Line areal hydrography via TIGERweb Hydro MapServer layer 1","fetched":"2026-09-06","simplify_tolerance_deg":0.001},"geometry":{"type":"Polygon","coordinates":[[[-121.951102,38.075296],[-121.948615,38.080147],[-121.947248,38.078926],[-121.949879,38.07756],[-121.948145,38.078184],[-121.949761,38.077313],[-121.947328,38.07689],[-121.937925,38.080796],[-121.934659,38.079758],[-121.929981,38.081999],[-121.928709,38.080515],[-121.922683,38.081273],[-121.919771,38.083365],[-121.912348,38.082627],[-121.912055,38.084605],[-121.905976,38.079747],[-121.905983,38.079088],[-121.908075,38.078001],[-121.906888,38.07532],[-121.908966,38.074864],[-121.910629,38.071266],[-121.908973,38.075155],[-121.909828,38.074854],[-121.911331,38.06935],[-121.910902,38.065345],[-121.907138,38.059954],[-121.898635,38.057886],[-121.890606,38.053433],[-121.886423,38.054157],[-121.879953,38.056367],[-121.889014,38.054301],[-121.890355,38.054285],[-121.89189,38.054522],[-121.881982,38.055945],[-121.87494,38.059752],[-121.876072,38.058696],[-121.876072,38.050125],[-121.893327,38.046185],[-121.915544,38.045216],[-121.931003,38.04761],[-121.950911,38.053918],[-121.951102,38.075296]],[[-121.933674,38.054624],[-121.933305,38.053136],[-121.928672,38.051531],[-121.925247,38.05219],[-121.916569,38.051057],[-121.918965,38.05531],[-121.915632,38.051645],[-121.916528,38.05092],[-121.918473,38.050964],[-121.916827,38.050227],[-121.899583,38.050531],[-121.904062,38.050801],[-121.898576,38.051184],[-121.894712,38.053468],[-121.898618,38.050404],[-121.893072,38.052962],[-121.899191,38.05765],[-121.906728,38.059026],[-121.910097,38.061521],[-121.912583,38.066323],[-121.913119,38.070343],[-121.914805,38.070845],[-121.918391,38.069428],[-121.9174,38.062],[-121.918193,38.059243],[-121.919868,38.057425],[-121.918951,38.055546],[-121.921473,38.057513],[-121.925107,38.056074],[-121.928456,38.055668],[-121.931964,38.055861],[-121.933021,38.053548],[-121.929575,38.052943],[-121.932875,38.053218],[-121.933243,38.053691],[-121.932048,38.056196],[-121.929484,38.056157],[-121.932214,38.056547],[-121.933674,38.054624]],[[-121.928011,38.055965],[-121.924739,38.056332],[-121.921535,38.057683],[-121.920285,38.056919],[-121.918506,38.059193],[-121.917678,38.061347],[-121.918607,38.069516],[-121.917099,38.070675],[-121.919698,38.069681],[-121.920317,38.068044],[-121.918476,38.064385],[-121.919444,38.058705],[-121.928011,38.055965]],[[-121.920946,38.051184],[-121.919494,38.050563],[-121.918682,38.051008],[-121.920946,38.051184]],[[-121.916452,38.071059],[-121.914875,38.071009],[-121.913026,38.070449],[-121.912479,38.066383],[-121.910534,38.063218],[-121.912025,38.071514],[-121.916452,38.071059]],[[-121.910408,38.083132],[-121.909334,38.077111],[-121.907881,38.077155],[-121.908339,38.078325],[-121.906212,38.079698],[-121.910408,38.083132]]]}},{"type":"Feature","properties":{"NAME":"Howden Cv","MTFCC":"H2051","source":"U.S. Census Bureau TIGER/Line areal hydrography via TIGERweb Hydro MapServer layer 1","fetched":"2026-09-06","simplify_tolerance_deg":0.001},"geometry":{"type":"Polygon","coordinates":[[[-121.726947,37.818906],[-121.722539,37.815601],[-121.717635,37.815794],[-121.715547,37.813056],[-121.716897,37.811068],[-121.720772,37.813181],[-121.720897,37.810793],[-121.722785,37.810993],[-121.72266,37.808368],[-121.724785,37.809206],[-121.72601,37.811106],[-121.725047,37.813218],[-121.72721,37.812493],[-121.730585,37.814256],[-121.726947,37.818906]]]}},{"type":"Feature","properties":{"NAME":"Mare Island Strait","MTFCC":"H2051","source":"U.S. Census Bureau TIGER/Line areal hydrography via TIGERweb Hydro MapServer layer 1","fetched":"2026-09-06","simplify_tolerance_deg":0.001},"geometry":{"type":"Polygon","coordinates":[[[-122.282936,38.119431],[-122.27598,38.121888],[-122.27648,38.118024],[-122.268087,38.10833],[-122.267637,38.105116],[-122.250709,38.087831],[-122.248088,38.088409],[-122.247619,38.083229],[-122.245608,38.081126],[-122.246629,38.080543],[-122.241206,38.077871],[-122.239825,38.073034],[-122.253024,38.068682],[-122.251217,38.069431],[-122.251806,38.071662],[-122.248496,38.07646],[-122.247071,38.075768],[-122.253825,38.08481],[-122.255791,38.085459],[-122.255576,38.087141],[-122.258216,38.086466],[-122.256485,38.087893],[-122.258967,38.087191],[-122.257346,38.088679],[-122.259745,38.087955],[-122.258103,38.089432],[-122.261023,38.089131],[-122.258798,38.090224],[-122.266878,38.096419],[-122.264841,38.096226],[-122.26849,38.097705],[-122.26596,38.097221],[-122.267426,38.098886],[-122.268935,38.098354],[-122.268023,38.10004],[-122.279127,38.111867],[-122.282539,38.11818],[-122.281245,38.118438],[-122.278328,38.113603],[-122.277624,38.114717],[-122.280363,38.117174],[-122.279438,38.117663],[-122.282936,38.119431]]]}},{"type":"Feature","properties":{"NAME":"Monterey Bay","MTFCC":"H2051","source":"U.S. Census Bureau TIGER/Line areal hydrography via TIGERweb Hydro MapServer layer 1","fetched":"2026-09-06","simplify_tolerance_deg":0.001},"geometry":{"type":"Polygon","coordinates":[[[-122.009489,36.89],[-122.02681,36.950625],[-122.02423,36.9554],[-122.025677,36.95767],[-122.023409,36.962185],[-122.017109,36.957007],[-122.021737,36.961834],[-122.011405,36.96348],[-122.002477,36.961088],[-122.003558,36.967603],[-121.999065,36.973527],[-122.002598,36.967744],[-122.001217,36.961296],[-121.998062,36.962576],[-121.993058,36.960262],[-121.992828,36.95858],[-121.989526,36.961385],[-121.988934,36.959871],[-121.984082,36.960119],[-121.976518,36.954006],[-121.972852,36.954174],[-121.962965,36.961111],[-121.953167,36.972447],[-121.948799,36.972043],[-121.938977,36.978315],[-121.928204,36.977453],[-121.912938,36.971406],[-121.914226,36.968873],[-121.912777,36.97136],[-121.905568,36.968748],[-121.894678,36.961837],[-121.872605,36.943112],[-121.862159,36.931721],[-121.834797,36.89],[-122.009489,36.89]]]}},{"type":"Feature","properties":{"NAME":"Oakland Inner Hbr","MTFCC":"H2051","source":"U.S. Census Bureau TIGER/Line areal hydrography via TIGERweb Hydro MapServer layer 1","fetched":"2026-09-06","simplify_tolerance_deg":0.001},"geometry":{"type":"Polygon","coordinates":[[[-122.315064,37.794579],[-122.296065,37.793428],[-122.28885,37.796223],[-122.287929,37.794987],[-122.280846,37.79576],[-122.267134,37.789145],[-122.264807,37.790946],[-122.263018,37.790816],[-122.264551,37.790194],[-122.266186,37.788881],[-122.263527,37.789732],[-122.262788,37.787627],[-122.259013,37.78951],[-122.261341,37.786929],[-122.258386,37.785774],[-122.253982,37.78765],[-122.249217,37.786887],[-122.243392,37.783764],[-122.243707,37.77883],[-122.239966,37.774381],[-122.241116,37.775106],[-122.238117,37.773058],[-122.227663,37.768266],[-122.225364,37.766365],[-122.222322,37.758768],[-122.214852,37.761468],[-122.223779,37.754428],[-122.225344,37.755832],[-122.225245,37.763783],[-122.228258,37.767414],[-122.242392,37.774817],[-122.246092,37.774236],[-122.245227,37.775461],[-122.248682,37.775608],[-122.252141,37.77893],[-122.255908,37.77719],[-122.258184,37.778098],[-122.256161,37.781031],[-122.257565,37.781856],[-122.259303,37.782307],[-122.260676,37.778028],[-122.261054,37.782539],[-122.265469,37.78398],[-122.268038,37.783206],[-122.26893,37.78541],[-122.271733,37.786658],[-122.271192,37.787647],[-122.274356,37.78787],[-122.276057,37.790857],[-122.280603,37.792146],[-122.286128,37.7921],[-122.287471,37.790315],[-122.303405,37.790639],[-122.31282,37.792919],[-122.312606,37.794048],[-122.315064,37.794579]],[[-122.25388,37.784953],[-122.251474,37.781397],[-122.246068,37.778921],[-122.247635,37.783218],[-122.25388,37.784953]]]}},{"type":"Feature","properties":{"NAME":"Pacific Ocean","MTFCC":"H2053","source":"U.S. Census Bureau TIGER/Line areal hydrography via TIGERweb Hydro MapServer layer 1","fetched":"2026-09-06","simplify_tolerance_deg":0.001},"geometry":{"type":"Polygon","coordinates":[[[-122.071767,36.89],[-122.076399,36.910199],[-122.10304,36.916255],[-122.130569,36.925338],[-122.172024,36.942681],[-122.209322,36.961606],[-122.251082,36.985833],[-122.261049,36.993452],[-122.265654,37.00012],[-122.276375,37.024834],[-122.290313,37.03209],[-122.313899,37.054764],[-122.29941,37.096356],[-122.292952,37.107352],[-122.285072,37.102008],[-122.276124,37.09278],[-122.274809,37.088048],[-122.268756,37.083381],[-122.266976,37.078946],[-122.267977,37.078001],[-122.267985,37.077441],[-122.266736,37.078649],[-122.264117,37.077357],[-122.261761,37.072432],[-122.2593,37.071332],[-122.258535,37.06765],[-122.256306,37.067319],[-122.253665,37.060081],[-122.247446,37.056825],[-122.230098,37.040084],[-122.222887,37.025096],[-122.216342,37.024592],[-122.214745,37.021922],[-122.208268,37.017972],[-122.206149,37.013934],[-122.199489,37.012457],[-122.196508,37.009385],[-122.192555,37.008286],[-122.189622,37.004577],[-122.185347,37.003759],[-122.185909,37.001335],[-122.183529,36.998435],[-122.176928,36.99692],[-122.17398,36.99388],[-122.172699,36.994589],[-122.168735,36.990485],[-122.169022,36.988363],[-122.162059,36.98772],[-122.155097,36.981434],[-122.153093,36.976138],[-122.144006,36.976953],[-122.13827,36.973156],[-122.134667,36.966843],[-122.13086,36.967088],[-122.126702,36.964244],[-122.122419,36.965924],[-122.119426,36.962182],[-122.114868,36.962648],[-122.105828,36.956124],[-122.091874,36.953822],[-122.08718,36.954746],[-122.086251,36.952416],[-122.082352,36.951884],[-122.077401,36.953042],[-122.07571,36.950343],[-122.067689,36.948317],[-122.059236,36.950059],[-122.046522,36.949168],[-122.04068,36.952839],[-122.027033,36.951364],[-122.009489,36.89],[-122.071767,36.89]]]}},{"type":"Feature","properties":{"NAME":"Pacific Ocean","MTFCC":"H2053","source":"U.S. Census Bureau TIGER/Line areal hydrography via TIGERweb Hydro MapServer layer 1","fetched":"2026-09-06","simplify_tolerance_deg":0.001},"geometry":{"type":"Polygon","coordinates":[[[-123.134523,38.296263],[-123.053879,38.295585],[-122.995203,38.240903],[-122.992167,38.232888],[-122.980973,38.221603],[-122.980607,38.213999],[-122.972087,38.2072],[-122.967336,38.201037],[-122.965753,38.19511],[-122.966768,38.191401],[-122.965292,38.190967],[-122.965173,38.188352],[-122.965853,38.184462],[-122.968379,38.182374],[-122.966361,38.183078],[-122.955111,38.177487],[-122.952994,38.173064],[-122.95472,38.170647],[-122.95188,38.169845],[-122.952123,38.166549],[-122.949534,38.164055],[-122.948683,38.15444],[-122.953967,38.131942],[-122.974273,38.081128],[-123.00803,38.009582],[-123.013528,38.000898],[-123.017175,37.998771],[-123.020486,37.999844],[-123.023919,37.99479],[-123.014158,37.993924],[-123.012109,37.995632],[-123.00811,37.995558],[-123.00564,37.993376],[-122.996809,37.9942],[-122.994877,37.992794],[-122.990533,37.994637],[-122.986212,37.992067],[-122.97432,37.992494],[-122.972875,37.990247],[-122.966147,37.989672],[-122.938827,37.996256],[-122.876104,38.019611],[-122.869509,38.021434],[-122.864907,38.019949],[-122.833052,38.003541],[-122.828023,37.99972],[-122.828092,37.998067],[-122.823232,37.99771],[-122.811804,37.984782],[-122.808777,37.985359],[-122.80117,37.980254],[-122.791566,37.969357],[-122.784256,37.955312],[-122.783302,37.948252],[-122.778542,37.94814],[-122.775948,37.945942],[-122.776504,37.943206],[-122.770947,37.943869],[-122.765969,37.937663],[-122.754399,37.935296],[-122.749461,37.931432],[-122.73677,37.925587],[-122.731903,37.917952],[-122.726964,37.90352],[-122.714023,37.900468],[-122.709778,37.895948],[-122.705132,37.894509],[-122.679038,37.891875],[-122.638237,37.883525],[-122.634053,37.883072],[-122.628711,37.885352],[-122.628957,37.881682],[-122.623684,37.880908],[-122.618967,37.877273],[-122.613131,37.878561],[-122.602011,37.875538],[-122.590479,37.864754],[-122.588779,37.861463],[-122.584933,37.860393],[-122.58182,37.857041],[-122.580456,37.859415],[-122.577316,37.859531],[-122.570247,37.853532],[-122.566498,37.854048],[-122.56198,37.852026],[-122.560677,37.848076],[-122.558793,37.847906],[-122.559555,37.845494],[-122.555945,37.84457],[-122.555384,37.841801],[-122.551206,37.840191],[-122.548803,37.836021],[-122.549295,37.834026],[-122.541759,37.832509],[-122.535581,37.828475],[-122.534383,37.825513],[-122.536199,37.823958],[-122.532037,37.821238],[-122.52922,37.815951],[-122.612285,37.815224],[-122.626105,37.821597],[-122.632472,37.827807],[-122.643163,37.830451],[-122.667425,37.841726],[-122.675654,37.848517],[-122.691987,37.845006],[-122.704679,37.844296],[-122.715845,37.845625],[-122.730666,37.85006],[-122.740258,37.855174],[-122.752466,37.857699],[-122.766771,37.865804],[-122.778019,37.874928],[-122.785472,37.885277],[-122.789027,37.893763],[-122.814134,37.901084],[-122.829804,37.910325],[-122.842134,37.923317],[-122.85046,37.945585],[-122.876104,37.966342],[-122.879057,37.966578],[-122.889291,37.974109],[-122.902284,37.977386],[-122.909236,37.964644],[-122.91917,37.954835],[-122.931927,37.946672],[-122.953224,37.941093],[-122.976428,37.940149],[-123.022507,37.942065],[-123.050084,37.948016],[-123.067965,37.958669],[-123.07939,37.971937],[-123.08388,37.983366],[-123.08513,38.008433],[-123.0812,38.018971],[-123.074701,38.027199],[-123.063797,38.036487],[-123.023699,38.124923],[-123.014817,38.149132],[-123.027211,38.16417],[-123.030483,38.172458],[-123.031336,38.181462],[-123.037897,38.192491],[-123.038943,38.197528],[-123.045825,38.204926],[-123.049617,38.214286],[-123.100963,38.261358],[-123.110969,38.267263],[-123.119591,38.277103],[-123.123774,38.285787],[-123.134523,38.296263]],[[-122.993927,38.230662],[-122.994379,38.229426],[-122.993557,38.22991],[-122.993927,38.230662]],[[-122.785592,37.947664],[-122.785689,37.946813],[-122.785321,37.947593],[-122.785592,37.947664]]]}},{"type":"Feature","properties":{"NAME":"Pacific Ocean","MTFCC":"H2053","source":"U.S. Census Bureau TIGER/Line areal hydrography via TIGERweb Hydro MapServer layer 1","fetched":"2026-09-06","simplify_tolerance_deg":0.001},"geometry":{"type":"Polygon","coordinates":[[[-123.632497,38.758119],[-123.533746,38.768405],[-123.531086,38.763164],[-123.531235,38.759747],[-123.532603,38.759462],[-123.526676,38.757021],[-123.524889,38.753521],[-123.527359,38.752363],[-123.524296,38.749269],[-123.521286,38.749636],[-123.515706,38.743229],[-123.513539,38.742739],[-123.514641,38.742201],[-123.511219,38.740656],[-123.506926,38.741159],[-123.493798,38.73716],[-123.488595,38.730312],[-123.484667,38.729012],[-123.483025,38.726381],[-123.480942,38.726393],[-123.474803,38.721736],[-123.471634,38.722517],[-123.461023,38.717219],[-123.45976,38.714851],[-123.456071,38.713083],[-123.45208,38.705178],[-123.449416,38.705063],[-123.448182,38.702794],[-123.445911,38.703437],[-123.444768,38.702273],[-123.445721,38.700476],[-123.440842,38.699262],[-123.439678,38.694],[-123.432724,38.688237],[-123.43227,38.683161],[-123.434968,38.681793],[-123.431514,38.680672],[-123.432122,38.678628],[-123.430624,38.680013],[-123.428087,38.678222],[-123.42904,38.67776],[-123.42918,38.677019],[-123.426959,38.678002],[-123.424366,38.675387],[-123.419279,38.674397],[-123.419342,38.672705],[-123.414803,38.668809],[-123.41659,38.667694],[-123.409396,38.662496],[-123.409131,38.659057],[-123.405559,38.656732],[-123.408299,38.654486],[-123.402402,38.650726],[-123.403068,38.649502],[-123.399554,38.645721],[-123.40029,38.644331],[-123.393862,38.640143],[-123.393317,38.63867],[-123.395377,38.637583],[-123.390711,38.636059],[-123.387354,38.631982],[-123.39045,38.630544],[-123.381238,38.625046],[-123.380996,38.622281],[-123.379085,38.62194],[-123.375553,38.6175],[-123.372086,38.606508],[-123.366503,38.602094],[-123.360965,38.600805],[-123.359654,38.597367],[-123.353886,38.598489],[-123.349755,38.596903],[-123.34334,38.59023],[-123.341995,38.587593],[-123.343318,38.587071],[-123.339376,38.583421],[-123.340437,38.576639],[-123.338497,38.573591],[-123.340197,38.572305],[-123.335676,38.570235],[-123.333709,38.565697],[-123.330189,38.567335],[-123.329517,38.565714],[-123.323926,38.563885],[-123.323688,38.560611],[-123.317755,38.559985],[-123.317489,38.558623],[-123.311185,38.557002],[-123.305917,38.55197],[-123.303721,38.547393],[-123.297705,38.547002],[-123.298566,38.54408],[-123.28569,38.539869],[-123.282858,38.535918],[-123.279242,38.53606],[-123.278727,38.531401],[-123.273683,38.532811],[-123.267678,38.529584],[-123.267134,38.527183],[-123.268834,38.524948],[-123.26452,38.523815],[-123.262789,38.520314],[-123.258181,38.518647],[-123.258141,38.516532],[-123.254282,38.515607],[-123.254271,38.511558],[-123.250223,38.509892],[-123.235414,38.5093],[-123.23458,38.505999],[-123.231188,38.505132],[-123.231676,38.502654],[-123.221286,38.498875],[-123.214868,38.499019],[-123.192147,38.489447],[-123.172913,38.47714],[-123.169894,38.47676],[-123.169671,38.47503],[-123.165394,38.474315],[-123.163508,38.471068],[-123.164731,38.470404],[-123.162328,38.469254],[-123.16323,38.468156],[-123.15882,38.468281],[-123.155732,38.466248],[-123.156355,38.464626],[-123.151876,38.464104],[-123.152625,38.460951],[-123.15113,38.462192],[-123.14559,38.459828],[-123.146513,38.457947],[-123.142971,38.457398],[-123.144349,38.455877],[-123.139995,38.456414],[-123.133346,38.454136],[-123.129003,38.450789],[-123.125987,38.442469],[-123.128383,38.439559],[-123.12391,38.440372],[-123.120627,38.431593],[-123.122204,38.43028],[-123.117028,38.42869],[-123.114711,38.421591],[-123.109026,38.42042],[-123.101941,38.413289],[-123.098083,38.406402],[-123.096187,38.398396],[-123.096967,38.394246],[-123.095019,38.392657],[-123.09243,38.394934],[-123.085469,38.390623],[-123.081606,38.377837],[-123.078821,38.37664],[-123.079065,38.374711],[-123.073404,38.369325],[-123.069356,38.362186],[-123.067632,38.356788],[-123.06874,38.334743],[-123.073593,38.323565],[-123.075588,38.32223],[-123.078621,38.323373],[-123.06749,38.309969],[-123.067797,38.308468],[-123.065154,38.305825],[-123.065266,38.30263],[-123.053879,38.295585],[-123.134523,38.296263],[-123.141329,38.311338],[-123.141001,38.327454],[-123.134312,38.345786],[-123.155743,38.368396],[-123.159847,38.374917],[-123.164757,38.388337],[-123.171711,38.394079],[-123.188465,38.40286],[-123.196159,38.410108],[-123.204071,38.423903],[-123.22022,38.441954],[-123.228013,38.444228],[-123.236391,38.450428],[-123.251116,38.452078],[-123.269188,38.457569],[-123.289685,38.46758],[-123.306742,38.478681],[-123.317345,38.488638],[-123.32381,38.498614],[-123.330725,38.499913],[-123.330921,38.502421],[-123.348529,38.504241],[-123.360929,38.510202],[-123.384567,38.537022],[-123.394157,38.553942],[-123.425389,38.582844],[-123.43049,38.591672],[-123.448391,38.606292],[-123.456159,38.614788],[-123.470521,38.638578],[-123.477373,38.642226],[-123.488543,38.651466],[-123.495084,38.660662],[-123.498669,38.668943],[-123.51058,38.68089],[-123.531889,38.693421],[-123.549463,38.700135],[-123.566089,38.709021],[-123.578005,38.717583],[-123.586915,38.728075],[-123.591962,38.740227],[-123.607061,38.748565],[-123.615205,38.749912],[-123.632497,38.758119]],[[-123.529871,38.750979],[-123.528636,38.750627],[-123.528103,38.750902],[-123.529871,38.750979]],[[-123.408943,38.655074],[-123.408958,38.654173],[-123.408467,38.654228],[-123.408943,38.655074]]]}},{"type":"Feature","properties":{"NAME":"Pacific Ocean","MTFCC":"H2053","source":"U.S. Census Bureau TIGER/Line areal hydrography via TIGERweb Hydro MapServer layer 1","fetched":"2026-09-06","simplify_tolerance_deg":0.001},"geometry":{"type":"Polygon","coordinates":[[[-122.587472,37.58477],[-122.586454,37.592529],[-122.57956,37.611484],[-122.567497,37.639185],[-122.575189,37.706721],[-122.502832,37.708133],[-122.496128,37.679909],[-122.496381,37.666344],[-122.494276,37.661021],[-122.494863,37.631626],[-122.496106,37.622842],[-122.498971,37.620198],[-122.497235,37.618358],[-122.497712,37.609259],[-122.514931,37.598621],[-122.514906,37.595731],[-122.520852,37.594376],[-122.51745,37.591347],[-122.517189,37.589144],[-122.518026,37.576677],[-122.520485,37.574112],[-122.517379,37.573029],[-122.518257,37.571144],[-122.516236,37.569237],[-122.518045,37.567683],[-122.51456,37.566352],[-122.515329,37.562445],[-122.514185,37.560275],[-122.515801,37.5586],[-122.513559,37.556082],[-122.515264,37.546061],[-122.519741,37.537233],[-122.519812,37.533804],[-122.517021,37.529413],[-122.51797,37.523969],[-122.514158,37.519577],[-122.511803,37.513186],[-122.498727,37.501024],[-122.50073,37.498017],[-122.499508,37.49555],[-122.495177,37.495739],[-122.493458,37.492949],[-122.488216,37.494609],[-122.484819,37.494015],[-122.486433,37.494934],[-122.473023,37.500808],[-122.470236,37.500644],[-122.45788,37.490497],[-122.449652,37.476723],[-122.445631,37.461448],[-122.444555,37.437656],[-122.443093,37.432969],[-122.441033,37.431848],[-122.439944,37.427535],[-122.436348,37.423661],[-122.431754,37.411303],[-122.427483,37.40977],[-122.427739,37.406226],[-122.422863,37.399659],[-122.422741,37.392236],[-122.418521,37.386878],[-122.41545,37.385504],[-122.416284,37.383932],[-122.41475,37.379954],[-122.410832,37.378969],[-122.411067,37.377206],[-122.408912,37.375617],[-122.408268,37.364123],[-122.401462,37.360659],[-122.399825,37.356834],[-122.400938,37.349181],[-122.40228,37.348181],[-122.400963,37.339609],[-122.404046,37.324824],[-122.403306,37.320686],[-122.407376,37.295345],[-122.406511,37.291405],[-122.411031,37.269103],[-122.41443,37.261422],[-122.414493,37.255856],[-122.418488,37.248662],[-122.41915,37.241607],[-122.415722,37.237018],[-122.415895,37.232848],[-122.411306,37.22839],[-122.411575,37.226511],[-122.408985,37.225472],[-122.410621,37.224099],[-122.407242,37.218493],[-122.409168,37.213801],[-122.407739,37.213422],[-122.407034,37.208185],[-122.40485,37.205453],[-122.405754,37.197662],[-122.404779,37.19559],[-122.398002,37.192203],[-122.397071,37.185345],[-122.394346,37.182828],[-122.394739,37.181416],[-122.391716,37.183206],[-122.386647,37.18344],[-122.381183,37.180767],[-122.379191,37.181222],[-122.370248,37.173537],[-122.367617,37.172884],[-122.361251,37.160644],[-122.359647,37.152848],[-122.36088,37.14966],[-122.355718,37.149112],[-122.354323,37.146855],[-122.351481,37.146559],[-122.351803,37.145284],[-122.345811,37.145269],[-122.343173,37.140445],[-122.338278,37.136188],[-122.337157,37.130303],[-122.339424,37.120923],[-122.336884,37.11711],[-122.332026,37.116907],[-122.329308,37.11227],[-122.318434,37.117051],[-122.315613,37.116238],[-122.311572,37.117925],[-122.306,37.116403],[-122.292952,37.107352],[-122.29941,37.096356],[-122.313899,37.054764],[-122.336414,37.053858],[-122.348208,37.055672],[-122.360003,37.058393],[-122.376086,37.065648],[-122.385739,37.075893],[-122.393127,37.087164],[-122.396875,37.102764],[-122.396916,37.109888],[-122.404395,37.113933],[-122.413362,37.121791],[-122.421347,37.135077],[-122.428467,37.137755],[-122.445632,37.150037],[-122.455426,37.166602],[-122.464117,37.177848],[-122.468053,37.187964],[-122.472235,37.212214],[-122.479071,37.221682],[-122.481703,37.229147],[-122.484046,37.249944],[-122.481774,37.271088],[-122.465869,37.34124],[-122.467005,37.349889],[-122.487454,37.388328],[-122.503543,37.411902],[-122.507734,37.422706],[-122.509889,37.441554],[-122.527596,37.446096],[-122.537338,37.450738],[-122.559524,37.469866],[-122.570958,37.484472],[-122.574963,37.499943],[-122.579563,37.545875],[-122.586454,37.561913],[-122.587472,37.58477]],[[-122.33892,37.108999],[-122.337417,37.107357],[-122.335043,37.107511],[-122.337562,37.109604],[-122.33892,37.108999]]]}},{"type":"Feature","properties":{"NAME":"Pacific Ocean","MTFCC":"H2053","source":"U.S. Census Bureau TIGER/Line areal hydrography via TIGERweb Hydro MapServer layer 1","fetched":"2026-09-06","simplify_tolerance_deg":0.001},"geometry":{"type":"Polygon","coordinates":[[[-123.639896,38.843797],[-123.6358,38.841073],[-123.635948,38.839791],[-123.633284,38.839858],[-123.630331,38.836263],[-123.62875,38.836652],[-123.625426,38.831271],[-123.619572,38.830313],[-123.618839,38.828001],[-123.615504,38.828781],[-123.60479,38.822308],[-123.601569,38.81899],[-123.602739,38.817067],[-123.600221,38.814115],[-123.602353,38.807522],[-123.593398,38.799078],[-123.590854,38.799377],[-123.589919,38.802307],[-123.58638,38.802857],[-123.584711,38.801072],[-123.582664,38.802903],[-123.579856,38.802835],[-123.574239,38.800043],[-123.573829,38.798166],[-123.569208,38.796381],[-123.568945,38.794573],[-123.560814,38.790201],[-123.562686,38.78702],[-123.561778,38.784662],[-123.558912,38.785783],[-123.549292,38.781914],[-123.549936,38.780061],[-123.541661,38.776581],[-123.540932,38.772186],[-123.533746,38.768405],[-123.632611,38.758173],[-123.64,38.763492],[-123.639896,38.843797]],[[-123.542481,38.772324],[-123.541604,38.772598],[-123.542481,38.772781],[-123.542481,38.772324]]]}},{"type":"Feature","properties":{"NAME":"Pacific Ocean","MTFCC":"H2053","source":"U.S. Census Bureau TIGER/Line areal hydrography via TIGERweb Hydro MapServer layer 1","fetched":"2026-09-06","simplify_tolerance_deg":0.001},"geometry":{"type":"Polygon","coordinates":[[[-122.612285,37.815224],[-122.5301,37.81543],[-122.513351,37.77733],[-122.508057,37.729756],[-122.502832,37.708133],[-122.575189,37.706721],[-122.581281,37.760203],[-122.584728,37.779156],[-122.588174,37.789362],[-122.612285,37.815224]],[[-122.517792,37.780592],[-122.516785,37.779783],[-122.517184,37.780729],[-122.517792,37.780592]],[[-122.517084,37.777929],[-122.515916,37.777685],[-122.515183,37.777929],[-122.515884,37.778929],[-122.517084,37.777929]]]}},{"type":"Feature","properties":{"NAME":"Pacific Ocean","MTFCC":"H2053","source":"U.S. Census Bureau TIGER/Line areal hydrography via TIGERweb Hydro MapServer layer 1","fetched":"2026-09-06","simplify_tolerance_deg":0.001},"geometry":{"type":"Polygon","coordinates":[[[-123.173715,37.776113],[-123.169107,37.792365],[-123.166012,37.796885],[-123.147209,37.811951],[-123.132272,37.819676],[-123.118289,37.823058],[-123.095261,37.821877],[-123.070494,37.81383],[-123.048817,37.799816],[-123.038726,37.788881],[-123.033841,37.778375],[-123.010588,37.774926],[-122.997538,37.770784],[-122.981429,37.758916],[-122.973256,37.748652],[-122.964099,37.744281],[-122.949985,37.732187],[-122.942294,37.721057],[-122.935865,37.702459],[-122.93571,37.697618],[-122.941364,37.67658],[-122.949068,37.663377],[-122.963006,37.651984],[-122.973012,37.646581],[-122.986747,37.641783],[-123.00111,37.63983],[-123.00111,37.641775],[-123.011605,37.641506],[-123.040696,37.650328],[-123.05358,37.658648],[-123.068589,37.673041],[-123.074921,37.690066],[-123.086057,37.70075],[-123.09285,37.713688],[-123.104921,37.712648],[-123.126114,37.71673],[-123.132597,37.719393],[-123.156757,37.73784],[-123.162751,37.743533],[-123.169985,37.75593],[-123.172926,37.7636],[-123.173715,37.776113]],[[-123.10802,37.770529],[-123.106491,37.771125],[-123.107126,37.772063],[-123.10802,37.770529]],[[-123.10043,37.766937],[-123.099824,37.76648],[-123.099536,37.76664],[-123.10043,37.766937]],[[-123.099546,37.767545],[-123.098537,37.767545],[-123.099402,37.767728],[-123.099546,37.767545]],[[-123.098997,37.764019],[-123.097612,37.763653],[-123.097497,37.763837],[-123.098997,37.764019]],[[-123.032511,37.727394],[-123.032079,37.726958],[-123.031963,37.727554],[-123.032511,37.727394]],[[-123.01339,37.699044],[-123.01126,37.696548],[-123.008954,37.698401],[-123.012006,37.700256],[-123.01339,37.699044]],[[-123.007686,37.697622],[-123.000697,37.695101],[-122.99946,37.696978],[-123.00111,37.70048],[-123.004514,37.701695],[-123.007686,37.697622]],[[-123.005579,37.703069],[-123.005176,37.703023],[-123.005262,37.703184],[-123.005579,37.703069]],[[-123.004542,37.702268],[-123.003995,37.702222],[-123.00411,37.702634],[-123.004542,37.702268]],[[-123.003915,37.693889],[-123.002734,37.693499],[-123.002561,37.693774],[-123.003915,37.693889]],[[-123.003677,37.702954],[-123.002697,37.703595],[-123.002697,37.703984],[-123.003417,37.703938],[-123.003677,37.702954]]]}},{"type":"Feature","properties":{"NAME":"Pacific Ocean","MTFCC":"H2053","source":"U.S. Census Bureau TIGER/Line areal hydrography via TIGERweb Hydro MapServer layer 1","fetched":"2026-09-06","simplify_tolerance_deg":0.001},"geometry":{"type":"Polygon","coordinates":[[[-122.479094,37.825424],[-122.477641,37.810965],[-122.479208,37.825427],[-122.479094,37.825424]]]}},{"type":"Feature","properties":{"NAME":"Peninsula Cv","MTFCC":"H2051","source":"U.S. Census Bureau TIGER/Line areal hydrography via TIGERweb Hydro MapServer layer 1","fetched":"2026-09-06","simplify_tolerance_deg":0.001},"geometry":{"type":"Polygon","coordinates":[[[-121.751335,37.834481],[-121.747323,37.835331],[-121.747297,37.832793],[-121.742947,37.830968],[-121.742409,37.833068],[-121.739897,37.833206],[-121.74061,37.825943],[-121.747222,37.827868],[-121.74631,37.829468],[-121.74981,37.830631],[-121.749022,37.831618],[-121.751335,37.834481]]]}},{"type":"Feature","properties":{"NAME":"Petaluma Riv","MTFCC":"H2051","source":"U.S. Census Bureau TIGER/Line areal hydrography via TIGERweb Hydro MapServer layer 1","fetched":"2026-09-06","simplify_tolerance_deg":0.001},"geometry":{"type":"Polygon","coordinates":[[[-122.50654,38.114875],[-122.49996,38.111545],[-122.483997,38.107784],[-122.482661,38.099174],[-122.487832,38.099881],[-122.487577,38.104259],[-122.487912,38.105814],[-122.489137,38.107154],[-122.493478,38.109833],[-122.487954,38.105644],[-122.489417,38.099962],[-122.489011,38.10555],[-122.494319,38.110124],[-122.502228,38.111893],[-122.50654,38.114875]]]}},{"type":"Feature","properties":{"NAME":"Raccoon","MTFCC":"H2051","source":"U.S. Census Bureau TIGER/Line areal hydrography via TIGERweb Hydro MapServer layer 1","fetched":"2026-09-06","simplify_tolerance_deg":0.001},"geometry":{"type":"Polygon","coordinates":[[[-122.456891,37.871524],[-122.446671,37.870747],[-122.444117,37.870553],[-122.451613,37.868091],[-122.456891,37.871524]]]}},{"type":"Feature","properties":{"NAME":"Richardson Bay","MTFCC":"H2051","source":"U.S. Census Bureau TIGER/Line areal hydrography via TIGERweb Hydro MapServer layer 1","fetched":"2026-09-06","simplify_tolerance_deg":0.001},"geometry":{"type":"Polygon","coordinates":[[[-122.524705,37.896036],[-122.520112,37.889821],[-122.517961,37.892661],[-122.518289,37.889447],[-122.519772,37.889233],[-122.517126,37.886205],[-122.514985,37.886057],[-122.512216,37.888889],[-122.510407,37.888108],[-122.509007,37.886536],[-122.511547,37.88395],[-122.50465,37.883106],[-122.50406,37.880673],[-122.498091,37.877519],[-122.495908,37.878162],[-122.496492,37.880563],[-122.498902,37.886122],[-122.499921,37.885962],[-122.499161,37.88261],[-122.501445,37.884928],[-122.50083,37.887264],[-122.503721,37.890632],[-122.503077,37.898401],[-122.502199,37.89623],[-122.502121,37.897807],[-122.499691,37.897254],[-122.499297,37.895291],[-122.501122,37.896809],[-122.49895,37.89377],[-122.488635,37.895368],[-122.483279,37.89031],[-122.473724,37.885308],[-122.47133,37.880913],[-122.474212,37.877479],[-122.473828,37.874855],[-122.468987,37.868725],[-122.458938,37.86229],[-122.47283,37.831892],[-122.471628,37.836638],[-122.476598,37.842273],[-122.477438,37.84635],[-122.479936,37.847957],[-122.477971,37.858822],[-122.484028,37.859391],[-122.489567,37.862372],[-122.488459,37.863735],[-122.493109,37.86337],[-122.492016,37.864981],[-122.493789,37.863898],[-122.493111,37.865458],[-122.494531,37.864496],[-122.497403,37.867813],[-122.496283,37.871055],[-122.498222,37.869978],[-122.497558,37.871863],[-122.499803,37.870741],[-122.504563,37.87232],[-122.504141,37.873815],[-122.50515,37.875174],[-122.503303,37.87643],[-122.506026,37.875833],[-122.504705,37.874059],[-122.506548,37.873835],[-122.512447,37.877897],[-122.514862,37.881968],[-122.522159,37.885432],[-122.520557,37.886343],[-122.523142,37.888987],[-122.524705,37.896036]]]}},{"type":"Feature","properties":{"NAME":"San Francisco Bay","MTFCC":"H2051","source":"U.S. Census Bureau TIGER/Line areal hydrography via TIGERweb Hydro MapServer layer 1","fetched":"2026-09-06","simplify_tolerance_deg":0.001},"geometry":{"type":"Polygon","coordinates":[[[-122.373782,37.883725],[-122.312981,37.897325],[-122.310122,37.894736],[-122.30979,37.888808],[-122.314677,37.892434],[-122.319835,37.889934],[-122.322684,37.889972],[-122.323946,37.892395],[-122.325818,37.892488],[-122.32579,37.89078],[-122.327593,37.891444],[-122.327551,37.888675],[-122.324895,37.887906],[-122.32224,37.889379],[-122.316833,37.888918],[-122.315876,37.886572],[-122.317041,37.885489],[-122.309993,37.878057],[-122.308659,37.870303],[-122.313157,37.869534],[-122.318503,37.875885],[-122.324635,37.874616],[-122.318459,37.867018],[-122.315112,37.869018],[-122.311626,37.865205],[-122.316172,37.864068],[-122.318043,37.866199],[-122.317731,37.862881],[-122.3271,37.859568],[-122.317676,37.86281],[-122.315694,37.859041],[-122.315334,37.862447],[-122.306574,37.865683],[-122.306013,37.859557],[-122.306172,37.862881],[-122.304502,37.863106],[-122.300526,37.853057],[-122.300472,37.846469],[-122.3028,37.845519],[-122.299128,37.84581],[-122.298125,37.840414],[-122.306992,37.839712],[-122.308392,37.837388],[-122.312529,37.837347],[-122.314493,37.83875],[-122.31329,37.842076],[-122.314372,37.842517],[-122.315294,37.837267],[-122.298749,37.837101],[-122.296831,37.833942],[-122.29515,37.833756],[-122.296512,37.832914],[-122.295038,37.829217],[-122.297725,37.830096],[-122.298557,37.827926],[-122.305048,37.826163],[-122.315964,37.827872],[-122.317633,37.824889],[-122.321532,37.82307],[-122.329982,37.821603],[-122.330612,37.820399],[-122.32113,37.820972],[-122.318817,37.818714],[-122.315389,37.821823],[-122.308373,37.821065],[-122.308664,37.818812],[-122.313311,37.819241],[-122.322979,37.810142],[-122.333062,37.811031],[-122.342665,37.80581],[-122.341355,37.80369],[-122.333074,37.805043],[-122.330028,37.807104],[-122.324938,37.806719],[-122.326496,37.805401],[-122.324618,37.802242],[-122.325152,37.800211],[-122.329687,37.800719],[-122.330345,37.799346],[-122.313212,37.795303],[-122.315064,37.794579],[-122.312606,37.794048],[-122.31282,37.792919],[-122.331694,37.79695],[-122.331536,37.786942],[-122.340281,37.800628],[-122.346881,37.811427],[-122.367781,37.866726],[-122.373782,37.883725]]]}},{"type":"Feature","properties":{"NAME":"San Francisco Bay","MTFCC":"H2051","source":"U.S. Census Bureau TIGER/Line areal hydrography via TIGERweb Hydro MapServer layer 1","fetched":"2026-09-06","simplify_tolerance_deg":0.001},"geometry":{"type":"Polygon","coordinates":[[[-122.327917,37.781202],[-122.318067,37.779562],[-122.315554,37.776507],[-122.308895,37.776123],[-122.308487,37.780584],[-122.29826,37.779995],[-122.298533,37.776418],[-122.302112,37.775672],[-122.299641,37.77544],[-122.301199,37.774221],[-122.305525,37.774353],[-122.301178,37.773902],[-122.300825,37.772507],[-122.305006,37.772101],[-122.299531,37.77204],[-122.2918,37.769835],[-122.291373,37.768336],[-122.289322,37.769851],[-122.288693,37.768395],[-122.286948,37.769944],[-122.284056,37.769256],[-122.281605,37.771107],[-122.281606,37.768311],[-122.279855,37.768058],[-122.280714,37.766294],[-122.276339,37.768133],[-122.270585,37.761209],[-122.250539,37.753619],[-122.236455,37.750197],[-122.236479,37.747188],[-122.252532,37.747895],[-122.260879,37.743389],[-122.261096,37.740147],[-122.247715,37.727959],[-122.251531,37.725257],[-122.249841,37.722783],[-122.216728,37.699691],[-122.213664,37.699269],[-122.211128,37.701753],[-122.211738,37.708851],[-122.209947,37.711066],[-122.196808,37.714457],[-122.19526,37.714453],[-122.203405,37.711891],[-122.201586,37.710759],[-122.201371,37.705556],[-122.197325,37.703199],[-122.191205,37.704266],[-122.192969,37.708419],[-122.192796,37.709095],[-122.189808,37.700793],[-122.194172,37.698585],[-122.194178,37.695513],[-122.192989,37.694909],[-122.19348,37.697865],[-122.189414,37.698343],[-122.189069,37.69664],[-122.192229,37.695464],[-122.186925,37.695838],[-122.187838,37.694376],[-122.185577,37.69136],[-122.188211,37.691481],[-122.189573,37.694744],[-122.191579,37.693926],[-122.18761,37.690234],[-122.183662,37.690536],[-122.178091,37.682398],[-122.168918,37.677436],[-122.166597,37.672853],[-122.164966,37.67304],[-122.162098,37.669105],[-122.155348,37.646852],[-122.154933,37.648341],[-122.15463,37.645808],[-122.15678,37.644633],[-122.155121,37.644852],[-122.153312,37.641962],[-122.153719,37.629188],[-122.151384,37.629594],[-122.15048,37.62666],[-122.150703,37.619097],[-122.155982,37.616659],[-122.149973,37.616629],[-122.146698,37.606733],[-122.147382,37.605146],[-122.145077,37.602167],[-122.147765,37.590968],[-122.145895,37.582639],[-122.142759,37.581367],[-122.144039,37.57425],[-122.133198,37.562675],[-122.1302,37.562218],[-122.129314,37.556954],[-122.118419,37.546216],[-122.11105,37.525011],[-122.110658,37.50571],[-122.105707,37.499118],[-122.096342,37.499533],[-122.087084,37.503064],[-122.086644,37.507012],[-122.084384,37.506765],[-122.082994,37.501752],[-122.060166,37.497592],[-122.052009,37.492849],[-122.038309,37.493697],[-122.034403,37.491234],[-122.031338,37.481389],[-122.027724,37.477927],[-122.025734,37.478341],[-122.024272,37.482738],[-122.021633,37.483595],[-122.023556,37.482096],[-122.025078,37.476822],[-122.028178,37.477325],[-122.033176,37.48283],[-122.035272,37.489933],[-122.039572,37.491837],[-122.055512,37.490289],[-122.052253,37.478136],[-122.053563,37.473004],[-122.050325,37.466356],[-122.036606,37.469507],[-122.016169,37.467797],[-122.001617,37.468922],[-122.000651,37.47066],[-122.006273,37.473243],[-122.006721,37.473957],[-122.006795,37.475435],[-122.006008,37.477039],[-122.003642,37.478582],[-122.001718,37.479103],[-121.998266,37.47899],[-121.997142,37.478787],[-122.004256,37.478099],[-122.006091,37.47643],[-122.006238,37.473567],[-121.98773,37.465874],[-121.979709,37.470717],[-121.974339,37.470681],[-121.974069,37.468593],[-121.978247,37.469817],[-121.984462,37.465403],[-121.98857,37.464737],[-121.985253,37.462623],[-121.974706,37.46074],[-121.980014,37.460892],[-121.992669,37.464639],[-121.996671,37.467239],[-122.036182,37.464966],[-122.047825,37.459007],[-122.051244,37.459007],[-122.109574,37.497637],[-122.28178,37.70823],[-122.327917,37.781202]],[[-122.288874,37.765604],[-122.28704,37.764714],[-122.28257,37.76385],[-122.287406,37.76634],[-122.28661,37.767939],[-122.284382,37.767306],[-122.285973,37.769587],[-122.288874,37.765604]],[[-122.084527,37.49947],[-122.080782,37.500523],[-122.083341,37.50149],[-122.084483,37.503923],[-122.086583,37.501723],[-122.084527,37.49947]]]}},{"type":"Feature","properties":{"NAME":"San Francisco Bay","MTFCC":"H2051","source":"U.S. Census Bureau TIGER/Line areal hydrography via TIGERweb Hydro MapServer layer 1","fetched":"2026-09-06","simplify_tolerance_deg":0.001},"geometry":{"type":"Polygon","coordinates":[[[-122.115331,37.466167],[-122.113265,37.46753],[-122.111548,37.466292],[-122.096574,37.466138],[-122.096762,37.461905],[-122.081473,37.477838],[-122.051244,37.459007],[-122.047825,37.459007],[-122.036182,37.464966],[-121.996671,37.467239],[-121.992975,37.464923],[-121.994988,37.464701],[-121.975885,37.459549],[-121.995457,37.46413],[-122.024066,37.460806],[-122.027297,37.461757],[-122.033522,37.460358],[-122.039472,37.455327],[-122.038212,37.451442],[-122.048275,37.447565],[-122.049487,37.449356],[-122.059852,37.445577],[-122.064145,37.445632],[-122.068397,37.450703],[-122.073683,37.448796],[-122.077198,37.450049],[-122.078052,37.448225],[-122.080231,37.451966],[-122.084469,37.450625],[-122.091065,37.453003],[-122.089817,37.450838],[-122.088932,37.44436],[-122.091595,37.452415],[-122.101456,37.456317],[-122.104121,37.454967],[-122.103317,37.454217],[-122.103814,37.453644],[-122.104479,37.454964],[-122.106923,37.454747],[-122.107409,37.451694],[-122.104659,37.451539],[-122.107694,37.451248],[-122.108787,37.455384],[-122.106428,37.45879],[-122.104734,37.458438],[-122.105705,37.456048],[-122.102803,37.456631],[-122.101021,37.462758],[-122.105907,37.461234],[-122.111836,37.463633],[-122.111062,37.459342],[-122.115331,37.466167]],[[-122.100171,37.456632],[-122.097778,37.454902],[-122.093464,37.454299],[-122.096422,37.458452],[-122.100171,37.456632]]]}},{"type":"Feature","properties":{"NAME":"San Francisco Bay","MTFCC":"H2051","source":"U.S. Census Bureau TIGER/Line areal hydrography via TIGERweb Hydro MapServer layer 1","fetched":"2026-09-06","simplify_tolerance_deg":0.001},"geometry":{"type":"Polygon","coordinates":[[[-122.529708,37.815147],[-122.527739,37.81514],[-122.528852,37.820108],[-122.525531,37.821119],[-122.52286,37.824929],[-122.511288,37.824703],[-122.499096,37.819883],[-122.49962,37.821884],[-122.49584,37.822137],[-122.491225,37.826603],[-122.484559,37.826881],[-122.479208,37.825427],[-122.477896,37.808449],[-122.483593,37.794035],[-122.487121,37.789611],[-122.496546,37.787287],[-122.499578,37.788704],[-122.506052,37.788192],[-122.512681,37.78412],[-122.514666,37.781204],[-122.529708,37.815147]]]}},{"type":"Feature","properties":{"NAME":"San Francisco Bay","MTFCC":"H2051","source":"U.S. Census Bureau TIGER/Line areal hydrography via TIGERweb Hydro MapServer layer 1","fetched":"2026-09-06","simplify_tolerance_deg":0.001},"geometry":{"type":"Polygon","coordinates":[[[-122.39684,37.641332],[-122.391696,37.644525],[-122.39427,37.64412],[-122.39243,37.644869],[-122.393469,37.645519],[-122.39163,37.648111],[-122.380228,37.648161],[-122.377564,37.652204],[-122.377859,37.6545],[-122.375474,37.654995],[-122.379942,37.660589],[-122.374746,37.661204],[-122.374315,37.664064],[-122.38121,37.664562],[-122.381511,37.66826],[-122.385846,37.667735],[-122.385716,37.665185],[-122.387133,37.664538],[-122.390029,37.665978],[-122.395254,37.665079],[-122.392758,37.666551],[-122.392826,37.668293],[-122.387925,37.668834],[-122.387308,37.671774],[-122.381045,37.671875],[-122.381069,37.677331],[-122.38787,37.678625],[-122.392964,37.701555],[-122.392388,37.705818],[-122.394116,37.707017],[-122.393186,37.708363],[-122.28178,37.70823],[-122.109574,37.497637],[-122.081473,37.477838],[-122.096762,37.461905],[-122.096574,37.466138],[-122.111548,37.466292],[-122.113265,37.46753],[-122.116119,37.465912],[-122.123396,37.473227],[-122.121062,37.476486],[-122.124344,37.47619],[-122.123973,37.485599],[-122.125669,37.487703],[-122.127201,37.496779],[-122.129062,37.498142],[-122.12802,37.499351],[-122.131797,37.504881],[-122.136788,37.507866],[-122.139815,37.507851],[-122.148473,37.504585],[-122.148439,37.502382],[-122.152591,37.50274],[-122.153558,37.500109],[-122.153288,37.502587],[-122.159627,37.501181],[-122.173452,37.507195],[-122.178512,37.511768],[-122.181978,37.520513],[-122.183832,37.520822],[-122.18429,37.517539],[-122.187213,37.517507],[-122.196656,37.523559],[-122.194435,37.534239],[-122.200348,37.540024],[-122.205075,37.54076],[-122.206641,37.539584],[-122.209871,37.541693],[-122.217108,37.539279],[-122.21644,37.542126],[-122.223914,37.542886],[-122.225753,37.54541],[-122.224797,37.547347],[-122.227603,37.549963],[-122.226525,37.549672],[-122.232834,37.553126],[-122.244071,37.553596],[-122.249364,37.549193],[-122.250651,37.550299],[-122.24634,37.553521],[-122.245156,37.556895],[-122.248502,37.564108],[-122.261861,37.573583],[-122.273336,37.570225],[-122.278831,37.571397],[-122.279527,37.573821],[-122.28462,37.575822],[-122.291718,37.573417],[-122.292064,37.571928],[-122.293775,37.572137],[-122.292684,37.570403],[-122.294323,37.570578],[-122.296958,37.571693],[-122.297026,37.575544],[-122.303564,37.575864],[-122.306408,37.574342],[-122.305013,37.575469],[-122.316563,37.584601],[-122.314057,37.585936],[-122.313767,37.586485],[-122.315313,37.585733],[-122.314271,37.589919],[-122.313774,37.587727],[-122.314554,37.592397],[-122.321045,37.592051],[-122.333901,37.58777],[-122.334378,37.592165],[-122.33801,37.592208],[-122.338012,37.590955],[-122.338314,37.592269],[-122.360534,37.59212],[-122.363908,37.598404],[-122.365717,37.597381],[-122.368565,37.601847],[-122.378444,37.605965],[-122.371454,37.614895],[-122.358859,37.609433],[-122.355015,37.615061],[-122.368109,37.62105],[-122.365387,37.628237],[-122.367321,37.629033],[-122.368571,37.627285],[-122.377535,37.629611],[-122.379001,37.635403],[-122.382407,37.636157],[-122.383903,37.640064],[-122.391214,37.639145],[-122.389776,37.640413],[-122.390478,37.645183],[-122.393423,37.641926],[-122.391663,37.639095],[-122.396762,37.638954],[-122.394931,37.639276],[-122.396596,37.639782],[-122.395356,37.641523],[-122.39684,37.641332]]]}},{"type":"Feature","properties":{"NAME":"San Francisco Bay","MTFCC":"H2051","source":"U.S. Census Bureau TIGER/Line areal hydrography via TIGERweb Hydro MapServer layer 1","fetched":"2026-09-06","simplify_tolerance_deg":0.001},"geometry":{"type":"Polygon","coordinates":[[[-122.421106,37.858963],[-122.419907,37.860579],[-122.418794,37.853496],[-122.419887,37.854463],[-122.421106,37.858963]]]}},{"type":"Feature","properties":{"NAME":"San Francisco Bay","MTFCC":"H2051","source":"U.S. Census Bureau TIGER/Line areal hydrography via TIGERweb Hydro MapServer layer 1","fetched":"2026-09-06","simplify_tolerance_deg":0.001},"geometry":{"type":"Polygon","coordinates":[[[-122.488614,37.937215],[-122.484295,37.940944],[-122.477546,37.942259],[-122.476956,37.945138],[-122.473018,37.945748],[-122.476915,37.945346],[-122.476442,37.960166],[-122.474115,37.966528],[-122.456743,37.980127],[-122.441484,37.966501],[-122.440984,37.957423],[-122.432283,37.929824],[-122.422162,37.874436],[-122.444117,37.870553],[-122.456891,37.871524],[-122.456652,37.872979],[-122.450038,37.87223],[-122.44891,37.874606],[-122.443678,37.876082],[-122.444455,37.878687],[-122.443214,37.880176],[-122.439145,37.880121],[-122.438237,37.88228],[-122.444303,37.886434],[-122.448838,37.894076],[-122.458295,37.894201],[-122.462178,37.897491],[-122.466443,37.898139],[-122.469322,37.901995],[-122.476313,37.904982],[-122.476743,37.909034],[-122.472687,37.908304],[-122.475472,37.908855],[-122.477238,37.912532],[-122.475133,37.909607],[-122.474929,37.91213],[-122.47275,37.909186],[-122.474591,37.915581],[-122.475305,37.913817],[-122.476706,37.914932],[-122.476324,37.91336],[-122.477829,37.91458],[-122.477371,37.912811],[-122.478669,37.915519],[-122.474689,37.916207],[-122.474911,37.917405],[-122.479197,37.916288],[-122.486605,37.920817],[-122.488614,37.937215]],[[-122.473582,37.966572],[-122.471434,37.965229],[-122.471304,37.965344],[-122.473582,37.966572]],[[-122.470486,37.96504],[-122.468535,37.963683],[-122.465885,37.964706],[-122.466878,37.965409],[-122.470486,37.96504]]]}},{"type":"Feature","properties":{"NAME":"San Francisco Bay","MTFCC":"H2051","source":"U.S. Census Bureau TIGER/Line areal hydrography via TIGERweb Hydro MapServer layer 1","fetched":"2026-09-06","simplify_tolerance_deg":0.001},"geometry":{"type":"Polygon","coordinates":[[[-122.440984,37.957423],[-122.441484,37.968023],[-122.40275,37.968212],[-122.400272,37.963626],[-122.395188,37.960153],[-122.394292,37.957882],[-122.398913,37.958284],[-122.395583,37.956476],[-122.395432,37.954745],[-122.401108,37.953044],[-122.409509,37.957606],[-122.409716,37.960348],[-122.411679,37.962804],[-122.409994,37.960376],[-122.410127,37.958035],[-122.412776,37.962931],[-122.416705,37.963304],[-122.417446,37.964921],[-122.417148,37.962784],[-122.418897,37.962322],[-122.418139,37.965064],[-122.420631,37.963191],[-122.427737,37.965713],[-122.429535,37.964637],[-122.424082,37.956263],[-122.418629,37.952724],[-122.422113,37.94661],[-122.41494,37.945729],[-122.41109,37.942394],[-122.410446,37.939707],[-122.411904,37.937587],[-122.413326,37.938257],[-122.41343,37.936268],[-122.409783,37.931751],[-122.401439,37.931447],[-122.399955,37.930375],[-122.400795,37.927826],[-122.399934,37.929359],[-122.39691,37.929434],[-122.390885,37.924971],[-122.391081,37.922581],[-122.386865,37.921041],[-122.388654,37.911762],[-122.390792,37.909378],[-122.384371,37.908568],[-122.381565,37.911452],[-122.382532,37.909166],[-122.381747,37.908226],[-122.380066,37.909171],[-122.380523,37.909842],[-122.380171,37.91131],[-122.376958,37.908977],[-122.380241,37.907225],[-122.376828,37.907763],[-122.37635,37.909388],[-122.368282,37.904516],[-122.367208,37.90667],[-122.36377,37.905016],[-122.365665,37.917289],[-122.376952,37.923563],[-122.3729,37.92471],[-122.36824,37.920628],[-122.366558,37.924645],[-122.367033,37.919662],[-122.363592,37.918317],[-122.362525,37.920598],[-122.360417,37.909451],[-122.354391,37.90947],[-122.354352,37.914074],[-122.350741,37.915013],[-122.345931,37.912728],[-122.345931,37.909573],[-122.351707,37.909119],[-122.351727,37.907773],[-122.339918,37.908891],[-122.334903,37.907646],[-122.338235,37.913106],[-122.334358,37.911211],[-122.336278,37.910364],[-122.325923,37.908068],[-122.322536,37.905868],[-122.325186,37.901574],[-122.319803,37.903999],[-122.325185,37.901093],[-122.324935,37.896931],[-122.32266,37.895368],[-122.315715,37.898907],[-122.312842,37.897348],[-122.373782,37.883725],[-122.432283,37.929824],[-122.440984,37.957423]],[[-122.373447,37.90141],[-122.370901,37.899755],[-122.370003,37.900997],[-122.361484,37.899666],[-122.358084,37.897804],[-122.357384,37.895179],[-122.351121,37.894141],[-122.357784,37.901104],[-122.358559,37.899704],[-122.373447,37.90141]],[[-122.359472,37.895923],[-122.35917,37.895619],[-122.359019,37.895799],[-122.359472,37.895923]]]}},{"type":"Feature","properties":{"NAME":"San Francisco Bay","MTFCC":"H2051","source":"U.S. Census Bureau TIGER/Line areal hydrography via TIGERweb Hydro MapServer layer 1","fetched":"2026-09-06","simplify_tolerance_deg":0.001},"geometry":{"type":"Polygon","coordinates":[[[-122.47752,37.810988],[-122.478442,37.830912],[-122.47703,37.831149],[-122.477808,37.833224],[-122.474489,37.833637],[-122.47283,37.831892],[-122.418673,37.852505],[-122.419907,37.860579],[-122.418736,37.861959],[-122.420342,37.863203],[-122.432283,37.929824],[-122.373782,37.883725],[-122.346881,37.811427],[-122.331536,37.786942],[-122.332263,37.782082],[-122.327917,37.781202],[-122.28178,37.70823],[-122.393186,37.708363],[-122.385984,37.709998],[-122.3794,37.70842],[-122.374375,37.70871],[-122.376022,37.709691],[-122.377942,37.708608],[-122.380096,37.710743],[-122.376165,37.716154],[-122.383197,37.72009],[-122.382877,37.721937],[-122.386899,37.724289],[-122.380746,37.721759],[-122.377081,37.724241],[-122.374002,37.71891],[-122.365381,37.715969],[-122.362479,37.718198],[-122.363657,37.719055],[-122.362714,37.720071],[-122.359986,37.718478],[-122.359131,37.719326],[-122.36381,37.722102],[-122.359976,37.721629],[-122.365295,37.725596],[-122.361524,37.723775],[-122.357838,37.724624],[-122.361641,37.725219],[-122.358014,37.726039],[-122.356967,37.72871],[-122.362182,37.72848],[-122.35879,37.729783],[-122.369205,37.731993],[-122.371932,37.734107],[-122.375617,37.732755],[-122.374883,37.737295],[-122.376352,37.738372],[-122.372923,37.737043],[-122.367394,37.738224],[-122.373547,37.738741],[-122.367631,37.740134],[-122.376583,37.747745],[-122.390481,37.74703],[-122.392781,37.74763],[-122.375771,37.748707],[-122.376087,37.752249],[-122.37996,37.75203],[-122.380111,37.754533],[-122.384077,37.754659],[-122.380725,37.755335],[-122.381206,37.759848],[-122.383307,37.762082],[-122.381029,37.762224],[-122.380984,37.764799],[-122.381748,37.762405],[-122.383109,37.762321],[-122.383582,37.764254],[-122.384292,37.762135],[-122.387272,37.763605],[-122.385569,37.77018],[-122.383155,37.769709],[-122.385724,37.770592],[-122.385554,37.772154],[-122.38584,37.770683],[-122.38676,37.773273],[-122.381456,37.771917],[-122.381814,37.774615],[-122.386923,37.774328],[-122.384986,37.776308],[-122.387678,37.776716],[-122.387629,37.781451],[-122.385492,37.781594],[-122.387788,37.782275],[-122.384681,37.782544],[-122.387841,37.782903],[-122.387565,37.785458],[-122.384342,37.785735],[-122.384515,37.787387],[-122.387407,37.787241],[-122.385138,37.788118],[-122.387188,37.788774],[-122.385287,37.789764],[-122.388149,37.789655],[-122.391982,37.793872],[-122.39159,37.796205],[-122.394355,37.796209],[-122.39292,37.797971],[-122.395493,37.79747],[-122.393808,37.798937],[-122.396716,37.798795],[-122.397642,37.799842],[-122.39544,37.80116],[-122.397989,37.80023],[-122.396143,37.801955],[-122.397107,37.803024],[-122.399724,37.802176],[-122.397515,37.803469],[-122.399972,37.803225],[-122.398511,37.804597],[-122.400964,37.803564],[-122.400399,37.807262],[-122.402804,37.806023],[-122.402352,37.807836],[-122.403956,37.806579],[-122.404375,37.808871],[-122.405322,37.806867],[-122.406126,37.810037],[-122.407432,37.807904],[-122.410439,37.811413],[-122.410478,37.808768],[-122.420353,37.81151],[-122.41615,37.808503],[-122.420462,37.808303],[-122.420361,37.809004],[-122.422844,37.810256],[-122.421061,37.808563],[-122.424077,37.806611],[-122.426421,37.807832],[-122.426289,37.809905],[-122.424305,37.810507],[-122.42538,37.810719],[-122.426625,37.80974],[-122.426839,37.808113],[-122.429835,37.807825],[-122.430622,37.809167],[-122.430916,37.80732],[-122.431728,37.809024],[-122.432,37.807178],[-122.432342,37.808516],[-122.432608,37.808505],[-122.432165,37.8061],[-122.43355,37.805588],[-122.435791,37.80757],[-122.447304,37.805316],[-122.447501,37.806403],[-122.440411,37.80815],[-122.440032,37.808833],[-122.462948,37.805106],[-122.475541,37.809387],[-122.47752,37.810988]],[[-122.424382,37.826727],[-122.420482,37.825627],[-122.425382,37.828427],[-122.424382,37.826727]],[[-122.379131,37.826842],[-122.371409,37.815179],[-122.372816,37.811083],[-122.371475,37.809442],[-122.362459,37.807056],[-122.361,37.808108],[-122.361096,37.812432],[-122.359181,37.815027],[-122.367319,37.812335],[-122.371031,37.815974],[-122.36478,37.818419],[-122.363633,37.820546],[-122.360542,37.820133],[-122.363551,37.820881],[-122.362883,37.822665],[-122.36862,37.831156],[-122.373348,37.832319],[-122.377617,37.830498],[-122.379131,37.826842]]]}},{"type":"Feature","properties":{"NAME":"San Leandro Bay","MTFCC":"H2051","source":"U.S. Census Bureau TIGER/Line areal hydrography via TIGERweb Hydro MapServer layer 1","fetched":"2026-09-06","simplify_tolerance_deg":0.001},"geometry":{"type":"Polygon","coordinates":[[[-122.236444,37.748242],[-122.235065,37.750758],[-122.233154,37.749973],[-122.225344,37.755832],[-122.223779,37.754428],[-122.218112,37.759656],[-122.214056,37.761951],[-122.212802,37.761637],[-122.211467,37.759361],[-122.214178,37.757028],[-122.213139,37.760813],[-122.217797,37.759681],[-122.215962,37.75733],[-122.216924,37.756571],[-122.212508,37.754688],[-122.210988,37.75143],[-122.20803,37.752885],[-122.21247,37.749365],[-122.207466,37.743531],[-122.210738,37.742179],[-122.217597,37.748089],[-122.21455,37.742634],[-122.210979,37.740058],[-122.211131,37.737284],[-122.207774,37.731433],[-122.208555,37.730482],[-122.210527,37.731674],[-122.214771,37.740557],[-122.221111,37.745737],[-122.223387,37.745566],[-122.223519,37.747681],[-122.236444,37.748242]]]}},{"type":"Feature","properties":{"NAME":"San Pablo Bay","MTFCC":"H2051","source":"U.S. Census Bureau TIGER/Line areal hydrography via TIGERweb Hydro MapServer layer 1","fetched":"2026-09-06","simplify_tolerance_deg":0.001},"geometry":{"type":"Polygon","coordinates":[[[-122.441584,37.973923],[-122.392783,38.027021],[-122.37598,38.048466],[-122.347454,38.07326],[-122.269578,38.060404],[-122.268367,38.049624],[-122.262371,38.050158],[-122.262835,38.042582],[-122.26459,38.042201],[-122.264448,38.040314],[-122.269791,38.038404],[-122.270423,38.038569],[-122.270262,38.03997],[-122.27063,38.04091],[-122.271019,38.040998],[-122.272124,38.040498],[-122.272555,38.039856],[-122.270811,38.040789],[-122.27102,38.03891],[-122.27307,38.038686],[-122.272951,38.039977],[-122.274327,38.038999],[-122.273397,38.037483],[-122.275092,38.036604],[-122.276652,38.029221],[-122.279681,38.026574],[-122.281639,38.027832],[-122.282549,38.027569],[-122.279744,38.026464],[-122.282044,38.022696],[-122.28667,38.021021],[-122.28992,38.022566],[-122.289588,38.019478],[-122.296436,38.014749],[-122.299466,38.010238],[-122.309253,38.009919],[-122.316353,38.011959],[-122.324442,38.005113],[-122.332953,38.00125],[-122.342612,38.003209],[-122.353652,38.008278],[-122.361577,38.008572],[-122.364226,38.012525],[-122.366684,38.012151],[-122.368187,38.006722],[-122.365449,37.99698],[-122.360768,37.994466],[-122.359975,37.990686],[-122.36116,37.987741],[-122.363116,37.985169],[-122.365185,37.986382],[-122.363108,37.984307],[-122.36575,37.980471],[-122.368208,37.980887],[-122.367172,37.978701],[-122.372316,37.979017],[-122.370045,37.978165],[-122.371723,37.975001],[-122.38271,37.976216],[-122.384871,37.973701],[-122.384532,37.971541],[-122.397305,37.967904],[-122.393915,37.960771],[-122.399,37.963872],[-122.393319,37.960337],[-122.392841,37.958551],[-122.393956,37.958085],[-122.400272,37.963626],[-122.40275,37.968212],[-122.441484,37.968023],[-122.441584,37.973923]]]}},{"type":"Feature","properties":{"NAME":"San Pablo Bay","MTFCC":"H2051","source":"U.S. Census Bureau TIGER/Line areal hydrography via TIGERweb Hydro MapServer layer 1","fetched":"2026-09-06","simplify_tolerance_deg":0.001},"geometry":{"type":"Polygon","coordinates":[[[-122.406786,38.155632],[-122.403592,38.152939],[-122.376088,38.144741],[-122.32693,38.124919],[-122.334189,38.12492],[-122.316913,38.117025],[-122.304571,38.108487],[-122.296959,38.102092],[-122.279962,38.080898],[-122.271208,38.075401],[-122.268451,38.070818],[-122.268759,38.067588],[-122.270979,38.067529],[-122.267978,38.060221],[-122.347454,38.07326],[-122.387796,38.124919],[-122.391142,38.132646],[-122.406786,38.155632]]]}},{"type":"Feature","properties":{"NAME":"San Pablo Bay","MTFCC":"H2051","source":"U.S. Census Bureau TIGER/Line areal hydrography via TIGERweb Hydro MapServer layer 1","fetched":"2026-09-06","simplify_tolerance_deg":0.001},"geometry":{"type":"Polygon","coordinates":[[[-122.500372,38.015821],[-122.497437,38.019268],[-122.498467,38.030761],[-122.497111,38.036684],[-122.493867,38.045767],[-122.491409,38.048488],[-122.492612,38.050103],[-122.491908,38.055828],[-122.484387,38.072818],[-122.485407,38.091756],[-122.487842,38.095073],[-122.487164,38.099271],[-122.482661,38.099174],[-122.483997,38.107784],[-122.451987,38.098519],[-122.347454,38.07326],[-122.37598,38.048466],[-122.392783,38.027021],[-122.438396,37.977428],[-122.445325,37.982787],[-122.450761,37.992514],[-122.459725,37.998891],[-122.462075,38.003331],[-122.468747,38.003455],[-122.47372,38.006454],[-122.479074,38.007078],[-122.487696,38.013849],[-122.500372,38.015821]]]}},{"type":"Feature","properties":{"NAME":"San Pablo Bay","MTFCC":"H2051","source":"U.S. Census Bureau TIGER/Line areal hydrography via TIGERweb Hydro MapServer layer 1","fetched":"2026-09-06","simplify_tolerance_deg":0.001},"geometry":{"type":"Polygon","coordinates":[[[-122.493102,38.110804],[-122.479956,38.115382],[-122.459895,38.11781],[-122.453539,38.12019],[-122.451417,38.11902],[-122.451236,38.116531],[-122.44383,38.116037],[-122.439463,38.117938],[-122.410743,38.136618],[-122.404547,38.147445],[-122.407912,38.154165],[-122.40822,38.155798],[-122.40681,38.155704],[-122.391142,38.132646],[-122.387796,38.124919],[-122.347454,38.07326],[-122.451987,38.098519],[-122.493102,38.110804]]]}},{"type":"Feature","properties":{"NAME":"San Pablo Strait","MTFCC":"H2051","source":"U.S. Census Bureau TIGER/Line areal hydrography via TIGERweb Hydro MapServer layer 1","fetched":"2026-09-06","simplify_tolerance_deg":0.001},"geometry":{"type":"Polygon","coordinates":[[[-122.456055,37.979992],[-122.447424,37.985343],[-122.438396,37.977428],[-122.441584,37.973923],[-122.441484,37.966501],[-122.451475,37.974241],[-122.456055,37.979992]]]}},{"type":"Feature","properties":{"NAME":"San Rafael Bay","MTFCC":"H2051","source":"U.S. Census Bureau TIGER/Line areal hydrography via TIGERweb Hydro MapServer layer 1","fetched":"2026-09-06","simplify_tolerance_deg":0.001},"geometry":{"type":"Polygon","coordinates":[[[-122.479725,37.943714],[-122.476956,37.945138],[-122.477487,37.942686],[-122.479725,37.943714]]]}},{"type":"Feature","properties":{"NAME":"San Rafael Bay","MTFCC":"H2051","source":"U.S. Census Bureau TIGER/Line areal hydrography via TIGERweb Hydro MapServer layer 1","fetched":"2026-09-06","simplify_tolerance_deg":0.001},"geometry":{"type":"Polygon","coordinates":[[[-122.495236,37.96791],[-122.494629,37.970678],[-122.48482,37.970392],[-122.485966,37.972238],[-122.484085,37.971711],[-122.481331,37.973525],[-122.480567,37.971998],[-122.480276,37.973674],[-122.477242,37.971713],[-122.483481,37.971326],[-122.47695,37.971318],[-122.47693,37.972971],[-122.481519,37.975025],[-122.477361,37.973944],[-122.474953,37.975043],[-122.475711,37.976472],[-122.473617,37.981351],[-122.467753,37.984627],[-122.465587,37.984501],[-122.463191,37.981551],[-122.456743,37.980127],[-122.474115,37.966528],[-122.476442,37.960166],[-122.476915,37.945346],[-122.4804,37.944544],[-122.486359,37.946525],[-122.491039,37.960401],[-122.489924,37.964495],[-122.495236,37.96791]]]}},{"type":"Feature","properties":{"NAME":"Sea Plane Hbr","MTFCC":"H2051","source":"U.S. Census Bureau TIGER/Line areal hydrography via TIGERweb Hydro MapServer layer 1","fetched":"2026-09-06","simplify_tolerance_deg":0.001},"geometry":{"type":"Polygon","coordinates":[[[-122.388917,37.633116],[-122.386429,37.635258],[-122.379008,37.635353],[-122.379744,37.63064],[-122.385314,37.62884],[-122.388518,37.630479],[-122.388917,37.633116]]]}},{"type":"Feature","properties":{"NAME":"Shipwreck","MTFCC":"H2051","source":"U.S. Census Bureau TIGER/Line areal hydrography via TIGERweb Hydro MapServer layer 1","fetched":"2026-09-06","simplify_tolerance_deg":0.001},"geometry":{"type":"Polygon","coordinates":[[[-121.914484,36.969012],[-121.913699,36.969816],[-121.914226,36.968873],[-121.914484,36.969012]]]}},{"type":"Feature","properties":{"NAME":"South Cv","MTFCC":"H2051","source":"U.S. Census Bureau TIGER/Line areal hydrography via TIGERweb Hydro MapServer layer 1","fetched":"2026-09-06","simplify_tolerance_deg":0.001},"geometry":{"type":"Polygon","coordinates":[[[-121.749435,37.800206],[-121.744622,37.805518],[-121.738497,37.805093],[-121.74056,37.801519],[-121.742697,37.804443],[-121.746335,37.800943],[-121.749435,37.800206]]]}},{"type":"Feature","properties":{"NAME":"Suisun Bay","MTFCC":"H2051","source":"U.S. Census Bureau TIGER/Line areal hydrography via TIGERweb Hydro MapServer layer 1","fetched":"2026-09-06","simplify_tolerance_deg":0.001},"geometry":{"type":"Polygon","coordinates":[[[-122.120395,38.03814],[-122.098726,38.04746],[-122.07743,38.054005],[-122.061103,38.062137],[-122.050874,38.060201],[-122.028411,38.05919],[-122.015175,38.063481],[-121.983158,38.067297],[-121.972281,38.065538],[-121.950919,38.054978],[-121.950911,38.053918],[-121.968876,38.056102],[-121.981556,38.055728],[-122.001073,38.058319],[-122.009027,38.055974],[-122.020539,38.057665],[-122.011624,38.058535],[-122.024624,38.057941],[-122.023074,38.058952],[-122.039973,38.056495],[-122.039397,38.055567],[-122.043858,38.053909],[-122.043128,38.052953],[-122.043962,38.053815],[-122.051945,38.050581],[-122.070454,38.053449],[-122.073059,38.049389],[-122.087231,38.047657],[-122.090959,38.045733],[-122.091064,38.043511],[-122.096538,38.043166],[-122.096378,38.042617],[-122.096593,38.042232],[-122.098184,38.041479],[-122.098251,38.03615],[-122.098489,38.041523],[-122.09658,38.042529],[-122.097476,38.043276],[-122.107207,38.040702],[-122.107004,38.038142],[-122.107867,38.040509],[-122.113687,38.038463],[-122.112114,38.033613],[-122.113057,38.03225],[-122.113178,38.036727],[-122.114679,38.037759],[-122.118272,38.035302],[-122.120395,38.03814]],[[-121.985572,38.06273],[-121.982361,38.06239],[-121.980312,38.062935],[-121.982077,38.064258],[-121.985572,38.06273]]]}},{"type":"Feature","properties":{"NAME":"Suisun Bay","MTFCC":"H2051","source":"U.S. Census Bureau TIGER/Line areal hydrography via TIGERweb Hydro MapServer layer 1","fetched":"2026-09-06","simplify_tolerance_deg":0.001},"geometry":{"type":"Polygon","coordinates":[[[-122.127713,38.047686],[-122.124343,38.057848],[-122.112207,38.070311],[-122.101635,38.079467],[-122.100647,38.078413],[-122.10151,38.079577],[-122.071056,38.103941],[-122.065995,38.112605],[-122.065903,38.120785],[-122.053843,38.102286],[-122.037542,38.091759],[-122.036778,38.089764],[-122.038433,38.088699],[-122.037196,38.087232],[-122.038399,38.086029],[-122.033277,38.084742],[-122.02864,38.087806],[-122.024942,38.086844],[-122.025214,38.084811],[-122.022254,38.083173],[-122.023784,38.081399],[-122.020978,38.079091],[-122.023335,38.076647],[-122.021098,38.07563],[-122.012412,38.074027],[-122.001638,38.075752],[-121.999506,38.082171],[-122.001472,38.083951],[-122.001827,38.08925],[-121.992831,38.085623],[-121.98535,38.085583],[-121.982074,38.082069],[-121.983393,38.081206],[-121.979038,38.079287],[-121.978587,38.080944],[-121.980864,38.080363],[-121.981432,38.080489],[-121.981631,38.080959],[-121.976889,38.081724],[-121.974512,38.075185],[-121.972041,38.073958],[-121.968677,38.074189],[-121.969692,38.074694],[-121.964794,38.07847],[-121.963543,38.078701],[-121.965274,38.080083],[-121.964677,38.080887],[-121.95601,38.080449],[-121.952209,38.084789],[-121.951701,38.084486],[-121.952612,38.083987],[-121.95357,38.081817],[-121.956225,38.078186],[-121.956565,38.078119],[-121.951137,38.075741],[-121.950919,38.054978],[-121.972281,38.065538],[-121.983158,38.067297],[-122.015175,38.063481],[-122.028411,38.05919],[-122.050874,38.060201],[-122.061103,38.062137],[-122.07743,38.054005],[-122.098726,38.04746],[-122.120395,38.03814],[-122.127713,38.047686]],[[-122.046543,38.070357],[-122.034353,38.07019],[-122.02817,38.0676],[-122.021191,38.071125],[-122.03531,38.076024],[-122.044512,38.073455],[-122.046543,38.070357]],[[-121.992366,38.080191],[-121.989426,38.079363],[-121.990745,38.077538],[-121.980674,38.076982],[-121.987538,38.083704],[-121.992366,38.080191]],[[-121.979115,38.073137],[-121.976946,38.071264],[-121.972728,38.07159],[-121.977483,38.076038],[-121.979115,38.073137]],[[-121.977159,38.079994],[-121.975969,38.077637],[-121.977194,38.081466],[-121.977159,38.079994]],[[-121.967086,38.075233],[-121.964056,38.074943],[-121.961013,38.076883],[-121.961653,38.079723],[-121.959554,38.080481],[-121.964774,38.08053],[-121.963369,38.078684],[-121.967086,38.075233]],[[-121.959867,38.080108],[-121.960603,38.07908],[-121.958616,38.079613],[-121.959867,38.080108]],[[-121.958296,38.079399],[-121.956218,38.078548],[-121.955363,38.080163],[-121.956079,38.080257],[-121.958296,38.079399]]]}},{"type":"Feature","properties":{"NAME":"Suisun Cutoff","MTFCC":"H2051","source":"U.S. Census Bureau TIGER/Line areal hydrography via TIGERweb Hydro MapServer layer 1","fetched":"2026-09-06","simplify_tolerance_deg":0.001},"geometry":{"type":"Polygon","coordinates":[[[-122.020251,38.096401],[-122.001988,38.08941],[-122.001472,38.083951],[-122.01564,38.089515],[-122.029889,38.091575],[-122.020251,38.096401]]]}},{"type":"Feature","properties":{"NAME":"Tomales Bay","MTFCC":"H2051","source":"U.S. Census Bureau TIGER/Line areal hydrography via TIGERweb Hydro MapServer layer 1","fetched":"2026-09-06","simplify_tolerance_deg":0.001},"geometry":{"type":"Polygon","coordinates":[[[-122.986994,38.237583],[-122.96864,38.242866],[-122.972663,38.232566],[-122.963169,38.2312],[-122.96294,38.233859],[-122.958976,38.232855],[-122.9589,38.235294],[-122.954365,38.232679],[-122.952727,38.230559],[-122.953493,38.226554],[-122.952148,38.224757],[-122.954048,38.219159],[-122.953024,38.214368],[-122.947836,38.218764],[-122.948937,38.219912],[-122.944661,38.220198],[-122.940663,38.218808],[-122.93356,38.211452],[-122.922708,38.221304],[-122.925719,38.214594],[-122.92588,38.206061],[-122.921766,38.201259],[-122.91771,38.190655],[-122.913492,38.188627],[-122.909277,38.179687],[-122.90392,38.174625],[-122.901064,38.165461],[-122.8941,38.161969],[-122.894742,38.158942],[-122.888206,38.151605],[-122.887749,38.148968],[-122.883964,38.148636],[-122.881206,38.143773],[-122.872881,38.14036],[-122.870969,38.133351],[-122.862959,38.127465],[-122.862476,38.124058],[-122.864761,38.119267],[-122.860441,38.116598],[-122.859774,38.117736],[-122.861541,38.119757],[-122.859405,38.117824],[-122.859856,38.116291],[-122.85247,38.115068],[-122.850883,38.113321],[-122.85264,38.108821],[-122.849663,38.105795],[-122.842161,38.107291],[-122.841958,38.104643],[-122.8407,38.105209],[-122.825393,38.091256],[-122.826783,38.087372],[-122.830203,38.087762],[-122.832685,38.090025],[-122.829848,38.086163],[-122.833227,38.088882],[-122.832191,38.085064],[-122.837148,38.088942],[-122.835304,38.083426],[-122.842377,38.090726],[-122.85045,38.095504],[-122.850889,38.097372],[-122.869723,38.114759],[-122.882334,38.123335],[-122.883327,38.126594],[-122.885962,38.127254],[-122.88927,38.132272],[-122.893652,38.132686],[-122.89678,38.136341],[-122.895325,38.138741],[-122.896499,38.140758],[-122.903843,38.145595],[-122.903814,38.149325],[-122.907702,38.152019],[-122.910742,38.152129],[-122.907116,38.155397],[-122.907421,38.157623],[-122.915241,38.161196],[-122.915337,38.164827],[-122.923499,38.172795],[-122.922823,38.175097],[-122.926853,38.176526],[-122.930193,38.180553],[-122.931619,38.187696],[-122.935016,38.187481],[-122.937488,38.190932],[-122.943189,38.194212],[-122.950075,38.193755],[-122.951474,38.195574],[-122.947228,38.195821],[-122.947826,38.197414],[-122.945675,38.199436],[-122.946483,38.201925],[-122.951503,38.202479],[-122.950146,38.205183],[-122.95922,38.208604],[-122.971085,38.223347],[-122.977069,38.226593],[-122.986994,38.237583]]]}},{"type":"Feature","properties":{"NAME":"Waddell Estuary","MTFCC":"H2051","source":"U.S. Census Bureau TIGER/Line areal hydrography via TIGERweb Hydro MapServer layer 1","fetched":"2026-09-06","simplify_tolerance_deg":0.001},"geometry":{"type":"Polygon","coordinates":[[[-122.277653,37.094247],[-122.278241,37.097671],[-122.276717,37.09894],[-122.278035,37.097671],[-122.277653,37.094247]]]}},{"type":"Feature","properties":{"NAME":"Westpoint Hbr","MTFCC":"H2051","source":"U.S. Census Bureau TIGER/Line areal hydrography via TIGERweb Hydro MapServer layer 1","fetched":"2026-09-06","simplify_tolerance_deg":0.001},"geometry":{"type":"Polygon","coordinates":[[[-122.197674,37.512358],[-122.194523,37.514152],[-122.192111,37.51357],[-122.192184,37.511882],[-122.197674,37.512358]]]}}]}