{"type":"FeatureCollection","features":[{"type":"Feature","properties":{"name":"San Francisco Bay Area (9-county)","source":"U.S. Census Bureau TIGER/Line county shapefiles via TIGERweb State_County MapServer layer 1 (Counties), outSR EPSG:4326","fetched":"2026-09-06","county_geoids":["06001","06013","06041","06055","06075","06081","06085","06095","06097"],"simplify_tolerance_deg":0.001,"metro_bbox":{"min_lat":36.89,"max_lat":38.87,"min_lng":-123.64,"max_lng":-121.2}},"geometry":{"type":"MultiPolygon","coordinates":[[[[-121.4777,37.480279],[-121.48341,37.475423],[-121.486775,37.475652],[-121.484252,37.466032],[-121.475033,37.462054],[-121.472676,37.456381],[-121.467179,37.453341],[-121.464687,37.454483],[-121.462917,37.451489],[-121.463476,37.445692],[-121.46186,37.438799],[-121.470328,37.43012],[-121.468858,37.424994],[-121.472606,37.423345],[-121.466251,37.415034],[-121.463551,37.415934],[-121.456351,37.406735],[-121.455651,37.401035],[-121.458251,37.398135],[-121.456651,37.395535],[-121.45155,37.394635],[-121.448163,37.391677],[-121.436085,37.39613],[-121.42405,37.393635],[-121.41945,37.390735],[-121.412549,37.389435],[-121.409075,37.380672],[-121.415849,37.375916],[-121.41929,37.364445],[-121.4225,37.363091],[-121.42365,37.358837],[-121.419409,37.351989],[-121.42075,37.344737],[-121.40915,37.330637],[-121.41115,37.327537],[-121.410218,37.325061],[-121.411939,37.324445],[-121.409398,37.321464],[-121.405753,37.31099],[-121.418366,37.303275],[-121.42275,37.299138],[-121.423452,37.295287],[-121.425767,37.296336],[-121.431391,37.294994],[-121.436816,37.291971],[-121.443551,37.296638],[-121.44965,37.293939],[-121.448658,37.2903],[-121.454009,37.28405],[-121.458051,37.284139],[-121.459068,37.282319],[-121.453966,37.277184],[-121.454849,37.263141],[-121.457255,37.260943],[-121.45502,37.25555],[-121.45575,37.24944],[-121.448145,37.239494],[-121.448744,37.237277],[-121.441746,37.231127],[-121.436104,37.229365],[-121.43388,37.226329],[-121.430756,37.227463],[-121.421822,37.22131],[-121.421075,37.214826],[-121.416869,37.211262],[-121.415657,37.199649],[-121.410463,37.192008],[-121.411525,37.185407],[-121.408794,37.182505],[-121.41114,37.177852],[-121.410431,37.174467],[-121.413401,37.172328],[-121.407727,37.169006],[-121.40653,37.158835],[-121.404636,37.155989],[-121.401141,37.15492],[-121.399019,37.150135],[-121.392989,37.148153],[-121.391131,37.150747],[-121.383551,37.151487],[-121.38163,37.157138],[-121.383957,37.160161],[-121.384266,37.166201],[-121.382914,37.167881],[-121.379654,37.168006],[-121.376313,37.172478],[-121.373429,37.173705],[-121.372209,37.176962],[-121.365035,37.179998],[-121.36317,37.183509],[-121.359558,37.184453],[-121.354561,37.183893],[-121.347499,37.180417],[-121.34306,37.174669],[-121.334349,37.170803],[-121.332548,37.171277],[-121.328409,37.16595],[-121.314034,37.16791],[-121.312882,37.170147],[-121.306044,37.166641],[-121.302619,37.16816],[-121.298552,37.165963],[-121.29152,37.170337],[-121.290959,37.175427],[-121.287728,37.177367],[-121.286063,37.181139],[-121.284297,37.180895],[-121.283404,37.183169],[-121.281107,37.183603],[-121.275378,37.178739],[-121.273101,37.173325],[-121.269507,37.171171],[-121.262093,37.159323],[-121.248763,37.157661],[-121.243842,37.15857],[-121.236629,37.156675],[-121.235985,37.149087],[-121.232297,37.139893],[-121.222863,37.131337],[-121.223141,37.128568],[-121.220707,37.124689],[-121.217339,37.123042],[-121.221339,37.116442],[-121.223788,37.115081],[-121.226304,37.109708],[-121.225538,37.106842],[-121.230526,37.10477],[-121.230439,37.096942],[-121.242618,37.093063],[-121.245484,37.089148],[-121.241977,37.085128],[-121.235493,37.086234],[-121.224638,37.078943],[-121.222404,37.073432],[-121.215799,37.069223],[-121.209637,37.068243],[-121.210337,37.066044],[-121.208198,37.061289],[-121.212591,37.055068],[-121.218735,37.057139],[-121.223387,37.057507],[-121.224518,37.056237],[-121.223156,37.05523],[-121.225808,37.052071],[-121.224507,37.039743],[-121.236138,37.036945],[-121.240634,37.031777],[-121.248647,37.03368],[-121.245989,37.025575],[-121.233337,37.011746],[-121.238186,37.009254],[-121.236337,37.008346],[-121.236976,37.006584],[-121.233137,36.999346],[-121.241517,36.997381],[-121.245137,36.992922],[-121.246568,36.985228],[-121.243877,36.980091],[-121.232128,36.968892],[-121.224833,36.967433],[-121.215406,36.961248],[-121.418246,36.960549],[-121.434563,36.973983],[-121.437697,36.97851],[-121.447346,36.982955],[-121.450607,36.988944],[-121.463656,36.984877],[-121.465948,36.982148],[-121.463561,36.978294],[-121.467939,36.976772],[-121.488949,36.983148],[-121.50175,36.97165],[-121.505377,36.964113],[-121.508145,36.963649],[-121.509401,36.960039],[-121.51243,36.958835],[-121.510231,36.954053],[-121.512115,36.952584],[-121.511692,36.949266],[-121.513813,36.945155],[-121.539234,36.927302],[-121.540874,36.925152],[-121.53912,36.922926],[-121.540283,36.92053],[-121.553493,36.915199],[-121.558452,36.910468],[-121.560259,36.897121],[-121.571394,36.897075],[-121.575725,36.893],[-121.581354,36.899152],[-121.581154,36.919252],[-121.590154,36.919252],[-121.590354,36.926151],[-121.607155,36.926051],[-121.624755,36.940451],[-121.624048,36.938494],[-121.63046,36.940544],[-121.637055,36.939053],[-121.642256,36.936351],[-121.641025,36.932224],[-121.645791,36.93233],[-121.653056,36.941751],[-121.654056,36.944751],[-121.652271,36.947628],[-121.653675,36.947717],[-121.654038,36.950584],[-121.663257,36.951851],[-121.66433,36.95514],[-121.662857,36.959151],[-121.664787,36.963714],[-121.677235,36.965547],[-121.678258,36.96785],[-121.690158,36.967351],[-121.697829,36.972098],[-121.698428,36.974984],[-121.695358,36.98515],[-121.705244,36.986245],[-121.705509,36.98936],[-121.7107,36.98972],[-121.710918,36.993066],[-121.71466,36.99313],[-121.717878,36.995561],[-121.732312,36.989664],[-121.738697,36.989991],[-121.729807,36.993555],[-121.728346,36.99682],[-121.729624,36.997872],[-121.718762,37.007557],[-121.726566,37.012054],[-121.727815,37.009862],[-121.736186,37.015342],[-121.731313,37.022417],[-121.730814,37.020324],[-121.72606,37.02126],[-121.739765,37.027684],[-121.746361,37.034749],[-121.75548,37.04903],[-121.76199,37.04782],[-121.76488,37.04947],[-121.76339,37.05196],[-121.76723,37.05332],[-121.77526,37.05298],[-121.78604,37.06199],[-121.79355,37.06431],[-121.79676,37.0638],[-121.80213,37.06793],[-121.809122,37.069319],[-121.812651,37.075382],[-121.81719,37.07788],[-121.81649,37.08037],[-121.81824,37.08374],[-121.82359,37.08597],[-121.82422,37.08778],[-121.83039,37.0881],[-121.83417,37.09122],[-121.83825,37.09169],[-121.83865,37.09322],[-121.84414,37.09473],[-121.8446,37.09665],[-121.849086,37.098997],[-121.861884,37.099346],[-121.860009,37.104171],[-121.870066,37.102247],[-121.884808,37.107825],[-121.8873,37.10491],[-121.890867,37.105256],[-121.89012,37.10663],[-121.89483,37.10858],[-121.89485,37.10981],[-121.910685,37.113295],[-121.92903,37.12342],[-121.932026,37.122001],[-121.957443,37.130571],[-121.96365,37.1335],[-121.97274,37.14173],[-121.980836,37.142282],[-121.987152,37.144819],[-121.99109,37.14427],[-121.99416,37.14985],[-122.002472,37.158291],[-122.009041,37.159792],[-122.015946,37.165658],[-122.026174,37.166854],[-122.025585,37.169071],[-122.027675,37.170846],[-122.025607,37.173797],[-122.027637,37.174083],[-122.02653,37.17611],[-122.028933,37.176936],[-122.031935,37.182297],[-122.03263,37.18614],[-122.03075,37.18999],[-122.040782,37.195171],[-122.04397,37.20105],[-122.054608,37.210009],[-122.055087,37.212497],[-122.05939,37.212985],[-122.062775,37.210365],[-122.065933,37.210413],[-122.07001,37.216672],[-122.078774,37.222974],[-122.08981,37.22327],[-122.092667,37.22544],[-122.093369,37.22924],[-122.09951,37.2332],[-122.10423,37.23427],[-122.10557,37.24074],[-122.121638,37.25856],[-122.13166,37.26093],[-122.13585,37.26574],[-122.14415,37.27021],[-122.148362,37.275451],[-122.150539,37.275883],[-122.14869,37.281],[-122.152695,37.288423],[-122.15145,37.229952],[-122.152774,37.215444],[-122.242573,37.215134],[-122.24266,37.190035],[-122.268881,37.189843],[-122.288581,37.186745],[-122.317682,37.186945],[-122.311782,37.147545],[-122.289382,37.113472],[-122.29941,37.096356],[-122.313899,37.054764],[-122.336414,37.053858],[-122.348208,37.055672],[-122.360003,37.058393],[-122.376086,37.065648],[-122.385739,37.075893],[-122.393127,37.087164],[-122.396875,37.102764],[-122.396916,37.109888],[-122.404395,37.113933],[-122.413362,37.121791],[-122.421347,37.135077],[-122.428467,37.137755],[-122.445632,37.150037],[-122.455426,37.166602],[-122.464117,37.177848],[-122.468053,37.187964],[-122.472235,37.212214],[-122.479071,37.221682],[-122.481703,37.229147],[-122.484046,37.249944],[-122.481774,37.271088],[-122.465869,37.34124],[-122.467005,37.349889],[-122.487454,37.388328],[-122.503543,37.411902],[-122.507734,37.422706],[-122.509889,37.441554],[-122.527596,37.446096],[-122.537338,37.450738],[-122.559524,37.469866],[-122.570958,37.484472],[-122.574963,37.499943],[-122.579563,37.545875],[-122.586454,37.561913],[-122.588177,37.579408],[-122.586788,37.589981],[-122.57956,37.611484],[-122.567497,37.639185],[-122.575189,37.706721],[-122.581281,37.760203],[-122.584728,37.779156],[-122.588174,37.789362],[-122.612285,37.815224],[-122.626105,37.821597],[-122.632472,37.827807],[-122.643163,37.830451],[-122.667425,37.841726],[-122.675654,37.848517],[-122.691987,37.845006],[-122.704679,37.844296],[-122.724311,37.84768],[-122.740258,37.855174],[-122.752466,37.857699],[-122.766771,37.865804],[-122.779141,37.876132],[-122.785472,37.885277],[-122.789027,37.893763],[-122.814134,37.901084],[-122.825371,37.907093],[-122.842134,37.923317],[-122.85046,37.945585],[-122.876104,37.966342],[-122.879057,37.966578],[-122.889291,37.974109],[-122.902284,37.977386],[-122.909236,37.964644],[-122.91917,37.954835],[-122.931927,37.946672],[-122.953224,37.941093],[-122.976428,37.940149],[-123.022507,37.942065],[-123.050084,37.948016],[-123.067965,37.958669],[-123.07939,37.971937],[-123.08388,37.983366],[-123.08513,38.008433],[-123.0812,38.018971],[-123.074701,38.027199],[-123.063797,38.036487],[-123.023699,38.124923],[-123.014817,38.149132],[-123.027211,38.16417],[-123.030483,38.172458],[-123.031336,38.181462],[-123.037897,38.192491],[-123.038943,38.197528],[-123.045825,38.204926],[-123.049617,38.214286],[-123.100963,38.261358],[-123.110969,38.267263],[-123.119591,38.277103],[-123.123774,38.285787],[-123.134523,38.296263],[-123.141329,38.311338],[-123.141001,38.327454],[-123.134312,38.345786],[-123.155743,38.368396],[-123.159847,38.374917],[-123.164757,38.388337],[-123.171711,38.394079],[-123.188465,38.40286],[-123.196159,38.410108],[-123.204071,38.423903],[-123.22022,38.441954],[-123.228013,38.444228],[-123.236391,38.450428],[-123.251116,38.452078],[-123.269188,38.457569],[-123.289685,38.46758],[-123.306742,38.478681],[-123.317345,38.488638],[-123.32381,38.498614],[-123.330725,38.499913],[-123.330921,38.502421],[-123.348529,38.504241],[-123.360929,38.510202],[-123.384567,38.537022],[-123.394157,38.553942],[-123.425389,38.582844],[-123.43049,38.591672],[-123.448391,38.606292],[-123.456159,38.614788],[-123.470521,38.638578],[-123.477373,38.642226],[-123.488543,38.651466],[-123.495084,38.660662],[-123.498669,38.668943],[-123.51058,38.68089],[-123.531889,38.693421],[-123.549463,38.700135],[-123.566089,38.709021],[-123.578005,38.717583],[-123.586915,38.728075],[-123.591962,38.740227],[-123.607061,38.748565],[-123.615205,38.749912],[-123.632497,38.758119],[-123.533223,38.76844],[-123.520197,38.758589],[-123.516343,38.767784],[-123.509881,38.767388],[-123.507041,38.773532],[-123.499933,38.773841],[-123.499155,38.778327],[-123.497042,38.778604],[-123.431075,38.776619],[-123.368236,38.777066],[-123.368394,38.80664],[-123.136253,38.809136],[-123.136636,38.839448],[-123.08123,38.838406],[-123.080997,38.852438],[-123.027674,38.852916],[-123.006918,38.851247],[-122.817651,38.849839],[-122.816673,38.847618],[-122.818314,38.844585],[-122.812142,38.842909],[-122.811058,38.841316],[-122.812089,38.838412],[-122.806227,38.836225],[-122.795989,38.838952],[-122.791393,38.830429],[-122.786138,38.827339],[-122.780193,38.826843],[-122.766612,38.815777],[-122.767613,38.813871],[-122.76135,38.811179],[-122.758839,38.807842],[-122.748177,38.803828],[-122.746198,38.799248],[-122.74822,38.787795],[-122.742359,38.782412],[-122.738017,38.781042],[-122.735338,38.777888],[-122.736417,38.776831],[-122.734551,38.772606],[-122.729543,38.770704],[-122.728337,38.766221],[-122.722693,38.763013],[-122.724158,38.756561],[-122.721509,38.756585],[-122.720085,38.753545],[-122.709321,38.74902],[-122.708774,38.746401],[-122.712332,38.742226],[-122.71038,38.732082],[-122.700668,38.728562],[-122.700716,38.726306],[-122.696251,38.720098],[-122.697387,38.718946],[-122.695451,38.71309],[-122.674234,38.706354],[-122.669402,38.70837],[-122.66219,38.70594],[-122.647497,38.70693],[-122.643864,38.702577],[-122.644313,38.69957],[-122.637049,38.69373],[-122.639497,38.689058],[-122.633896,38.685282],[-122.631592,38.680226],[-122.625464,38.674402],[-122.626772,38.67078],[-122.628499,38.670384],[-122.464115,38.706134],[-122.416259,38.767998],[-122.403052,38.772982],[-122.409253,38.776264],[-122.407302,38.78021],[-122.407946,38.784515],[-122.412708,38.786034],[-122.408614,38.788232],[-122.40743,38.793874],[-122.404409,38.79863],[-122.397492,38.804948],[-122.389807,38.802528],[-122.379739,38.802154],[-122.378711,38.805817],[-122.375516,38.808312],[-122.373623,38.816733],[-122.376794,38.82215],[-122.375369,38.826453],[-122.381726,38.834067],[-122.3851,38.834719],[-122.389591,38.838355],[-122.390895,38.842667],[-122.396779,38.850879],[-122.40165,38.856163],[-122.403797,38.855842],[-122.395598,38.8643],[-122.391738,38.858195],[-122.38158,38.850162],[-122.376171,38.849028],[-122.372734,38.845235],[-122.35072,38.835867],[-122.347685,38.836388],[-122.342232,38.842184],[-122.334593,38.84377],[-122.330285,38.84231],[-122.324047,38.846252],[-122.315351,38.839583],[-122.302939,38.842575],[-122.301717,38.839505],[-122.287597,38.839968],[-122.281699,38.825932],[-122.27597,38.819425],[-122.273407,38.809729],[-122.269669,38.803307],[-122.265799,38.800685],[-122.264447,38.796325],[-122.261291,38.794024],[-122.260568,38.790941],[-122.258458,38.789451],[-122.258749,38.786445],[-122.254469,38.781595],[-122.24866,38.755065],[-122.245928,38.751066],[-122.242651,38.749693],[-122.240282,38.74326],[-122.233961,38.740405],[-122.228463,38.729593],[-122.22514,38.727409],[-122.223746,38.722272],[-122.226785,38.719581],[-122.221511,38.704695],[-122.222169,38.69856],[-122.218386,38.695212],[-122.212699,38.693339],[-122.210491,38.694716],[-122.21106,38.696011],[-122.206458,38.695775],[-122.201351,38.690659],[-122.198042,38.683617],[-122.202112,38.677744],[-122.190072,38.663482],[-122.180927,38.65717],[-122.174286,38.658911],[-122.166096,38.655178],[-122.160343,38.643953],[-122.163382,38.64265],[-122.164156,38.64059],[-122.159174,38.635113],[-122.160763,38.632807],[-122.168703,38.629866],[-122.166206,38.624968],[-122.16646,38.619662],[-122.16404,38.617893],[-122.159488,38.619279],[-122.155831,38.6227],[-122.149351,38.625462],[-122.148367,38.624578],[-122.149422,38.622273],[-122.134387,38.604634],[-122.131578,38.594653],[-122.126978,38.587442],[-122.126783,38.581417],[-122.121554,38.568896],[-122.121326,38.566869],[-122.123305,38.565014],[-122.114219,38.539433],[-122.115007,38.53394],[-122.111603,38.530877],[-122.113015,38.527177],[-122.111563,38.524051],[-122.109981,38.524121],[-122.109595,38.521411],[-122.104614,38.516921],[-122.103878,38.513354],[-122.095016,38.513058],[-122.090775,38.515996],[-122.086855,38.514477],[-122.071384,38.513849],[-122.057415,38.517441],[-122.041568,38.505713],[-122.035566,38.496122],[-122.018942,38.489285],[-122.013542,38.48871],[-122.003077,38.493902],[-121.995927,38.500421],[-121.98657,38.502987],[-121.985426,38.505657],[-121.978068,38.508277],[-121.974699,38.513653],[-121.963606,38.522802],[-121.947456,38.527096],[-121.941072,38.533257],[-121.925323,38.529705],[-121.908969,38.529576],[-121.893784,38.533429],[-121.888421,38.537819],[-121.884441,38.539028],[-121.86668,38.537357],[-121.86012,38.538512],[-121.84406,38.535238],[-121.832557,38.529757],[-121.81333,38.526023],[-121.794762,38.526937],[-121.785811,38.523074],[-121.783559,38.523287],[-121.783034,38.52701],[-121.779698,38.529912],[-121.771677,38.532301],[-121.768504,38.530819],[-121.767744,38.526642],[-121.7651,38.525856],[-121.757197,38.529514],[-121.746647,38.531828],[-121.738675,38.537635],[-121.722202,38.53487],[-121.712034,38.537962],[-121.700735,38.527427],[-121.694677,38.527054],[-121.695797,38.487615],[-121.693639,38.487604],[-121.693892,38.314175],[-121.593273,38.313089],[-121.598654,38.309892],[-121.597579,38.307175],[-121.599908,38.301515],[-121.605258,38.295352],[-121.603946,38.289513],[-121.605418,38.285705],[-121.60073,38.278375],[-121.603994,38.270695],[-121.600249,38.257817],[-121.603208,38.237283],[-121.602443,38.22041],[-121.610411,38.208374],[-121.611717,38.200962],[-121.615413,38.195696],[-121.622809,38.193275],[-121.632297,38.194251],[-121.64213,38.190024],[-121.646568,38.186044],[-121.662907,38.181869],[-121.677994,38.164908],[-121.685645,38.159644],[-121.687705,38.146829],[-121.692095,38.133126],[-121.698384,38.121294],[-121.707215,38.109846],[-121.708436,38.091482],[-121.71213,38.08552],[-121.729348,38.082348],[-121.743164,38.087229],[-121.800123,38.059647],[-121.810811,38.060767],[-121.827916,38.066223],[-121.842444,38.076735],[-121.861597,38.069887],[-121.863098,38.064393],[-121.862138,38.066066],[-121.853639,38.064776],[-121.846802,38.059955],[-121.841659,38.051974],[-121.837936,38.038944],[-121.828067,38.02802],[-121.814513,38.020756],[-121.80127,38.021622],[-121.790769,38.01862],[-121.783144,38.018536],[-121.777485,38.018917],[-121.763474,38.023518],[-121.737824,38.02663],[-121.725565,38.03382],[-121.699765,38.04522],[-121.680859,38.062129],[-121.679623,38.069469],[-121.681865,38.082019],[-121.679265,38.089319],[-121.673065,38.093518],[-121.661865,38.095618],[-121.645183,38.087413],[-121.638088,38.086131],[-121.632595,38.088611],[-121.627376,38.09836],[-121.604923,38.099878],[-121.585283,38.096366],[-121.579252,38.09342],[-121.576749,38.078193],[-121.572893,38.073742],[-121.582203,38.068423],[-121.583879,38.059897],[-121.582305,38.051436],[-121.584719,38.043545],[-121.584388,38.036025],[-121.581686,38.032355],[-121.578834,38.03264],[-121.577948,38.033817],[-121.580786,38.038789],[-121.580185,38.041268],[-121.577634,38.04296],[-121.573009,38.04215],[-121.570819,38.038003],[-121.571388,38.030423],[-121.564226,38.029699],[-121.563754,38.024757],[-121.557528,38.016615],[-121.561069,38.015441],[-121.567998,38.018521],[-121.572052,38.01841],[-121.572605,38.016395],[-121.566965,38.013528],[-121.567149,38.011983],[-121.577015,38.01111],[-121.57991,38.007783],[-121.578245,38.003898],[-121.568845,38.002234],[-121.57056,37.999025],[-121.579236,37.998115],[-121.576084,37.994855],[-121.581025,37.989525],[-121.58236,37.983461],[-121.572393,37.979045],[-121.573288,37.977654],[-121.58021,37.97637],[-121.574823,37.973025],[-121.573713,37.966434],[-121.56497,37.95896],[-121.565586,37.957785],[-121.574501,37.956939],[-121.575188,37.955045],[-121.573589,37.953756],[-121.563514,37.954745],[-121.568846,37.948452],[-121.567409,37.943982],[-121.560683,37.947579],[-121.557846,37.947007],[-121.558175,37.945379],[-121.563618,37.94344],[-121.56088,37.93988],[-121.561455,37.935885],[-121.557274,37.932247],[-121.558899,37.927926],[-121.556408,37.923639],[-121.558262,37.921381],[-121.565114,37.919173],[-121.565981,37.916259],[-121.563289,37.910601],[-121.572824,37.904301],[-121.565904,37.897672],[-121.568375,37.89168],[-121.575851,37.888293],[-121.57387,37.883395],[-121.579334,37.870637],[-121.573389,37.865751],[-121.579429,37.86016],[-121.578021,37.857821],[-121.568978,37.860573],[-121.570454,37.857585],[-121.565903,37.857863],[-121.561977,37.853138],[-121.562267,37.85643],[-121.560326,37.858596],[-121.555255,37.858007],[-121.552836,37.861182],[-121.547496,37.855226],[-121.540643,37.857597],[-121.542033,37.851803],[-121.54072,37.849413],[-121.539038,37.848884],[-121.537209,37.850838],[-121.534102,37.849457],[-121.538158,37.842636],[-121.538051,37.83776],[-121.544187,37.832545],[-121.549459,37.833569],[-121.552095,37.829703],[-121.551154,37.825101],[-121.553311,37.818825],[-121.556997,37.816488],[-121.556655,37.542732],[-121.550454,37.539332],[-121.545754,37.532532],[-121.540611,37.529822],[-121.530386,37.527061],[-121.528817,37.52806],[-121.522328,37.524705],[-121.501475,37.525003],[-121.498268,37.522427],[-121.502371,37.51847],[-121.497232,37.512463],[-121.495382,37.508133],[-121.496017,37.504938],[-121.493183,37.502421],[-121.482065,37.501439],[-121.479362,37.496484],[-121.469275,37.489688],[-121.471198,37.482829],[-121.471925,37.481783],[-121.473237,37.481793],[-121.474527,37.479344],[-121.4777,37.480279]],[[-122.522257,37.824917],[-122.52286,37.824929],[-122.522987,37.824748],[-122.522257,37.824917]],[[-122.477888,37.831005],[-122.478442,37.830912],[-122.478092,37.825349],[-122.477888,37.831005]],[[-122.477813,37.833074],[-122.47801,37.833041],[-122.477827,37.832688],[-122.477813,37.833074]],[[-122.346681,37.811027],[-122.373117,37.883874],[-122.373782,37.883725],[-122.346681,37.811027]],[[-122.051605,37.459232],[-122.051244,37.459007],[-122.047825,37.459007],[-122.051605,37.459232]],[[-122.28178,37.70823],[-122.423345,37.70928],[-122.419222,37.708118],[-122.28178,37.70823]],[[-122.056211,37.462101],[-122.109574,37.497637],[-122.081473,37.477838],[-122.056211,37.462101]],[[-122.202356,37.360117],[-122.200706,37.371964],[-122.202467,37.360272],[-122.202356,37.360117]],[[-122.185954,37.338701],[-122.194365,37.346265],[-122.194164,37.345668],[-122.185954,37.338701]],[[-122.184214,37.310776],[-122.186597,37.315548],[-122.18557,37.31167],[-122.184214,37.310776]],[[-122.182121,37.309649],[-122.182703,37.30978],[-122.18232,37.309528],[-122.182121,37.309649]],[[-122.176614,37.312322],[-122.171094,37.311999],[-122.171178,37.312118],[-122.175817,37.312749],[-122.176614,37.312322]],[[-122.152918,37.288836],[-122.15339,37.28971],[-122.154316,37.290091],[-122.152918,37.288836]],[[-122.111548,37.466292],[-122.096576,37.466104],[-122.096574,37.466138],[-122.111548,37.466292]],[[-122.113265,37.46753],[-122.113276,37.467524],[-122.111548,37.466292],[-122.113265,37.46753]],[[-122.123919,37.461145],[-122.113376,37.467472],[-122.117693,37.465238],[-122.123919,37.461145]],[[-122.122828,37.453594],[-122.122103,37.45359],[-122.122197,37.453981],[-122.122828,37.453594]],[[-122.128571,37.451952],[-122.128397,37.451852],[-122.126906,37.453617],[-122.128571,37.451952]],[[-122.142318,37.457705],[-122.138774,37.454802],[-122.140703,37.457268],[-122.142318,37.457705]],[[-122.147477,37.456498],[-122.143219,37.457949],[-122.144407,37.45827],[-122.147477,37.456498]],[[-122.18221,37.439396],[-122.175704,37.441884],[-122.182175,37.439478],[-122.18221,37.439396]],[[-122.190016,37.394857],[-122.194538,37.40794],[-122.19454,37.407934],[-122.190016,37.394857]],[[-122.16087,38.034026],[-122.165664,38.035952],[-122.164577,38.034721],[-122.16087,38.034026]],[[-122.143142,38.03199],[-122.155075,38.032939],[-122.148577,38.031721],[-122.143142,38.03199]],[[-122.123973,38.035717],[-122.140311,38.03213],[-122.139366,38.032177],[-122.123973,38.035717]],[[-121.983158,38.067297],[-122.015175,38.063481],[-121.979305,38.066674],[-121.983158,38.067297]],[[-121.972281,38.065538],[-121.975075,38.06599],[-121.967055,38.063107],[-121.972281,38.065538]],[[-121.955679,38.057816],[-121.959569,38.059625],[-121.950911,38.053918],[-121.955679,38.057816]],[[-121.935428,38.048793],[-121.933227,38.048315],[-121.950911,38.053918],[-121.935428,38.048793]],[[-121.913675,38.045405],[-121.928547,38.047297],[-121.922121,38.045901],[-121.913675,38.045405]],[[-121.898174,38.045831],[-121.908306,38.04509],[-121.906801,38.045002],[-121.898174,38.045831]],[[-121.886421,38.047511],[-121.892167,38.046408],[-121.889573,38.046657],[-121.886421,38.047511]],[[-121.873076,38.052088],[-121.877775,38.049854],[-121.874743,38.050676],[-121.873076,38.052088]],[[-121.865812,38.059665],[-121.869301,38.055287],[-121.867402,38.056895],[-121.865812,38.059665]],[[-122.106282,38.508306],[-122.103839,38.510177],[-122.103974,38.511664],[-122.106282,38.508306]],[[-122.061768,38.326018],[-122.061613,38.32613],[-122.06238,38.331973],[-122.061768,38.326018]],[[-122.633422,38.580093],[-122.630191,38.578496],[-122.633589,38.580763],[-122.633422,38.580093]],[[-122.639864,38.590011],[-122.634992,38.586387],[-122.643616,38.595073],[-122.639864,38.590011]],[[-122.64661,38.599113],[-122.646342,38.598752],[-122.645665,38.600375],[-122.64661,38.599113]],[[-122.62843,38.62296],[-122.628293,38.623038],[-122.62935,38.627152],[-122.62843,38.62296]],[[-122.630067,38.642537],[-122.627285,38.644608],[-122.627101,38.646209],[-122.630067,38.642537]],[[-122.624157,38.650304],[-122.623884,38.650572],[-122.623549,38.658038],[-122.624157,38.650304]],[[-122.623293,38.663761],[-122.623266,38.664353],[-122.623346,38.664425],[-122.623293,38.663761]],[[-122.633277,38.669289],[-122.633464,38.669246],[-122.628071,38.668667],[-122.628476,38.669031],[-122.633277,38.669289]],[[-122.404003,38.160409],[-122.405087,38.159607],[-122.396822,38.161451],[-122.404003,38.160409]],[[-122.394718,38.304697],[-122.394612,38.304724],[-122.396295,38.309092],[-122.394718,38.304697]],[[-122.408712,38.320008],[-122.40855,38.320107],[-122.408763,38.320345],[-122.408712,38.320008]],[[-122.419947,38.338264],[-122.419926,38.338277],[-122.419996,38.338333],[-122.419947,38.338264]],[[-122.427563,38.345678],[-122.425208,38.345591],[-122.427555,38.345714],[-122.427563,38.345678]],[[-122.429275,38.349476],[-122.429328,38.351001],[-122.43046,38.351637],[-122.429275,38.349476]],[[-122.437387,38.356701],[-122.437518,38.356991],[-122.437976,38.357092],[-122.437387,38.356701]],[[-122.452482,38.362359],[-122.446975,38.35908],[-122.452684,38.362584],[-122.452482,38.362359]],[[-122.453644,38.374114],[-122.456906,38.370689],[-122.453,38.374258],[-122.453644,38.374114]],[[-122.449725,38.374992],[-122.449176,38.374938],[-122.449133,38.375125],[-122.449725,38.374992]]],[[[-123.132272,37.819676],[-123.118289,37.823058],[-123.095261,37.821877],[-123.070494,37.81383],[-123.048817,37.799816],[-123.038726,37.788881],[-123.033841,37.778375],[-123.010588,37.774926],[-122.997538,37.770784],[-122.981429,37.758916],[-122.973256,37.748652],[-122.964099,37.744281],[-122.949985,37.732187],[-122.942294,37.721057],[-122.935865,37.702459],[-122.93571,37.697618],[-122.941364,37.67658],[-122.949068,37.663377],[-122.963006,37.651984],[-122.973012,37.646581],[-122.986747,37.641783],[-123.00111,37.63983],[-123.00111,37.641775],[-123.011605,37.641506],[-123.040696,37.650328],[-123.05358,37.658648],[-123.068589,37.673041],[-123.074921,37.690066],[-123.086057,37.70075],[-123.09285,37.713688],[-123.104921,37.712648],[-123.126114,37.71673],[-123.132597,37.719393],[-123.156757,37.73784],[-123.162751,37.743533],[-123.169985,37.75593],[-123.172926,37.7636],[-123.173825,37.775727],[-123.169107,37.792365],[-123.166012,37.796885],[-123.147209,37.811951],[-123.132272,37.819676]]]]}}]}